{"type": "FeatureCollection", "features": [{"type": "Feature", "id": 1, "geometry": {"type": "Point", "coordinates": [5.369163761616886, 60.36673689186315]}, "properties": {"OBJECTID": 1}}, {"type": "Feature", "id": 2, "geometry": {"type": "Point", "coordinates": [5.353699852207559, 60.37025065325632]}, "properties": {"OBJECTID": 2}}, {"type": "Feature", "id": 4, "geometry": {"type": "Point", "coordinates": [5.325537481350201, 60.408287224293154]}, "properties": {"OBJECTID": 4}}, {"type": "Feature", "id": 5, "geometry": {"type": "Point", "coordinates": [5.330323216715149, 60.40455939844787]}, "properties": {"OBJECTID": 5}}, {"type": "Feature", "id": 6, "geometry": {"type": "Point", "coordinates": [5.3488466243019435, 60.36832600061631]}, "properties": {"OBJECTID": 6}}, {"type": "Feature", "id": 7, "geometry": {"type": "Point", "coordinates": [5.364803435972399, 60.38301038619585]}, "properties": {"OBJECTID": 7}}, {"type": "Feature", "id": 8, "geometry": {"type": "Point", "coordinates": [5.334166707662272, 60.3957228971937]}, "properties": {"OBJECTID": 8}}, {"type": "Feature", "id": 10, "geometry": {"type": "Point", "coordinates": [5.352151144141339, 60.38897116662767]}, "properties": {"OBJECTID": 10}}, {"type": "Feature", "id": 12, "geometry": {"type": "Point", "coordinates": [5.3535574401245265, 60.36363677659115]}, "properties": {"OBJECTID": 12}}, {"type": "Feature", "id": 14, "geometry": {"type": "Point", "coordinates": [5.333667212014121, 60.37591577447279]}, "properties": {"OBJECTID": 14}}, {"type": "Feature", "id": 17, "geometry": {"type": "Point", "coordinates": [5.3512879031861695, 60.359711703020025]}, "properties": {"OBJECTID": 17}}, {"type": "Feature", "id": 18, "geometry": {"type": "Point", "coordinates": [5.3629786813396825, 60.36325454137472]}, "properties": {"OBJECTID": 18}}, {"type": "Feature", "id": 19, "geometry": {"type": "Point", "coordinates": [5.302940754057907, 60.38240476379304]}, "properties": {"OBJECTID": 19}}, {"type": "Feature", "id": 20, "geometry": {"type": "Point", "coordinates": [5.2974358841179745, 60.38733567494302]}, "properties": {"OBJECTID": 20}}, {"type": "Feature", "id": 21, "geometry": {"type": "Point", "coordinates": [5.277096630689758, 60.392062667206105]}, "properties": {"OBJECTID": 21}}]}