{"type": "FeatureCollection", "features": [{"type": "Feature", "id": 196, "geometry": {"type": "Point", "coordinates": [5.329049150357759, 60.401740285280596]}, "properties": {"publikum_Gate": "Breistølsveien", "publikum_PBetingelser": "for EL-mototrvogn under lading 08-20 Alle dager maks 3 timer", "pubklikum_AntallPlasser": 4, "publikum_tilleggsinfo": "4 plasser", "OBJECTID": 196}}, {"type": "Feature", "id": 263, "geometry": {"type": "Point", "coordinates": [5.32549733826431, 60.38419627021716]}, "properties": {"publikum_Gate": "Welhavens gate", "publikum_PBetingelser": "For EL-motorvogn under lading , 08-23 alle dager maks. 3 timer", "pubklikum_AntallPlasser": 2, "publikum_tilleggsinfo": null, "OBJECTID": 263}}, {"type": "Feature", "id": 279, "geometry": {"type": "Point", "coordinates": [5.320813237141196, 60.38407426413981]}, "properties": {"publikum_Gate": "Thormøhlens gate", "publikum_PBetingelser": "For EL-motorvogn under lading, 08-23 alle dager, maks. 3 timer", "pubklikum_AntallPlasser": 2, "publikum_tilleggsinfo": null, "OBJECTID": 279}}, {"type": "Feature", "id": 307, "geometry": {"type": "Point", "coordinates": [5.315477013976527, 60.39563545074826]}, "properties": {"publikum_Gate": "Holbergsallmenningen", "publikum_PBetingelser": "Ladbar motorvogn under lading 08-23 Alle dager maks 3 timer, pil tilbake", "pubklikum_AntallPlasser": 6, "publikum_tilleggsinfo": null, "OBJECTID": 307}}, {"type": "Feature", "id": 308, "geometry": {"type": "Point", "coordinates": [5.315423866281543, 60.39559589330026]}, "properties": {"publikum_Gate": "Holbergsallmenningen", "publikum_PBetingelser": "Ladbar motorvogn under lading 08-23 Alle dager maks 3 timer", "pubklikum_AntallPlasser": 6, "publikum_tilleggsinfo": null, "OBJECTID": 308}}, {"type": "Feature", "id": 357, "geometry": {"type": "Point", "coordinates": [5.32124021414523, 60.39933338611948]}, "properties": {"publikum_Gate": "Øvre Dreggsallmenningen", "publikum_PBetingelser": "For EL-motorvogn under lading, 08-20 Alle dager maks 3 timer", "pubklikum_AntallPlasser": 6, "publikum_tilleggsinfo": null, "OBJECTID": 357}}, {"type": "Feature", "id": 482, "geometry": {"type": "Point", "coordinates": [5.310133568481361, 60.39842297316224]}, "properties": {"publikum_Gate": "Tollbodallmenningen", "publikum_PBetingelser": "For ladbar motorvogn under lading. Maks. 3 timer 08-23, parkering forbudt lørdag (15-20)", "pubklikum_AntallPlasser": 10, "publikum_tilleggsinfo": null, "OBJECTID": 482}}, {"type": "Feature", "id": 518, "geometry": {"type": "Point", "coordinates": [5.3201649735650145, 60.38519399416414]}, "properties": {"publikum_Gate": "Professor Hansteens gate", "publikum_PBetingelser": "Ladbar motorvogn under lading, 08-23 alle dager maks. 3 timer", "pubklikum_AntallPlasser": 2, "publikum_tilleggsinfo": null, "OBJECTID": 518}}, {"type": "Feature", "id": 607, "geometry": {"type": "Point", "coordinates": [5.318401360697724, 60.38840471094699]}, "properties": {"publikum_Gate": "Sydnesplassen", "publikum_PBetingelser": "For EL-motorvogn under lading, 08-20 Alle dager, Maks. 3 timer", "pubklikum_AntallPlasser": 8, "publikum_tilleggsinfo": null, "OBJECTID": 607}}, {"type": "Feature", "id": 6257, "geometry": {"type": "Point", "coordinates": [5.301083737279281, 60.38574699962957]}, "properties": {"publikum_Gate": "Damsgårdsveien ved kirken", "publikum_PBetingelser": "Ladbar motorvogn under lading", "pubklikum_AntallPlasser": 4, "publikum_tilleggsinfo": "4 plasser", "OBJECTID": 6257}}, {"type": "Feature", "id": 8699, "geometry": {"type": "Point", "coordinates": [5.353245655217054, 60.368302462927964]}, "properties": {"publikum_Gate": "St Olavs vei 83", "publikum_PBetingelser": "08-23 alle dager, maks 3 timer", "pubklikum_AntallPlasser": 2, "publikum_tilleggsinfo": null, "OBJECTID": 8699}}, {"type": "Feature", "id": 9091, "geometry": {"type": "Point", "coordinates": [5.35444324171882, 60.367520337334234]}, "properties": {"publikum_Gate": "Fredrik Stangs vei", "publikum_PBetingelser": "Alle dager 08-23. Maks. 3 timer", "pubklikum_AntallPlasser": 2, "publikum_tilleggsinfo": "2 ladeplasser. Alle dager 08-23. Maks. 3 timer", "OBJECTID": 9091}}]}