{"type": "FeatureCollection", "features": [{"type": "Feature", "properties": {"gate": "Lyder Sagens gate", "vegref": "KV4743 S1D1 m130", "sone": "1", "tekst": "Gjelder beboere med p-kort til sone 1", "skilt_id": 1027291138, "skiltpunkt_id": 1027291141, "veglenkesekvens": 755827, "side": "venstre (metreringsretning)", "retning": "med metrering", "lengde_m": 25, "stopp": "neste reguleringsskilt", "utstrekning": "ingen 828-pil, antatt framover", "plater_paa_stolpen": ["552 - Parkering", "808 - Underskilt med annen tekst: Gjelder beboere med p-kort til sone 1"], "status": "utledet"}, "geometry": {"type": "LineString", "coordinates": [[5.3302022, 60.3878011], [5.3301801, 60.3877888], [5.3300892, 60.3877376], [5.3300491, 60.387709], [5.3299241, 60.3876503], [5.3299002, 60.3876362]]}}, {"type": "Feature", "properties": {"gate": "Starvhusgaten", "vegref": "KV13310 S1D1 m35", "sone": "1", "tekst": "Gjelder beboere med p-kort til sone 1", "skilt_id": 82512386, "skiltpunkt_id": 82512392, "veglenkesekvens": 805810, "side": "venstre (metreringsretning)", "retning": "med metrering", "lengde_m": 46, "stopp": "neste reguleringsskilt", "utstrekning": "828.2 pil mot kjøreretningen", "plater_paa_stolpen": ["828.2 - Utstrekning av stans- og parkeringsregulering, gjelder mot kjøreretningen", "808.556 - Maks (tidsangivelse): Gjelder beboere med p-kort til sone 1", "552 - Parkering"], "status": "utledet"}, "geometry": {"type": "LineString", "coordinates": [[5.3219245, 60.3929619], [5.3220824, 60.3929186], [5.32239, 60.3928325], [5.3226443, 60.3927597], [5.3226475, 60.3927588]]}}, {"type": "Feature", "properties": {"gate": "Nedre Gartnergaten", "vegref": "KV4804 S1D1 m32", "sone": "1", "tekst": "For beboere med p-kort sone 1", "skilt_id": 1027264008, "skiltpunkt_id": 1027264007, "veglenkesekvens": 755903, "side": "venstre (metreringsretning)", "retning": "mot metrering", "lengde_m": 21, "stopp": "neste reguleringsskilt (snudd retning)", "utstrekning": "ingen 828-pil, antatt framover", "plater_paa_stolpen": ["808 - Underskilt med annen tekst: For beboere med p-kort sone 1", "552 - Parkering"], "status": "utledet"}, "geometry": {"type": "LineString", "coordinates": [[5.3176984, 60.3928968], [5.317801, 60.3929575], [5.3179446, 60.3930377]]}}, {"type": "Feature", "properties": {"gate": "Jonsvollsgaten", "vegref": "KV14160 S1D1 m19", "sone": "1", "tekst": "Gjelder beboere med p korttid sone 1 og 5", "skilt_id": 1010197947, "skiltpunkt_id": 1010197987, "veglenkesekvens": 805006, "side": "venstre (metreringsretning)", "retning": "med metrering", "lengde_m": 45, "stopp": "enden av veglenka", "utstrekning": "ingen 828-pil, antatt framover", "plater_paa_stolpen": ["808 - Underskilt med annen tekst: Gjelder beboere med p korttid sone 1 og 5", "552 - Parkering"], "status": "utledet"}, "geometry": {"type": "LineString", "coordinates": [[5.3154996, 60.3927683], [5.3154722, 60.3927107], [5.3154322, 60.3925961], [5.3153821, 60.3924819], [5.315358, 60.3924148], [5.3153341, 60.3923693]]}}, {"type": "Feature", "properties": {"gate": "Nedre Gartnergaten", "vegref": "KV4804 S1D1 m11", "sone": "1", "tekst": "For beboere med p-kort sone 1", "skilt_id": 1027264022, "skiltpunkt_id": 1027264023, "veglenkesekvens": 755903, "side": "venstre (metreringsretning)", "retning": "med metrering", "lengde_m": 21, "stopp": "neste reguleringsskilt", "utstrekning": "ingen 828-pil, antatt framover", "plater_paa_stolpen": ["552 - Parkering", "808 - Underskilt med annen tekst: For beboere med p-kort sone 1"], "status": "utledet"}, "geometry": {"type": "LineString", "coordinates": [[5.3179446, 60.3930377], [5.317801, 60.3929575], [5.3176984, 60.3928968]]}}, {"type": "Feature", "properties": {"gate": "Nedre Gartnergaten", "vegref": "KV4804 S1D1 m16", "sone": "1", "tekst": "For beboere med p-kort sone 1", "skilt_id": 1027264016, "skiltpunkt_id": 1027264013, "veglenkesekvens": 755903, "side": "høyre (metreringsretning)", "retning": "med metrering", "lengde_m": 16, "stopp": "enden av veglenka", "utstrekning": "ingen 828-pil, antatt framover", "plater_paa_stolpen": ["808 - Underskilt med annen tekst: For beboere med p-kort sone 1", "552 - Parkering"], "status": "utledet"}, "geometry": {"type": "LineString", "coordinates": [[5.3178032, 60.3930401], [5.3177182, 60.3929926], [5.3176077, 60.3929273]]}}, {"type": "Feature", "properties": {"gate": "Kalmargaten", "vegref": "KV4500 S1D1 m9", "sone": "1", "tekst": "For beboere med p-kort sone 1", "skilt_id": 1027263866, "skiltpunkt_id": 1027263868, "veglenkesekvens": 755517, "side": "venstre (metreringsretning)", "retning": "med metrering", "lengde_m": 9, "stopp": "neste reguleringsskilt", "utstrekning": "828.1 pil i kjøreretningen", "plater_paa_stolpen": ["808 - Underskilt med annen tekst: For beboere med p-kort sone 1", "828.1 - Utstrekning av stans- og parkeringsregulering, gjelder i begge kjøreretninger", "552 - Parkering"], "status": "utledet"}, "geometry": {"type": "LineString", "coordinates": [[5.3181933, 60.3930721], [5.3181429, 60.3930931], [5.3180993, 60.3931062], [5.3180846, 60.3931061]]}}, {"type": "Feature", "properties": {"gate": "Domkirkeplassen", "vegref": "KV4391 S2D1 m30", "sone": "1", "tekst": "For Beboere med P-kort sone 1", "skilt_id": 1027215620, "skiltpunkt_id": 1027215618, "veglenkesekvens": 755389, "side": "venstre (metreringsretning)", "retning": "mot metrering", "lengde_m": 20, "stopp": "neste reguleringsskilt", "utstrekning": "828.2 pil mot kjøreretningen", "plater_paa_stolpen": ["828.2 - Utstrekning av stans- og parkeringsregulering, gjelder mot kjøreretningen", "808 - Underskilt med annen tekst: For Beboere med P-kort sone 1", "552 - Parkering"], "status": "utledet"}, "geometry": {"type": "LineString", "coordinates": [[5.3302024, 60.3940952], [5.3301234, 60.3940381], [5.3300561, 60.3940076], [5.329965, 60.3939781]]}}, {"type": "Feature", "properties": {"gate": "Øvre Korskirkeallmenningen", "vegref": "KV5217 S1D1 m23", "sone": "1", "tekst": "For beboere med p-kort sone 1", "skilt_id": 1027216056, "skiltpunkt_id": 1027216057, "veglenkesekvens": 756421, "side": "høyre (metreringsretning)", "retning": "med metrering", "lengde_m": 26, "stopp": "neste reguleringsskilt", "utstrekning": "ingen 828-pil, antatt framover", "plater_paa_stolpen": ["552 - Parkering", "808 - Underskilt med annen tekst: For beboere med p-kort sone 1"], "status": "utledet"}, "geometry": {"type": "LineString", "coordinates": [[5.3289363, 60.3950699], [5.3290275, 60.3950985], [5.3292466, 60.3951515], [5.329346, 60.3951792]]}}, {"type": "Feature", "properties": {"gate": "Øvre Korskirkeallmenningen", "vegref": "KV5217 S1D1 m49", "sone": "1", "tekst": "For beboere med p-kort sone 1", "skilt_id": 1027216017, "skiltpunkt_id": 1027216016, "veglenkesekvens": 756421, "side": "høyre (metreringsretning)", "retning": "mot metrering", "lengde_m": 26, "stopp": "neste reguleringsskilt", "utstrekning": "828.2 pil mot kjøreretningen", "plater_paa_stolpen": ["808 - Underskilt med annen tekst: For beboere med p-kort sone 1", "552 - Parkering", "828.2 - Utstrekning av stans- og parkeringsregulering, gjelder mot kjøreretningen"], "status": "utledet"}, "geometry": {"type": "LineString", "coordinates": [[5.329346, 60.3951792], [5.3292466, 60.3951515], [5.3290275, 60.3950985], [5.3289363, 60.3950699]]}}, {"type": "Feature", "properties": {"gate": "Øvre Korskirkeallmenningen", "vegref": "KV5217 S1D1 m83", "sone": "6", "tekst": "For beboere med p-kort sone 6", "skilt_id": 1027216002, "skiltpunkt_id": 1027216005, "veglenkesekvens": 756421, "side": "venstre (metreringsretning)", "retning": "med metrering", "lengde_m": 154, "stopp": "enden av veglenka", "utstrekning": "ingen 828-pil, antatt framover", "plater_paa_stolpen": ["713.V - Vanlig vegviser, Venstre", "808 - Underskilt med annen tekst: For beboere med p-kort sone 6", "552 - Parkering"], "status": "utledet"}, "geometry": {"type": "LineString", "coordinates": [[5.3298583, 60.3953607], [5.329872, 60.3953619], [5.3299004, 60.3953638], [5.3299312, 60.3953676], [5.3299568, 60.3953713], [5.3299449, 60.3953653], [5.3299442, 60.3953663], [5.3299405, 60.3953874], [5.3299242, 60.3954712], [5.3299225, 60.3954859], [5.3299275, 60.3955025], [5.3299558, 60.3955213], [5.3299935, 60.395528], [5.3300223, 60.3955282], [5.3300479, 60.3955254], [5.3300698, 60.3955203], [5.3300941, 60.3955125], [5.3301382, 60.3954926], [5.330156, 60.3954835], [5.330231, 60.395445], [5.3302361, 60.3954434], [5.3302258, 60.3954447], [5.3302245, 60.3954449], [5.3302167, 60.3954423], [5.3302084, 60.3954354], [5.3302079, 60.3954305], [5.3302058, 60.3954331], [5.3301468, 60.3954774], [5.3300727, 60.3955301], [5.3300379, 60.3955581], [5.3300293, 60.3955781], [5.3300319, 60.3955922], [5.3300429, 60.3956083], [5.3300698, 60.3956252], [5.33011, 60.3956336], [5.3301501, 60.3956327], [5.3301838, 60.3956233], [5.3302209, 60.3956053], [5.3302769, 60.3955801], [5.3303038, 60.395568], [5.3303953, 60.3955289], [5.3304552, 60.3955044], [5.3304571, 60.3955052], [5.3304528, 60.395505], [5.330447, 60.3955044], [5.330448, 60.3955045], [5.3304452, 60.3955026], [5.3304458, 60.3955042], [5.3304466, 60.3955064], [5.3304462, 60.3955136], [5.3303853, 60.3955823], [5.330377, 60.3955906], [5.3303174, 60.3956508], [5.3303048, 60.3956672], [5.3303025, 60.3956858], [5.3303192, 60.3957075], [5.3303607, 60.3957225], [5.3304081, 60.3957225], [5.3304407, 60.3957143], [5.3304726, 60.3956987], [5.3305543, 60.3956345], [5.3306561, 60.3955553], [5.3307476, 60.395479], [5.3307652, 60.3954691], [5.3307953, 60.3954502]]}}, {"type": "Feature", "properties": {"gate": "Lille Øvregaten", "vegref": "KV4725 S1D1 m145", "sone": "6", "tekst": "For beboere med p-kort sone 6", "skilt_id": 1027215662, "skiltpunkt_id": 1027215663, "veglenkesekvens": 755805, "side": "høyre (metreringsretning)", "retning": "med metrering", "lengde_m": 111, "stopp": "enden av veglenka", "utstrekning": "ingen 828-pil, antatt framover", "plater_paa_stolpen": ["552 - Parkering", "713.H - Vanlig vegviser, Høyre", "808 - Underskilt med annen tekst: For beboere med p-kort sone 6"], "status": "utledet"}, "geometry": {"type": "LineString", "coordinates": [[5.3296617, 60.3953908], [5.3296599, 60.395393], [5.3296434, 60.3954131], [5.3295835, 60.3954677], [5.3295376, 60.3954987], [5.3294903, 60.3955323], [5.3294305, 60.3955794], [5.3294139, 60.3955898], [5.3293818, 60.395614], [5.3293249, 60.3956562], [5.329171, 60.3957679], [5.3290298, 60.3958712], [5.3289014, 60.3959548], [5.3288018, 60.3960198], [5.3286424, 60.396124], [5.3284954, 60.3962175]]}}, {"type": "Feature", "properties": {"gate": "Altonagaten", "vegref": "KV4279 S1D1 m9", "sone": "1", "tekst": "Gjelder beboere med p-kort sone 1", "skilt_id": 1027262015, "skiltpunkt_id": 1027262017, "veglenkesekvens": 755261, "side": "høyre (metreringsretning)", "retning": "med metrering", "lengde_m": 27, "stopp": "enden av veglenka", "utstrekning": "ingen 828-pil, antatt framover", "plater_paa_stolpen": ["552 - Parkering", "808 - Underskilt med annen tekst: Gjelder beboere med p-kort sone 1"], "status": "utledet"}, "geometry": {"type": "LineString", "coordinates": [[5.3180396, 60.3959397], [5.3179642, 60.3958863], [5.3178417, 60.3958015], [5.317799, 60.395773], [5.3177564, 60.3957424]]}}, {"type": "Feature", "properties": {"gate": "Strandgaten", "vegref": "KV3005 S1D1 m30", "sone": "1", "tekst": "Gjelder beboere med p-kort sone 1 og 5", "skilt_id": 1027260798, "skiltpunkt_id": 1027260802, "veglenkesekvens": 755057, "side": "venstre (metreringsretning)", "retning": "med metrering", "lengde_m": 12, "stopp": "enden av veglenka", "utstrekning": "ingen 828-pil, antatt framover", "plater_paa_stolpen": ["808 - Underskilt med annen tekst: Gjelder beboere med p-kort sone 1 og 5", "552 - Parkering"], "status": "utledet"}, "geometry": {"type": "LineString", "coordinates": [[5.3139226, 60.3968601], [5.3138898, 60.3968363], [5.3138318, 60.3967996], [5.3137951, 60.3967785], [5.3137895, 60.3967746]]}}, {"type": "Feature", "properties": {"gate": "Fløygaten", "vegref": "KV4460 S1D1 m132", "sone": "7", "tekst": "Gjelder beboere med p-kort til sone 7", "skilt_id": 1027188561, "skiltpunkt_id": 1027188568, "veglenkesekvens": 755466, "side": "høyre (metreringsretning)", "retning": "med metrering", "lengde_m": 9, "stopp": "neste reguleringsskilt", "utstrekning": "828.1 pil i kjøreretningen", "plater_paa_stolpen": ["808 - Underskilt med annen tekst: Gjelder beboere med p-kort til sone 7", "552 - Parkering", "828.1 - Utstrekning av stans- og parkeringsregulering, gjelder i begge kjøreretninger"], "status": "utledet"}, "geometry": {"type": "LineString", "coordinates": [[5.3286672, 60.3983343], [5.3286324, 60.3983256], [5.3285638, 60.3983068], [5.328525, 60.3982956]]}}, {"type": "Feature", "properties": {"gate": "Koren Wibergs plass", "vegref": "KV4678 S1D1 m55", "sone": "7", "tekst": "Gjelder beboere med P-kort i sone 7", "skilt_id": 1027194304, "skiltpunkt_id": 1027194306, "veglenkesekvens": 755749, "side": "venstre (metreringsretning)", "retning": "mot metrering", "lengde_m": 46, "stopp": "neste reguleringsskilt (snudd retning)", "utstrekning": "ingen 828-pil, antatt framover", "plater_paa_stolpen": ["808 - Underskilt med annen tekst: Gjelder beboere med P-kort i sone 7", "552 - Parkering"], "status": "utledet"}, "geometry": {"type": "LineString", "coordinates": [[5.3254511, 60.3984613], [5.3253603, 60.3984311], [5.3252326, 60.398377], [5.3250852, 60.3983186], [5.3249563, 60.3982702], [5.3248274, 60.3982171], [5.324785, 60.3982011]]}}, {"type": "Feature", "properties": {"gate": "Ole Eides gate", "vegref": "KV4880 S1D1 m14", "sone": "7", "tekst": "Gjelder beboere med p-kort til sone 7", "skilt_id": 1027188620, "skiltpunkt_id": 1027188621, "veglenkesekvens": 755995, "side": "venstre (metreringsretning)", "retning": "med metrering", "lengde_m": 12, "stopp": "neste reguleringsskilt", "utstrekning": "828.1 pil i kjøreretningen", "plater_paa_stolpen": ["552 - Parkering", "828.1 - Utstrekning av stans- og parkeringsregulering, gjelder i begge kjøreretninger", "808 - Underskilt med annen tekst: Gjelder beboere med p-kort til sone 7"], "status": "utledet"}, "geometry": {"type": "LineString", "coordinates": [[5.3279822, 60.3987784], [5.3280235, 60.3987909], [5.3281434, 60.3988329], [5.3281554, 60.3988373]]}}, {"type": "Feature", "properties": {"gate": "Steinkjellergaten", "vegref": "KV5052 S1D1 m35", "sone": "7", "tekst": "Gjelder beboere med P-kort til sone 7", "skilt_id": 1027190616, "skiltpunkt_id": 1027190619, "veglenkesekvens": 756226, "side": "høyre (metreringsretning)", "retning": "med metrering", "lengde_m": 52, "stopp": "neste reguleringsskilt", "utstrekning": "ingen 828-pil, antatt framover", "plater_paa_stolpen": ["808 - Underskilt med annen tekst: Gjelder beboere med P-kort til sone 7", "552 - Parkering"], "status": "utledet"}, "geometry": {"type": "LineString", "coordinates": [[5.3255661, 60.3997012], [5.325513, 60.3997484], [5.3254518, 60.3998066], [5.3254363, 60.3998227], [5.325357, 60.3998993], [5.3252907, 60.3999766], [5.3252825, 60.3999871], [5.3252627, 60.4000161], [5.3252399, 60.4000429], [5.3251792, 60.4001202]]}}, {"type": "Feature", "properties": {"gate": "Sandbrogaten", "vegref": "KV14610 S1D1 m21", "sone": "1", "tekst": "Gjelder beboere med p-kort til sone 1", "skilt_id": 1027193228, "skiltpunkt_id": 1027193229, "veglenkesekvens": 762379, "side": "venstre (metreringsretning)", "retning": "med metrering", "lengde_m": 23, "stopp": "neste reguleringsskilt", "utstrekning": "ingen 828-pil, antatt framover", "plater_paa_stolpen": ["552 - Parkering", "808 - Underskilt med annen tekst", "808 - Underskilt med annen tekst: Gjelder beboere med p-kort til sone 1"], "status": "utledet"}, "geometry": {"type": "LineString", "coordinates": [[5.322692, 60.3999868], [5.3227093, 60.3999736], [5.3227463, 60.3999419], [5.3227866, 60.3999093], [5.3228293, 60.3998764], [5.3228769, 60.3998389], [5.3229055, 60.3998049]]}}, {"type": "Feature", "properties": {"gate": "C. Sundts gate", "vegref": "KV5311 S1D1 m124", "sone": "1", "tekst": "Gjelder beboere med p-kort sone 1 og 5", "skilt_id": 1027259054, "skiltpunkt_id": 1027259055, "veglenkesekvens": 756545, "side": "venstre (metreringsretning)", "retning": "mot metrering", "lengde_m": 25, "stopp": "neste reguleringsskilt (snudd retning)", "utstrekning": "ingen 828-pil, antatt framover", "plater_paa_stolpen": ["808 - Underskilt med annen tekst: Gjelder beboere med p-kort sone 1 og 5", "552 - Parkering"], "status": "utledet"}, "geometry": {"type": "LineString", "coordinates": [[5.3085884, 60.3994773], [5.3086222, 60.3994749], [5.3087218, 60.3994848], [5.3087633, 60.3994735], [5.3088799, 60.3994301], [5.3089679, 60.3993968]]}}, {"type": "Feature", "properties": {"gate": "Lamberts vei", "vegref": "KV4831 S1D1 m71", "sone": "8", "tekst": "Gjelder beboere med P-kort til sone 8", "skilt_id": 1027185657, "skiltpunkt_id": 1027185660, "veglenkesekvens": 755939, "side": "venstre (metreringsretning)", "retning": "med metrering", "lengde_m": 58, "stopp": "enden av veglenka", "utstrekning": "ingen 828-pil, antatt framover", "plater_paa_stolpen": ["808 - Underskilt med annen tekst: Gjelder beboere med P-kort til sone 8", "552 - Parkering"], "status": "utledet"}, "geometry": {"type": "LineString", "coordinates": [[5.3225907, 60.4021225], [5.3225336, 60.4022368], [5.3224728, 60.402423], [5.3224042, 60.4024757], [5.3223308, 60.4025367], [5.3222594, 60.4025977]]}}, {"type": "Feature", "properties": {"gate": "Nordre Skuteviksveien", "vegref": "KV4839 S1D1 m17", "sone": "8", "tekst": "Gjelder beboere med P-kort til sone 8", "skilt_id": 1027185734, "skiltpunkt_id": 1027185737, "veglenkesekvens": 755946, "side": "venstre (metreringsretning)", "retning": "med metrering", "lengde_m": 149, "stopp": "neste reguleringsskilt", "utstrekning": "ingen 828-pil, antatt framover", "plater_paa_stolpen": ["808 - Underskilt med annen tekst: Gjelder beboere med P-kort til sone 8", "552 - Parkering"], "status": "utledet"}, "geometry": {"type": "LineString", "coordinates": [[5.3228604, 60.4026085], [5.3228085, 60.4025856], [5.3227163, 60.4025511], [5.3226503, 60.4025279], [5.3226028, 60.4025197], [5.3225534, 60.4025189], [5.3224912, 60.4025265], [5.3224461, 60.4025425], [5.3224126, 60.402562], [5.3223889, 60.402578], [5.3223587, 60.4025977], [5.3222412, 60.4026557], [5.3221564, 60.4027019], [5.3220269, 60.4027744], [5.3219208, 60.4028507], [5.3218285, 60.4029097], [5.3217284, 60.4029784], [5.3216853, 60.4030136], [5.3216587, 60.4030517], [5.3216413, 60.4031038], [5.3216218, 60.4031438], [5.3216006, 60.4032033], [5.3215711, 60.4033072], [5.321554, 60.4033643], [5.3215495, 60.4033741], [5.3215552, 60.4033757], [5.3215409, 60.4033814], [5.3215666, 60.4033805], [5.3215737, 60.40339], [5.3215791, 60.4033739], [5.3215823, 60.4033632], [5.3215859, 60.4033455], [5.3215884, 60.4033293], [5.3215871, 60.4033165], [5.321595, 60.4032905], [5.3215983, 60.4032768]]}}, {"type": "Feature", "properties": {"gate": "Nordre Skuteviksveien", "vegref": "KV4839 S1D1 m17", "sone": "8", "tekst": "Gjelder beboere med P-kort til sone 8", "skilt_id": 1027185728, "skiltpunkt_id": 1027185732, "veglenkesekvens": 755946, "side": "høyre (metreringsretning)", "retning": "mot metrering", "lengde_m": 7, "stopp": "neste reguleringsskilt", "utstrekning": "828.2 pil mot kjøreretningen", "plater_paa_stolpen": ["828.2 - Utstrekning av stans- og parkeringsregulering, gjelder mot kjøreretningen", "808 - Underskilt med annen tekst: Gjelder beboere med P-kort til sone 8", "552 - Parkering"], "status": "utledet"}, "geometry": {"type": "LineString", "coordinates": [[5.3227876, 60.4026487], [5.3228558, 60.4026788], [5.3228834, 60.4026904]]}}, {"type": "Feature", "properties": {"gate": "Nordre Skuteviksveien", "vegref": "KV4839 S1D1 m204", "sone": "8", "tekst": "Gjelder beboere med P-kort til sone 8", "skilt_id": 1027185696, "skiltpunkt_id": 1027185700, "veglenkesekvens": 755946, "side": "venstre (metreringsretning)", "retning": "med metrering", "lengde_m": 18, "stopp": "neste reguleringsskilt", "utstrekning": "ingen 828-pil, antatt framover", "plater_paa_stolpen": ["808 - Underskilt med annen tekst: Gjelder beboere med P-kort til sone 8", "552 - Parkering"], "status": "utledet"}, "geometry": {"type": "LineString", "coordinates": [[5.3215606, 60.4029416], [5.3215478, 60.4029134], [5.3215133, 60.4028587], [5.3214579, 60.4027858]]}}, {"type": "Feature", "properties": {"gate": "Nordre Skuteviksveien", "vegref": "KV4839 S1D1 m167", "sone": "8", "tekst": "Gjelder beboere med P-kort til sone 8", "skilt_id": 1027185704, "skiltpunkt_id": 1027185708, "veglenkesekvens": 755946, "side": "venstre (metreringsretning)", "retning": "med metrering", "lengde_m": 37, "stopp": "neste reguleringsskilt", "utstrekning": "828.2 pil mot kjøreretningen", "plater_paa_stolpen": ["828.2 - Utstrekning av stans- og parkeringsregulering, gjelder mot kjøreretningen", "808 - Underskilt med annen tekst: Gjelder beboere med P-kort til sone 8", "552 - Parkering"], "status": "utledet"}, "geometry": {"type": "LineString", "coordinates": [[5.3215983, 60.4032768], [5.3216097, 60.403229], [5.321623, 60.4031525], [5.3216129, 60.4030843], [5.3215907, 60.4030085], [5.3215606, 60.4029416]]}}, {"type": "Feature", "properties": {"gate": "Årstadveien", "vegref": "FV577 S1D1 m2283", "sone": "?", "tekst": null, "skilt_id": 82564454, "skiltpunkt_id": 82564460, "veglenkesekvens": 805748, "side": "høyre (metreringsretning)", "retning": "mot metrering", "lengde_m": 180, "stopp": "kappet ved 180 m", "utstrekning": "ingen 828-pil, antatt framover", "plater_paa_stolpen": ["807.8 - Symbol, forflytningshemmede med parkeringstillatelse", "808 - Underskilt med annen tekst", "552 - Parkering"], "status": "utledet – tekst ikke registrert i NVDB"}, "geometry": {"type": "LineString", "coordinates": [[5.3205852, 60.4022143], [5.3205778, 60.4022083], [5.3205176, 60.4021701], [5.3204311, 60.402116], [5.3203157, 60.4020634], [5.3201437, 60.4020111], [5.3199868, 60.4019836], [5.3199102, 60.4019714], [5.3196739, 60.401975], [5.3192398, 60.4020113], [5.3189071, 60.4020369], [5.3186623, 60.4020429], [5.3184689, 60.4020238], [5.3183186, 60.4019928], [5.3180818, 60.4019031], [5.3177995, 60.4017757], [5.3176975, 60.4017302]]}}, {"type": "Feature", "properties": {"gate": "Odd Frantzens plass", "vegref": "KV5302 S3D1 m106", "sone": "?", "tekst": null, "skilt_id": 1027295402, "skiltpunkt_id": 1027295406, "veglenkesekvens": 756533, "side": "høyre (metreringsretning)", "retning": "med metrering", "lengde_m": 33, "stopp": "enden av veglenka", "utstrekning": "ingen 828-pil, antatt framover", "plater_paa_stolpen": ["808 - Underskilt med annen tekst", "552 - Parkering"], "status": "utledet – tekst ikke registrert i NVDB"}, "geometry": {"type": "LineString", "coordinates": [[5.3332781, 60.3855359], [5.3332861, 60.3855091], [5.3333314, 60.3853578], [5.3333832, 60.3852463]]}}, {"type": "Feature", "properties": {"gate": "Daniel Hansens gate", "vegref": "KV4384 S1D1 m157", "sone": "?", "tekst": null, "skilt_id": 1027293259, "skiltpunkt_id": 1027293261, "veglenkesekvens": 755380, "side": "høyre (metreringsretning)", "retning": "med metrering", "lengde_m": 16, "stopp": "neste reguleringsskilt", "utstrekning": "ingen 828-pil, antatt framover", "plater_paa_stolpen": ["552 - Parkering", "808 - Underskilt med annen tekst"], "status": "utledet – tekst ikke registrert i NVDB"}, "geometry": {"type": "LineString", "coordinates": [[5.3304585, 60.387161], [5.3304747, 60.3871408], [5.3305684, 60.3870282]]}}, {"type": "Feature", "properties": {"gate": "Daniel Hansens gate", "vegref": "KV4384 S1D1 m132", "sone": "?", "tekst": null, "skilt_id": 1027293253, "skiltpunkt_id": 1027293254, "veglenkesekvens": 755380, "side": "venstre (metreringsretning)", "retning": "med metrering", "lengde_m": 40, "stopp": "neste reguleringsskilt", "utstrekning": "ingen 828-pil, antatt framover", "plater_paa_stolpen": ["552 - Parkering", "808 - Underskilt med annen tekst"], "status": "utledet – tekst ikke registrert i NVDB"}, "geometry": {"type": "LineString", "coordinates": [[5.3303929, 60.3873888], [5.3305758, 60.3871611], [5.3306624, 60.387057]]}}, {"type": "Feature", "properties": {"gate": "Strømgaten", "vegref": "KV5300 S1D1 m84", "sone": "?", "tekst": null, "skilt_id": 1027288323, "skiltpunkt_id": 1027288326, "veglenkesekvens": 756529, "side": "venstre (metreringsretning)", "retning": "med metrering", "lengde_m": 51, "stopp": "neste reguleringsskilt", "utstrekning": "ingen 828-pil, antatt framover", "plater_paa_stolpen": ["808 - Underskilt med annen tekst", "552 - Parkering"], "status": "utledet – tekst ikke registrert i NVDB"}, "geometry": {"type": "LineString", "coordinates": [[5.3274054, 60.3872309], [5.3273535, 60.3871975], [5.3273139, 60.3871584], [5.3272519, 60.3871178], [5.3271197, 60.3870413], [5.3269808, 60.386953], [5.3268668, 60.386878], [5.3268462, 60.3868631]]}}, {"type": "Feature", "properties": {"gate": "Damsgårdsveien", "vegref": "KV9973 S3D1 m28", "sone": "?", "tekst": null, "skilt_id": 1027335919, "skiltpunkt_id": 1027335923, "veglenkesekvens": 756818, "side": "høyre (metreringsretning)", "retning": "mot metrering", "lengde_m": 10, "stopp": "neste reguleringsskilt (snudd retning)", "utstrekning": "ingen 828-pil, antatt framover", "plater_paa_stolpen": ["808 - Underskilt med annen tekst", "552 - Parkering"], "status": "utledet – tekst ikke registrert i NVDB"}, "geometry": {"type": "LineString", "coordinates": [[5.301182, 60.385566], [5.3011905, 60.3856391], [5.3011912, 60.385654]]}}, {"type": "Feature", "properties": {"gate": "Lyder Sagens gate", "vegref": "KV4743 S1D1 m104", "sone": "?", "tekst": null, "skilt_id": 1027291056, "skiltpunkt_id": 1027291060, "veglenkesekvens": 755827, "side": "høyre (metreringsretning)", "retning": "med metrering", "lengde_m": 41, "stopp": "neste reguleringsskilt", "utstrekning": "ingen 828-pil, antatt framover", "plater_paa_stolpen": ["808 - Underskilt med annen tekst", "552 - Parkering"], "status": "utledet – tekst ikke registrert i NVDB"}, "geometry": {"type": "LineString", "coordinates": [[5.3304358, 60.3880088], [5.3304322, 60.3880066], [5.3302444, 60.3879059], [5.3300982, 60.3878244], [5.3300045, 60.3877715], [5.3299665, 60.3877441], [5.3299491, 60.3877363]]}}, {"type": "Feature", "properties": {"gate": "Dokkebakken", "vegref": "KV4386 S1D1 m13", "sone": "?", "tekst": null, "skilt_id": 1027279270, "skiltpunkt_id": 1027279274, "veglenkesekvens": 755382, "side": "høyre (metreringsretning)", "retning": "med metrering", "lengde_m": 16, "stopp": "neste reguleringsskilt", "utstrekning": "ingen 828-pil, antatt framover", "plater_paa_stolpen": ["808 - Underskilt med annen tekst", "552 - Parkering"], "status": "utledet – tekst ikke registrert i NVDB"}, "geometry": {"type": "LineString", "coordinates": [[5.3163799, 60.3873445], [5.3164027, 60.3873605], [5.3164438, 60.3873889], [5.3164742, 60.3874108], [5.3164909, 60.3874333], [5.3164968, 60.3874575], [5.3164844, 60.3874838], [5.3164688, 60.3874967], [5.3164646, 60.3874996]]}}, {"type": "Feature", "properties": {"gate": "Damsgårdsallmenningen", "vegref": "KV4381 S1D1 m38", "sone": "?", "tekst": null, "skilt_id": 1027333818, "skiltpunkt_id": 1027333817, "veglenkesekvens": 755377, "side": "venstre (metreringsretning)", "retning": "mot metrering", "lengde_m": 11, "stopp": "neste reguleringsskilt (snudd retning)", "utstrekning": "ingen 828-pil, antatt framover", "plater_paa_stolpen": ["808 - Underskilt med annen tekst", "552 - Parkering"], "status": "utledet – tekst ikke registrert i NVDB"}, "geometry": {"type": "LineString", "coordinates": [[5.2992168, 60.3866049], [5.2992235, 60.386607], [5.2992869, 60.3866284], [5.2993499, 60.3866533], [5.2993798, 60.3866644]]}}, {"type": "Feature", "properties": {"gate": "Vinjes gate", "vegref": "KV5167 S1D1 m42", "sone": "?", "tekst": null, "skilt_id": 1027283896, "skiltpunkt_id": 1027283900, "veglenkesekvens": 756358, "side": "høyre (metreringsretning)", "retning": "mot metrering", "lengde_m": 25, "stopp": "neste reguleringsskilt", "utstrekning": "828.2 pil mot kjøreretningen", "plater_paa_stolpen": ["806 - Tid", "828.2 - Utstrekning av stans- og parkeringsregulering, gjelder mot kjøreretningen", "808 - Underskilt med annen tekst", "552 - Parkering"], "status": "utledet – tekst ikke registrert i NVDB"}, "geometry": {"type": "LineString", "coordinates": [[5.3172798, 60.388372], [5.3174215, 60.3884834], [5.3175253, 60.3885606]]}}, {"type": "Feature", "properties": {"gate": "Vinjes gate", "vegref": "KV5167 S1D1 m17", "sone": "?", "tekst": null, "skilt_id": 1027283889, "skiltpunkt_id": 1027283890, "veglenkesekvens": 756358, "side": "høyre (metreringsretning)", "retning": "med metrering", "lengde_m": 25, "stopp": "neste reguleringsskilt", "utstrekning": "ingen 828-pil, antatt framover", "plater_paa_stolpen": ["806 - Tid", "552 - Parkering", "808 - Underskilt med annen tekst"], "status": "utledet – tekst ikke registrert i NVDB"}, "geometry": {"type": "LineString", "coordinates": [[5.3175253, 60.3885606], [5.3174215, 60.3884834], [5.3172798, 60.388372]]}}, {"type": "Feature", "properties": {"gate": "Rosenbergsgaten", "vegref": "KV4920 S1D1 m275", "sone": "?", "tekst": null, "skilt_id": 1027277350, "skiltpunkt_id": 1027277354, "veglenkesekvens": 756044, "side": "høyre (metreringsretning)", "retning": "med metrering", "lengde_m": 111, "stopp": "enden av veglenka", "utstrekning": "ingen 828-pil, antatt framover", "plater_paa_stolpen": ["808 - Underskilt med annen tekst", "552 - Parkering"], "status": "utledet – tekst ikke registrert i NVDB"}, "geometry": {"type": "LineString", "coordinates": [[5.3210195, 60.3892093], [5.3212716, 60.3891416], [5.3214406, 60.3890953], [5.3215562, 60.3890637], [5.3217134, 60.389014], [5.3219545, 60.3889482], [5.3221523, 60.388892], [5.3223838, 60.3888286], [5.322619, 60.3887707], [5.3227793, 60.388726]]}}, {"type": "Feature", "properties": {"gate": "Fjæregaten", "vegref": "KV4453 S1D1 m14", "sone": "?", "tekst": null, "skilt_id": 1027197502, "skiltpunkt_id": 1027197503, "veglenkesekvens": 755457, "side": "høyre (metreringsretning)", "retning": "med metrering", "lengde_m": 12, "stopp": "enden av veglenka", "utstrekning": "ingen 828-pil, antatt framover", "plater_paa_stolpen": ["552 - Parkering", "808 - Underskilt med annen tekst"], "status": "utledet – tekst ikke registrert i NVDB"}, "geometry": {"type": "LineString", "coordinates": [[5.3310901, 60.3907373], [5.3311188, 60.3907604], [5.3311868, 60.3908049], [5.3311889, 60.3908024], [5.3312135, 60.3908079]]}}, {"type": "Feature", "properties": {"gate": "Ole Irgens' vei", "vegref": "KV4881 S1D1 m1177", "sone": "?", "tekst": null, "skilt_id": 1027222724, "skiltpunkt_id": 1027222723, "veglenkesekvens": 755997, "side": "høyre (metreringsretning)", "retning": "med metrering", "lengde_m": 64, "stopp": "neste reguleringsskilt", "utstrekning": "ingen 828-pil, antatt framover", "plater_paa_stolpen": ["808 - Underskilt med annen tekst", "552 - Parkering"], "status": "utledet – tekst ikke registrert i NVDB"}, "geometry": {"type": "LineString", "coordinates": [[5.3421151, 60.391621], [5.3420668, 60.3916429], [5.341911, 60.3917206], [5.3417594, 60.3917992], [5.3416697, 60.3918422], [5.3414721, 60.3919455], [5.3413072, 60.3920244], [5.3413054, 60.3920252], [5.3413001, 60.3920275]]}}, {"type": "Feature", "properties": {"gate": "Grønnegaten", "vegref": "KV4518 S1D1 m19", "sone": "?", "tekst": null, "skilt_id": 1027197416, "skiltpunkt_id": 1027197420, "veglenkesekvens": 755540, "side": "venstre (metreringsretning)", "retning": "med metrering", "lengde_m": 34, "stopp": "enden av veglenka", "utstrekning": "828.1 pil i kjøreretningen", "plater_paa_stolpen": ["828.1 - Utstrekning av stans- og parkeringsregulering, gjelder i begge kjøreretninger", "808 - Underskilt med annen tekst", "552 - Parkering"], "status": "utledet – tekst ikke registrert i NVDB"}, "geometry": {"type": "LineString", "coordinates": [[5.3298641, 60.3911859], [5.3298832, 60.3912011], [5.3299068, 60.3912186], [5.3299608, 60.3912388], [5.330039, 60.3912502], [5.3301207, 60.3912913], [5.3301677, 60.3913163], [5.3302226, 60.3913435], [5.3303309, 60.3913856]]}}, {"type": "Feature", "properties": {"gate": "Ole Irgens' vei", "vegref": "KV4881 S1D1 m1257", "sone": "?", "tekst": null, "skilt_id": 1027222760, "skiltpunkt_id": 1027222765, "veglenkesekvens": 755997, "side": "høyre (metreringsretning)", "retning": "med metrering", "lengde_m": 47, "stopp": "neste reguleringsskilt", "utstrekning": "ingen 828-pil, antatt framover", "plater_paa_stolpen": ["808 - Underskilt med annen tekst", "552 - Parkering"], "status": "utledet – tekst ikke registrert i NVDB"}, "geometry": {"type": "LineString", "coordinates": [[5.3410726, 60.3921201], [5.3410208, 60.3921385], [5.3407997, 60.3922259], [5.3406956, 60.3922705], [5.3405044, 60.3923495], [5.3404073, 60.3923824]]}}, {"type": "Feature", "properties": {"gate": "Sverres gate", "vegref": "KV5063 S2D1 m48", "sone": "?", "tekst": null, "skilt_id": 1027276885, "skiltpunkt_id": 1027276888, "veglenkesekvens": 756238, "side": "høyre (metreringsretning)", "retning": "med metrering", "lengde_m": 26, "stopp": "neste reguleringsskilt", "utstrekning": "ingen 828-pil, antatt framover", "plater_paa_stolpen": ["808 - Underskilt med annen tekst", "552 - Parkering"], "status": "utledet – tekst ikke registrert i NVDB"}, "geometry": {"type": "LineString", "coordinates": [[5.3174847, 60.3906488], [5.3173983, 60.3905642], [5.3172828, 60.3904639], [5.3172622, 60.3904452]]}}, {"type": "Feature", "properties": {"gate": "Rådstuplassen", "vegref": "KV5744 S1D1 m15", "sone": "?", "tekst": null, "skilt_id": 1027218865, "skiltpunkt_id": 1027218866, "veglenkesekvens": 756621, "side": "høyre (metreringsretning)", "retning": "med metrering", "lengde_m": 35, "stopp": "neste reguleringsskilt", "utstrekning": "ingen 828-pil, antatt framover", "plater_paa_stolpen": ["552 - Parkering", "808 - Underskilt med annen tekst"], "status": "utledet – tekst ikke registrert i NVDB"}, "geometry": {"type": "LineString", "coordinates": [[5.3283863, 60.3927982], [5.3283327, 60.3927365], [5.3283097, 60.3926559], [5.3281031, 60.3926962], [5.3280698, 60.3927034]]}}, {"type": "Feature", "properties": {"gate": "Rådstuplassen", "vegref": "KV5744 S1D1 m78", "sone": "?", "tekst": null, "skilt_id": 1027218882, "skiltpunkt_id": 1027218886, "veglenkesekvens": 756621, "side": "venstre (metreringsretning)", "retning": "mot metrering", "lengde_m": 20, "stopp": "neste reguleringsskilt (snudd retning)", "utstrekning": "ingen 828-pil, antatt framover", "plater_paa_stolpen": ["808 - Underskilt med annen tekst", "552 - Parkering"], "status": "utledet – tekst ikke registrert i NVDB"}, "geometry": {"type": "LineString", "coordinates": [[5.3275627, 60.3927566], [5.3277444, 60.3927142], [5.3278937, 60.3926823]]}}, {"type": "Feature", "properties": {"gate": "Halfdan Kjerulfs gate", "vegref": "KV4532 S1D1 m53", "sone": "?", "tekst": null, "skilt_id": 1027217550, "skiltpunkt_id": 1027217553, "veglenkesekvens": 755561, "side": "venstre (metreringsretning)", "retning": "med metrering", "lengde_m": 24, "stopp": "neste reguleringsskilt", "utstrekning": "ingen 828-pil, antatt framover", "plater_paa_stolpen": ["808 - Underskilt med annen tekst", "552 - Parkering"], "status": "utledet – tekst ikke registrert i NVDB"}, "geometry": {"type": "LineString", "coordinates": [[5.3298082, 60.3930329], [5.3296007, 60.393101], [5.3294483, 60.393154]]}}, {"type": "Feature", "properties": {"gate": "Halfdan Kjerulfs gate", "vegref": "KV4532 S1D1 m77", "sone": "?", "tekst": null, "skilt_id": 1027217559, "skiltpunkt_id": 1027217561, "veglenkesekvens": 755561, "side": "venstre (metreringsretning)", "retning": "med metrering", "lengde_m": 21, "stopp": "enden av veglenka", "utstrekning": "ingen 828-pil, antatt framover", "plater_paa_stolpen": ["552 - Parkering", "808 - Underskilt med annen tekst"], "status": "utledet – tekst ikke registrert i NVDB"}, "geometry": {"type": "LineString", "coordinates": [[5.3294483, 60.393154], [5.329317, 60.3931996], [5.3292793, 60.3932107], [5.3292121, 60.3932312], [5.3291246, 60.3932593]]}}, {"type": "Feature", "properties": {"gate": "Starvhusgaten", "vegref": "KV13310 S1D1 m81", "sone": "?", "tekst": null, "skilt_id": 1027264556, "skiltpunkt_id": 1027264557, "veglenkesekvens": 805810, "side": "venstre (metreringsretning)", "retning": "med metrering", "lengde_m": 31, "stopp": "neste reguleringsskilt", "utstrekning": "ingen 828-pil, antatt framover", "plater_paa_stolpen": ["808 - Underskilt med annen tekst", "552 - Parkering"], "status": "utledet – tekst ikke registrert i NVDB"}, "geometry": {"type": "LineString", "coordinates": [[5.3226475, 60.3927588], [5.3228487, 60.3927011], [5.3230437, 60.3926406], [5.323125, 60.3926213], [5.3231333, 60.3926193]]}}, {"type": "Feature", "properties": {"gate": "Baneveien", "vegref": "KV4305 S1D1 m64", "sone": "?", "tekst": null, "skilt_id": 1027264457, "skiltpunkt_id": 1027264461, "veglenkesekvens": 755291, "side": "høyre (metreringsretning)", "retning": "mot metrering", "lengde_m": 24, "stopp": "neste reguleringsskilt", "utstrekning": "ingen 828-pil, antatt framover", "plater_paa_stolpen": ["808 - Underskilt med annen tekst", "552 - Parkering", "526.1 - Envegskjøring, plassert vinkelrett"], "status": "utledet – tekst ikke registrert i NVDB"}, "geometry": {"type": "LineString", "coordinates": [[5.3161911, 60.3924314], [5.3162029, 60.3924481], [5.3163004, 60.3925739], [5.3163473, 60.3926329]]}}, {"type": "Feature", "properties": {"gate": "Kalmargaten", "vegref": "KV4500 S1D1 m18", "sone": "?", "tekst": null, "skilt_id": 1027263834, "skiltpunkt_id": 1027263838, "veglenkesekvens": 755517, "side": "venstre (metreringsretning)", "retning": "med metrering", "lengde_m": 41, "stopp": "enden av veglenka", "utstrekning": "ingen 828-pil, antatt framover", "plater_paa_stolpen": ["808 - Underskilt med annen tekst", "552 - Parkering"], "status": "utledet – tekst ikke registrert i NVDB"}, "geometry": {"type": "LineString", "coordinates": [[5.3180846, 60.3931061], [5.3180729, 60.3931069], [5.3179976, 60.3931098], [5.3178872, 60.3931524], [5.3177614, 60.3932041], [5.3176084, 60.3932683], [5.3174687, 60.3933297]]}}, {"type": "Feature", "properties": {"gate": "Domkirkeplassen", "vegref": "KV4391 S2D1 m10", "sone": "?", "tekst": null, "skilt_id": 1027215611, "skiltpunkt_id": 1027215612, "veglenkesekvens": 755389, "side": "venstre (metreringsretning)", "retning": "med metrering", "lengde_m": 20, "stopp": "neste reguleringsskilt", "utstrekning": "ingen 828-pil, antatt framover", "plater_paa_stolpen": ["552 - Parkering", "808 - Underskilt med annen tekst"], "status": "utledet – tekst ikke registrert i NVDB"}, "geometry": {"type": "LineString", "coordinates": [[5.329965, 60.3939781], [5.3300561, 60.3940076], [5.3301234, 60.3940381], [5.3302024, 60.3940952]]}}, {"type": "Feature", "properties": {"gate": "Starvhusgaten", "vegref": "FV5348 S1D1 m2183", "sone": "?", "tekst": null, "skilt_id": 82512455, "skiltpunkt_id": 82512461, "veglenkesekvens": 805810, "side": "høyre (metreringsretning)", "retning": "med metrering", "lengde_m": 32, "stopp": "neste reguleringsskilt", "utstrekning": "ingen 828-pil, antatt framover", "plater_paa_stolpen": ["808 - Underskilt med annen tekst", "552 - Parkering"], "status": "utledet – tekst ikke registrert i NVDB"}, "geometry": {"type": "LineString", "coordinates": [[5.3195639, 60.3935924], [5.3196869, 60.3935648], [5.319823, 60.393536], [5.3199986, 60.393495], [5.3200914, 60.3934717]]}}, {"type": "Feature", "properties": {"gate": "Starvhusgaten", "vegref": "FV5348 S1D1 m2181", "sone": "?", "tekst": null, "skilt_id": 1010205271, "skiltpunkt_id": 494019537, "veglenkesekvens": 805810, "side": "venstre (metreringsretning)", "retning": "med metrering", "lengde_m": 150, "stopp": "neste reguleringsskilt", "utstrekning": "ingen 828-pil, antatt framover", "plater_paa_stolpen": ["552 - Parkering", "808 - Underskilt med annen tekst"], "status": "utledet – tekst ikke registrert i NVDB"}, "geometry": {"type": "LineString", "coordinates": [[5.3195769, 60.3936487], [5.319731, 60.3936141], [5.319868, 60.3935851], [5.3200464, 60.3935435], [5.3202328, 60.3934965], [5.3205242, 60.3934109], [5.3207267, 60.393354], [5.3210047, 60.3932672], [5.3212165, 60.3931973], [5.3212614, 60.3931806], [5.3213993, 60.3931286], [5.3216603, 60.3930493], [5.3218649, 60.3929782], [5.3219245, 60.3929619]]}}, {"type": "Feature", "properties": {"gate": "Vestre Murallmenningen", "vegref": "KV5301 S1D1 m59", "sone": "?", "tekst": null, "skilt_id": 1027263444, "skiltpunkt_id": 1027263448, "veglenkesekvens": 756530, "side": "venstre (metreringsretning)", "retning": "mot metrering", "lengde_m": 48, "stopp": "neste reguleringsskilt", "utstrekning": "ingen 828-pil, antatt framover", "plater_paa_stolpen": ["527.3 - Blindveg, stengt for bil, men åpen for gående og syklende", "808 - Underskilt med annen tekst", "552 - Parkering"], "status": "utledet – tekst ikke registrert i NVDB"}, "geometry": {"type": "LineString", "coordinates": [[5.3171858, 60.3934739], [5.3172234, 60.3935052], [5.3173188, 60.393565], [5.317451, 60.3936457], [5.3175302, 60.3936891], [5.3175486, 60.3937003], [5.3175683, 60.3937102], [5.3176347, 60.3937498], [5.3176977, 60.3937835], [5.3177286, 60.3937897]]}}, {"type": "Feature", "properties": {"gate": "Fortunen", "vegref": "KV4464 S1D1 m95", "sone": "?", "tekst": null, "skilt_id": 1027263949, "skiltpunkt_id": 1027263952, "veglenkesekvens": 755471, "side": "høyre (metreringsretning)", "retning": "med metrering", "lengde_m": 99, "stopp": "enden av veglenka", "utstrekning": "ingen 828-pil, antatt framover", "plater_paa_stolpen": ["808 - Underskilt med annen tekst", "552 - Parkering"], "status": "utledet – tekst ikke registrert i NVDB"}, "geometry": {"type": "LineString", "coordinates": [[5.3218178, 60.3939926], [5.321786, 60.3939711], [5.3216851, 60.3939135], [5.3215966, 60.3938856], [5.3214538, 60.3938379], [5.3213006, 60.3938239], [5.3212014, 60.3937649], [5.3211573, 60.3937291], [5.3207231, 60.3934005], [5.3206524, 60.3933454]]}}, {"type": "Feature", "properties": {"gate": "Vestre Murallmenningen", "vegref": "KV5301 S1D1 m30", "sone": "?", "tekst": null, "skilt_id": 1027263435, "skiltpunkt_id": 1027263436, "veglenkesekvens": 756530, "side": "høyre (metreringsretning)", "retning": "med metrering", "lengde_m": 96, "stopp": "enden av veglenka", "utstrekning": "ingen 828-pil, antatt framover", "plater_paa_stolpen": ["552 - Parkering", "808 - Underskilt med annen tekst"], "status": "utledet – tekst ikke registrert i NVDB"}, "geometry": {"type": "LineString", "coordinates": [[5.3174172, 60.3937077], [5.3173673, 60.3936803], [5.3172336, 60.3935987], [5.3171343, 60.3935364], [5.3170633, 60.3934775], [5.3170016, 60.3934067], [5.3169473, 60.3933614], [5.3167373, 60.3932249], [5.3166052, 60.3931413], [5.3165738, 60.3931126], [5.3165518, 60.3930789], [5.3165481, 60.3930467], [5.3165526, 60.39301], [5.316576, 60.3929729], [5.3165869, 60.3929528]]}}, {"type": "Feature", "properties": {"gate": "Vestre Murallmenningen", "vegref": "KV5301 S1D1 m8", "sone": "?", "tekst": null, "skilt_id": 1027263427, "skiltpunkt_id": 1027263430, "veglenkesekvens": 756530, "side": "høyre (metreringsretning)", "retning": "med metrering", "lengde_m": 22, "stopp": "neste reguleringsskilt", "utstrekning": "ingen 828-pil, antatt framover", "plater_paa_stolpen": ["808 - Underskilt med annen tekst", "552 - Parkering"], "status": "utledet – tekst ikke registrert i NVDB"}, "geometry": {"type": "LineString", "coordinates": [[5.3177145, 60.393846], [5.3176295, 60.3938256], [5.3175528, 60.3937854], [5.3174856, 60.3937454], [5.3174671, 60.3937362], [5.3174481, 60.3937246], [5.3174172, 60.3937077]]}}, {"type": "Feature", "properties": {"gate": "Skansemyrsveien", "vegref": "KV4953 S1D1 m369", "sone": "?", "tekst": null, "skilt_id": 1027189683, "skiltpunkt_id": 1027189681, "veglenkesekvens": 756095, "side": "venstre (metreringsretning)", "retning": "med metrering", "lengde_m": 57, "stopp": "neste reguleringsskilt", "utstrekning": "ingen 828-pil, antatt framover", "plater_paa_stolpen": ["552 - Parkering", "808 - Underskilt med annen tekst"], "status": "utledet – tekst ikke registrert i NVDB"}, "geometry": {"type": "LineString", "coordinates": [[5.3333959, 60.3963659], [5.3334623, 60.3963107], [5.3335367, 60.3962534], [5.3336906, 60.3961685], [5.3340773, 60.3959906]]}}, {"type": "Feature", "properties": {"gate": "Skansemyrsveien", "vegref": "KV4953 S1D1 m322", "sone": "?", "tekst": null, "skilt_id": 1027189668, "skiltpunkt_id": 1027189673, "veglenkesekvens": 756095, "side": "venstre (metreringsretning)", "retning": "med metrering", "lengde_m": 25, "stopp": "neste reguleringsskilt", "utstrekning": "ingen 828-pil, antatt framover", "plater_paa_stolpen": ["808 - Underskilt med annen tekst", "552 - Parkering"], "status": "utledet – tekst ikke registrert i NVDB"}, "geometry": {"type": "LineString", "coordinates": [[5.3330052, 60.3967358], [5.333076, 60.3966773], [5.3332157, 60.3965373]]}}, {"type": "Feature", "properties": {"gate": "Holbergsallmenningen", "vegref": "KV4580 S1D1 m51", "sone": "?", "tekst": null, "skilt_id": 1027261554, "skiltpunkt_id": 1027261555, "veglenkesekvens": 755630, "side": "høyre (metreringsretning)", "retning": "med metrering", "lengde_m": 125, "stopp": "enden av veglenka", "utstrekning": "ingen 828-pil, antatt framover", "plater_paa_stolpen": ["552 - Parkering", "808 - Underskilt med annen tekst"], "status": "utledet – tekst ikke registrert i NVDB"}, "geometry": {"type": "LineString", "coordinates": [[5.315206, 60.3955248], [5.3152471, 60.3955775], [5.3153558, 60.3956605], [5.3154841, 60.3957718], [5.3155697, 60.395848], [5.315725, 60.3959704], [5.315759, 60.3959886], [5.3158013, 60.3959909], [5.3158883, 60.3959922], [5.3160098, 60.3959886], [5.3161061, 60.3959861], [5.3161848, 60.3960038], [5.3162268, 60.3960385], [5.316243, 60.3960812], [5.3162315, 60.3961166], [5.3162247, 60.3961332], [5.3162119, 60.3961556], [5.3162007, 60.3961627], [5.3162296, 60.39618], [5.3163267, 60.3962681], [5.3163503, 60.396289], [5.3164028, 60.3963315]]}}, {"type": "Feature", "properties": {"gate": "Rosenkrantzgaten", "vegref": "KV4921 S1D1 m75", "sone": "?", "tekst": null, "skilt_id": 1027197795, "skiltpunkt_id": 1027197800, "veglenkesekvens": 756045, "side": "venstre (metreringsretning)", "retning": "med metrering", "lengde_m": 30, "stopp": "neste reguleringsskilt", "utstrekning": "ingen 828-pil, antatt framover", "plater_paa_stolpen": ["808 - Underskilt med annen tekst", "552 - Parkering"], "status": "utledet – tekst ikke registrert i NVDB"}, "geometry": {"type": "LineString", "coordinates": [[5.3263955, 60.3963907], [5.3263224, 60.396428], [5.326088, 60.3965512], [5.3260229, 60.3965873]]}}, {"type": "Feature", "properties": {"gate": "Skansemyrsveien", "vegref": "KV4953 S1D1 m278", "sone": "?", "tekst": null, "skilt_id": 1027189658, "skiltpunkt_id": 1027189657, "veglenkesekvens": 756095, "side": "venstre (metreringsretning)", "retning": "med metrering", "lengde_m": 14, "stopp": "neste reguleringsskilt", "utstrekning": "ingen 828-pil, antatt framover", "plater_paa_stolpen": ["808 - Underskilt med annen tekst", "552 - Parkering"], "status": "utledet – tekst ikke registrert i NVDB"}, "geometry": {"type": "LineString", "coordinates": [[5.3325497, 60.3970589], [5.3326648, 60.3969829], [5.3327003, 60.3969583]]}}, {"type": "Feature", "properties": {"gate": "Lodin Lepps gate", "vegref": "KV4731 S1D1 m128", "sone": "?", "tekst": null, "skilt_id": 1027198118, "skiltpunkt_id": 1027198119, "veglenkesekvens": 755812, "side": "venstre (metreringsretning)", "retning": "med metrering", "lengde_m": 16, "stopp": "enden av veglenka", "utstrekning": "ingen 828-pil, antatt framover", "plater_paa_stolpen": ["552 - Parkering", "808 - Underskilt med annen tekst"], "status": "utledet – tekst ikke registrert i NVDB"}, "geometry": {"type": "LineString", "coordinates": [[5.326559, 60.3969976], [5.3266384, 60.397032], [5.3266802, 60.397053], [5.3267723, 60.3970983]]}}, {"type": "Feature", "properties": {"gate": "Strandgaten", "vegref": "KV15300 S1D1 m8", "sone": "?", "tekst": null, "skilt_id": 1027260772, "skiltpunkt_id": 1027260778, "veglenkesekvens": 762494, "side": "høyre (metreringsretning)", "retning": "med metrering", "lengde_m": 30, "stopp": "enden av veglenka", "utstrekning": "ingen 828-pil, antatt framover", "plater_paa_stolpen": ["808 - Underskilt med annen tekst", "552 - Parkering", "U770 - Husnummerskilt: 199"], "status": "utledet – tekst ikke registrert i NVDB"}, "geometry": {"type": "LineString", "coordinates": [[5.3126772, 60.3971624], [5.3127674, 60.3972486], [5.3128619, 60.3973269], [5.3129288, 60.3974049]]}}, {"type": "Feature", "properties": {"gate": "Fløygaten", "vegref": "KV4460 S1D1 m48", "sone": "?", "tekst": null, "skilt_id": 1027185858, "skiltpunkt_id": 1027185864, "veglenkesekvens": 755466, "side": "venstre (metreringsretning)", "retning": "med metrering", "lengde_m": 12, "stopp": "neste reguleringsskilt", "utstrekning": "ingen 828-pil, antatt framover", "plater_paa_stolpen": ["808 - Underskilt med annen tekst", "807.8 - Symbol, forflytningshemmede med parkeringstillatelse", "552 - Parkering"], "status": "utledet – tekst ikke registrert i NVDB"}, "geometry": {"type": "LineString", "coordinates": [[5.3298862, 60.3986423], [5.3298554, 60.398643], [5.3298108, 60.3986476], [5.3297742, 60.3986549], [5.3297505, 60.3986599], [5.3297643, 60.3986602], [5.3297639, 60.3986616], [5.3297608, 60.3986528]]}}, {"type": "Feature", "properties": {"gate": "Strandgaten", "vegref": "KV3004 S1D1 m375", "sone": "?", "tekst": null, "skilt_id": 1027260546, "skiltpunkt_id": 1027260550, "veglenkesekvens": 755056, "side": "venstre (metreringsretning)", "retning": "med metrering", "lengde_m": 24, "stopp": "neste reguleringsskilt", "utstrekning": "ingen 828-pil, antatt framover", "plater_paa_stolpen": ["808 - Underskilt med annen tekst", "552 - Parkering"], "status": "utledet – tekst ikke registrert i NVDB"}, "geometry": {"type": "LineString", "coordinates": [[5.31061, 60.3979327], [5.3104654, 60.39802], [5.3103325, 60.398097]]}}, {"type": "Feature", "properties": {"gate": "Starvhusgaten", "vegref": "FV5348 S1D1 m724", "sone": "?", "tekst": null, "skilt_id": 1006527176, "skiltpunkt_id": 1006527179, "veglenkesekvens": 805810, "side": null, "retning": "mot metrering", "lengde_m": 36, "stopp": "neste reguleringsskilt (snudd retning)", "utstrekning": "ingen 828-pil, antatt framover", "plater_paa_stolpen": ["808 - Underskilt med annen tekst", "808 - Underskilt med annen tekst: Lørdag (15 - 20)", "552 - Parkering"], "status": "utledet – tekst ikke registrert i NVDB"}, "geometry": {"type": "LineString", "coordinates": [[5.3102143, 60.3983765], [5.3102447, 60.3983879], [5.3106687, 60.3985529], [5.3107239, 60.3985743]]}}, {"type": "Feature", "properties": {"gate": "Sandbrogaten", "vegref": "KV4930 S1D1 m133", "sone": "?", "tekst": null, "skilt_id": 1027193267, "skiltpunkt_id": 1027193270, "veglenkesekvens": 756057, "side": "høyre (metreringsretning)", "retning": "med metrering", "lengde_m": 37, "stopp": "neste reguleringsskilt", "utstrekning": "ingen 828-pil, antatt framover", "plater_paa_stolpen": ["808 - Underskilt med annen tekst", "552 - Parkering"], "status": "utledet – tekst ikke registrert i NVDB"}, "geometry": {"type": "LineString", "coordinates": [[5.3216209, 60.3993308], [5.3216285, 60.3993398], [5.3217044, 60.399429], [5.3217637, 60.3995069], [5.3218674, 60.3996391]]}}, {"type": "Feature", "properties": {"gate": "Bradbenken", "vegref": "KV5755 S1D1 m5", "sone": "?", "tekst": null, "skilt_id": 1027190872, "skiltpunkt_id": 1027190873, "veglenkesekvens": 756628, "side": "høyre (metreringsretning)", "retning": "med metrering", "lengde_m": 87, "stopp": "neste reguleringsskilt", "utstrekning": "ingen 828-pil, antatt framover", "plater_paa_stolpen": ["552 - Parkering", "808 - Underskilt med annen tekst"], "status": "utledet – tekst ikke registrert i NVDB"}, "geometry": {"type": "LineString", "coordinates": [[5.3198919, 60.3994991], [5.3198832, 60.3994887], [5.3198736, 60.3994682], [5.3198665, 60.3994331], [5.3198624, 60.3993182], [5.3198409, 60.3991709], [5.3198348, 60.3989913], [5.319798, 60.3988845], [5.3198708, 60.3988404], [5.3199676, 60.3988042], [5.3200442, 60.3987869], [5.320121, 60.3987694]]}}, {"type": "Feature", "properties": {"gate": "Sandbrogaten", "vegref": "KV14610 S1D1 m44", "sone": "?", "tekst": null, "skilt_id": 1027193214, "skiltpunkt_id": 1027193219, "veglenkesekvens": 762379, "side": "venstre (metreringsretning)", "retning": "mot metrering", "lengde_m": 23, "stopp": "neste reguleringsskilt (snudd retning)", "utstrekning": "ingen 828-pil, antatt framover", "plater_paa_stolpen": ["808 - Underskilt med annen tekst", "552 - Parkering", "808 - Underskilt med annen tekst"], "status": "utledet – tekst ikke registrert i NVDB"}, "geometry": {"type": "LineString", "coordinates": [[5.3229055, 60.3998049], [5.3228769, 60.3998389], [5.3228293, 60.3998764], [5.3227866, 60.3999093], [5.3227463, 60.3999419], [5.3227093, 60.3999736], [5.322692, 60.3999868]]}}, {"type": "Feature", "properties": {"gate": "Sandbrogaten", "vegref": "KV14610 S1D1 m44", "sone": "?", "tekst": null, "skilt_id": 1027193220, "skiltpunkt_id": 1027193219, "veglenkesekvens": 762379, "side": "venstre (metreringsretning)", "retning": "mot metrering", "lengde_m": 23, "stopp": "neste reguleringsskilt (snudd retning)", "utstrekning": "ingen 828-pil, antatt framover", "plater_paa_stolpen": ["808 - Underskilt med annen tekst", "552 - Parkering", "808 - Underskilt med annen tekst"], "status": "utledet – tekst ikke registrert i NVDB"}, "geometry": {"type": "LineString", "coordinates": [[5.3229055, 60.3998049], [5.3228769, 60.3998389], [5.3228293, 60.3998764], [5.3227866, 60.3999093], [5.3227463, 60.3999419], [5.3227093, 60.3999736], [5.322692, 60.3999868]]}}, {"type": "Feature", "properties": {"gate": "Sandbrogaten", "vegref": "KV4930 S1D1 m207", "sone": "?", "tekst": null, "skilt_id": 1027193246, "skiltpunkt_id": 1027193247, "veglenkesekvens": 756057, "side": "høyre (metreringsretning)", "retning": "med metrering", "lengde_m": 21, "stopp": "enden av veglenka", "utstrekning": "ingen 828-pil, antatt framover", "plater_paa_stolpen": ["808 - Underskilt med annen tekst", "552 - Parkering"], "status": "utledet – tekst ikke registrert i NVDB"}, "geometry": {"type": "LineString", "coordinates": [[5.3221074, 60.3999451], [5.3221084, 60.3999465], [5.3221697, 60.3999939], [5.3222746, 60.4000379], [5.3223446, 60.4000422]]}}, {"type": "Feature", "properties": {"gate": "Sandbrogaten", "vegref": "KV14610 S1D1 m21", "sone": "?", "tekst": null, "skilt_id": 1027193227, "skiltpunkt_id": 1027193229, "veglenkesekvens": 762379, "side": "venstre (metreringsretning)", "retning": "med metrering", "lengde_m": 23, "stopp": "neste reguleringsskilt", "utstrekning": "ingen 828-pil, antatt framover", "plater_paa_stolpen": ["552 - Parkering", "808 - Underskilt med annen tekst", "808 - Underskilt med annen tekst: Gjelder beboere med p-kort til sone 1"], "status": "utledet – tekst ikke registrert i NVDB"}, "geometry": {"type": "LineString", "coordinates": [[5.322692, 60.3999868], [5.3227093, 60.3999736], [5.3227463, 60.3999419], [5.3227866, 60.3999093], [5.3228293, 60.3998764], [5.3228769, 60.3998389], [5.3229055, 60.3998049]]}}, {"type": "Feature", "properties": {"gate": "Starvhusgaten", "vegref": "FV5348 S1D1 m848", "sone": "?", "tekst": null, "skilt_id": 1006527185, "skiltpunkt_id": 1006527204, "veglenkesekvens": 805810, "side": null, "retning": "mot metrering", "lengde_m": 35, "stopp": "neste reguleringsskilt", "utstrekning": "ingen 828-pil, antatt framover", "plater_paa_stolpen": ["552 - Parkering", "808 - Underskilt med annen tekst"], "status": "utledet – tekst ikke registrert i NVDB"}, "geometry": {"type": "LineString", "coordinates": [[5.3085723, 60.3989805], [5.3086741, 60.3989428], [5.3089393, 60.3988456], [5.3090819, 60.3987909]]}}, {"type": "Feature", "properties": {"gate": "C. Sundts gate", "vegref": "KV5311 S1D1 m46", "sone": "?", "tekst": null, "skilt_id": 1027259022, "skiltpunkt_id": 1027259020, "veglenkesekvens": 756545, "side": "høyre (metreringsretning)", "retning": "mot metrering", "lengde_m": 12, "stopp": "neste reguleringsskilt (snudd retning)", "utstrekning": "ingen 828-pil, antatt framover", "plater_paa_stolpen": ["808 - Underskilt med annen tekst", "552 - Parkering"], "status": "utledet – tekst ikke registrert i NVDB"}, "geometry": {"type": "LineString", "coordinates": [[5.309795, 60.3991472], [5.3099032, 60.3990972], [5.3099536, 60.3990743]]}}, {"type": "Feature", "properties": {"gate": "C. Sundts gate", "vegref": "KV5311 S1D1 m56", "sone": "?", "tekst": null, "skilt_id": 1027259012, "skiltpunkt_id": 1027259010, "veglenkesekvens": 756545, "side": "høyre (metreringsretning)", "retning": "med metrering", "lengde_m": 28, "stopp": "neste reguleringsskilt", "utstrekning": "828.1 pil i kjøreretningen", "plater_paa_stolpen": ["552 - Parkering", "828.1 - Utstrekning av stans- og parkeringsregulering, gjelder i begge kjøreretninger", "808 - Underskilt med annen tekst"], "status": "utledet – tekst ikke registrert i NVDB"}, "geometry": {"type": "LineString", "coordinates": [[5.3096543, 60.3992063], [5.3095972, 60.3992292], [5.3094498, 60.3992858], [5.3092706, 60.3993506], [5.3092499, 60.3993584]]}}, {"type": "Feature", "properties": {"gate": "C. Sundts gate", "vegref": "KV5311 S1D1 m81", "sone": "?", "tekst": null, "skilt_id": 1027259002, "skiltpunkt_id": 1027259000, "veglenkesekvens": 756545, "side": "venstre (metreringsretning)", "retning": "med metrering", "lengde_m": 18, "stopp": "neste reguleringsskilt", "utstrekning": "ingen 828-pil, antatt framover", "plater_paa_stolpen": ["552 - Parkering", "808 - Underskilt med annen tekst"], "status": "utledet – tekst ikke registrert i NVDB"}, "geometry": {"type": "LineString", "coordinates": [[5.3092281, 60.3992992], [5.3092053, 60.3993074], [5.3090362, 60.399371], [5.3089679, 60.3993968]]}}, {"type": "Feature", "properties": {"gate": "Starvhusgaten", "vegref": "FV5348 S1D1 m931", "sone": "?", "tekst": null, "skilt_id": 1006527212, "skiltpunkt_id": 1006527213, "veglenkesekvens": 805810, "side": null, "retning": "mot metrering", "lengde_m": 52, "stopp": "neste reguleringsskilt", "utstrekning": "ingen 828-pil, antatt framover", "plater_paa_stolpen": ["552 - Parkering", "808 - Underskilt med annen tekst"], "status": "utledet – tekst ikke registrert i NVDB"}, "geometry": {"type": "LineString", "coordinates": [[5.307356, 60.3994083], [5.307447, 60.3993764], [5.307581, 60.3993311], [5.307696, 60.3992898], [5.3077977, 60.3992556], [5.3079055, 60.3992192], [5.3080088, 60.3991852], [5.3081396, 60.3991397]]}}, {"type": "Feature", "properties": {"gate": "Breistølsveien", "vegref": "KV4354 S1D1 m27", "sone": "?", "tekst": null, "skilt_id": 1027179131, "skiltpunkt_id": 1027179128, "veglenkesekvens": 755345, "side": "høyre (metreringsretning)", "retning": "med metrering", "lengde_m": 13, "stopp": "neste reguleringsskilt", "utstrekning": "ingen 828-pil, antatt framover", "plater_paa_stolpen": ["552 - Parkering", "808 - Underskilt med annen tekst"], "status": "utledet – tekst ikke registrert i NVDB"}, "geometry": {"type": "LineString", "coordinates": [[5.3288017, 60.4016906], [5.3288538, 60.4017041], [5.3289017, 60.4017217], [5.3289697, 60.4017438], [5.3290036, 60.4017558]]}}, {"type": "Feature", "properties": {"gate": "Årstadveien", "vegref": "FV577 S1D1 m2056", "sone": "?", "tekst": null, "skilt_id": 1026094996, "skiltpunkt_id": 1026094919, "veglenkesekvens": 805748, "side": null, "retning": "med metrering", "lengde_m": 180, "stopp": "kappet ved 180 m", "utstrekning": "ingen 828-pil, antatt framover", "plater_paa_stolpen": ["808.555 - Mot avgift", "552 - Parkering"], "status": "utledet – tekst ikke registrert i NVDB"}, "geometry": {"type": "LineString", "coordinates": [[5.3170158, 60.4014933], [5.317242, 60.4015753], [5.3174782, 60.4016687], [5.317555, 60.401703], [5.3177628, 60.4017956], [5.3180466, 60.4019237], [5.3182897, 60.4020156], [5.3184534, 60.4020496], [5.3186589, 60.4020698], [5.3189131, 60.4020637], [5.3192486, 60.4020379], [5.3196805, 60.4020017], [5.3198814, 60.4019987]]}}, {"type": "Feature", "properties": {"gate": "Skutevikens tverrgate", "vegref": "KV4980 S1D1 m52", "sone": "?", "tekst": null, "skilt_id": 1027185639, "skiltpunkt_id": 1027185638, "veglenkesekvens": 756124, "side": "venstre (metreringsretning)", "retning": "med metrering", "lengde_m": 10, "stopp": "enden av veglenka", "utstrekning": "828.2 pil mot kjøreretningen", "plater_paa_stolpen": ["828.2 - Utstrekning av stans- og parkeringsregulering, gjelder mot kjøreretningen", "808 - Underskilt med annen tekst", "552 - Parkering"], "status": "utledet – tekst ikke registrert i NVDB"}, "geometry": {"type": "LineString", "coordinates": [[5.3224233, 60.4020729], [5.322522, 60.4020942], [5.3225557, 60.4021018], [5.3225842, 60.4021094]]}}, {"type": "Feature", "properties": {"gate": "Nye Sandviksveien", "vegref": "KV14040 S1D1 m8", "sone": "?", "tekst": null, "skilt_id": 1027185209, "skiltpunkt_id": 1027185210, "veglenkesekvens": 756846, "side": "høyre (metreringsretning)", "retning": "med metrering", "lengde_m": 36, "stopp": "enden av veglenka", "utstrekning": "ingen 828-pil, antatt framover", "plater_paa_stolpen": ["552 - Parkering", "808 - Underskilt med annen tekst"], "status": "utledet – tekst ikke registrert i NVDB"}, "geometry": {"type": "LineString", "coordinates": [[5.3228708, 60.4029774], [5.3228907, 60.4029837], [5.3229772, 60.4030168], [5.3230427, 60.4030444], [5.3230711, 60.4030556], [5.3231132, 60.4030697], [5.3232051, 60.4030976], [5.3233243, 60.4031413], [5.3234036, 60.4031717]]}}, {"type": "Feature", "properties": {"gate": "Ekregaten", "vegref": "KV4091 S1D1 m68", "sone": "?", "tekst": null, "skilt_id": 1027167526, "skiltpunkt_id": 1027167527, "veglenkesekvens": 755217, "side": "høyre (metreringsretning)", "retning": "med metrering", "lengde_m": 106, "stopp": "neste reguleringsskilt", "utstrekning": "ingen 828-pil, antatt framover", "plater_paa_stolpen": ["552 - Parkering", "808 - Underskilt med annen tekst"], "status": "utledet – tekst ikke registrert i NVDB"}, "geometry": {"type": "LineString", "coordinates": [[5.324921, 60.4068012], [5.3249454, 60.4068484], [5.3250184, 60.4069695], [5.3250669, 60.4070517], [5.3250971, 60.4071015], [5.3251054, 60.4071332], [5.3251476, 60.4071984], [5.3252006, 60.4073077], [5.3252678, 60.4074054], [5.3253101, 60.4074464], [5.325385, 60.4075916], [5.3254403, 60.4076995], [5.3254519, 60.4077181]]}}]}