{"type": "FeatureCollection", "features": [{"type": "Feature", "properties": {"nvdb_id": 1017370379, "type": 43, "Plasser reservert handikappede": 0, "Etableringsår": 2022, "Areal": 54, "Antall parkeringsplasser store kjt.": 3, "Antall parkeringsplasser små kjt.": 3, "Geometri, flate": "POLYGON Z ((-33093.70898573066 6733584.013050307 27.35,-33094.05898572656 6733584.393050306 27.36,-33094.24898572487 6733584.593050305 27.36,-33094.31898572331 6733584.66305031 27.36,-33094.58898572193 6733584.953050305 27.37,-33094.86898571858 6733585.233050306 27.38,-33095.4989857116 6733585.863050308 27.39,-33095.84898570739 6733586.223050306 27.400000000000002,-33096.048985705944 6733586.413050306 27.41,-33096.13898570486 6733586.493050302 27.41,-33096.49898570136 6733586.843050304 27.42,-33096.78898569802 6733587.113050301 27.42,-33097.348985691555 6733587.633050302 27.43,-33097.43898569094 6733587.713050302 27.44,-33097.80898568733 6733588.053050301 27.44,-33098.10898568423 6733588.313050302 27.45,-33098.77898567752 6733588.903050302 27.46,-33099.148985673906 6733589.233050301 27.47,-33099.44898567011 6733589.493050299 27.48,-33099.83898566675 6733589.813050296 27.48,-33100.13898566342 6733590.063050297 27.490000000000002,-33100.528985659126 6733590.383050297 27.5,-33100.548985658796 6733590.393050298 27.5,-33102.898985640495 6733587.393050305 27.6,-33104.74898562359 6733587.063050304 27.6,-33103.938985634246 6733583.52305031 27.6,-33101.42898565787 6733583.44305031 27.35,-33099.18898568291 6733580.473050314 27.35,-33093.70898573066 6733584.013050307 27.35))", "Eier": "Privat", "Vedlikeholdsansvarlig": "Privat", "Type": "Avskjermet plass", "Innfartsparkering": "Nei", "Prosjektreferanse": "Rv555 Gyldenpriskrysset og Fv558 Carl Konows gate", "Navn": "Til bruk ved vedlikehold trafo", "vegsystem": "PV42030 S1D1 m2", "veglenkesekvenser": [769361]}, "geometry": {"type": "Polygon", "coordinates": [[[5.30628034, 60.38455174], [5.30627307, 60.38455464], [5.30626914, 60.38455616], [5.30626771, 60.38455669], [5.30626211, 60.3845589], [5.30625636, 60.38456101], [5.30624342, 60.38456576], [5.30623621, 60.38456849], [5.30623213, 60.3845699], [5.30623031, 60.38457049], [5.30622294, 60.38457312], [5.30621704, 60.38457513], [5.30620564, 60.38457899], [5.30620382, 60.38457958], [5.3061963, 60.38458211], [5.30619025, 60.38458401], [5.3061767, 60.38458835], [5.30616921, 60.38459079], [5.30616316, 60.38459269], [5.30615533, 60.38459501], [5.30614931, 60.38459683], [5.30614148, 60.38459915], [5.3061411, 60.38459921], [5.30610705, 60.38456957], [5.30607484, 60.38456422], [5.30609873, 60.38453396], [5.30614382, 60.38453655], [5.30619176, 60.38451321], [5.30628034, 60.38455174]]]}}, {"type": "Feature", "properties": {"nvdb_id": 1017121714, "type": 43, "Plasser reservert handikappede": 0, "Etableringsår": 2021, "Areal": 140, "Antall parkeringsplasser store kjt.": 0, "Antall parkeringsplasser små kjt.": 10, "Geometri, flate": "POLYGON Z ((-32665.73084525985 6734853.603760899 31.67,-32665.66338327399 6734850.163117295 31.84,-32661.373952374794 6734846.083824148 31.89,-32655.76058566745 6734840.735042151 31.94,-32651.332318777335 6734836.522167403 31.98,-32646.885906492593 6734832.287486843 32.04,-32644.33783453377 6734829.868442655 32.05,-32641.83245962474 6734827.4230956575 32.07,-32640.130137001164 6734825.77649661 32.08,-32636.07392975886 6734821.899866445 32.11,-32631.816292831325 6734817.803345048 32.12,-32627.545007304638 6734813.745860256 32.1,-32623.339976190124 6734809.734733507 32.07,-32622.830910904333 6734809.244932121 32.07,-32619.87426244351 6734809.306384559 31.94,-32620.290770395193 6734809.707131138 31.94,-32630.795947389328 6734819.925633097 31.990000000000002,-32637.21869340178 6734826.1140275765 32.02,-32643.668657489587 6734832.335131876 31.96,-32649.480708189425 6734837.933768142 31.89,-32656.050447660615 6734844.276637708 31.830000000000002,-32662.501326892292 6734850.487756026 31.75,-32665.73084525985 6734853.603760899 31.67))", "Eier": "Fylkeskommune", "Vedlikeholdsansvarlig": "Fylkeskommune", "Type": "Parkering langs kjørebane", "Innfartsparkering": "Nei", "Prosjektreferanse": "Nordnes del 2", "Navn": "Boligsoneparkering", "vegsystem": "FV5348 S1D1 m1623", "veglenkesekvenser": [805810]}, "geometry": {"type": "Polygon", "coordinates": [[[5.31056285, 60.39635072], [5.3105732, 60.39632036], [5.31066075, 60.39628989], [5.31077535, 60.39624993], [5.31086576, 60.39621846], [5.31095653, 60.39618682], [5.31100853, 60.39616875], [5.31105984, 60.39615041], [5.31109466, 60.39613807], [5.3111775, 60.39610909], [5.31126454, 60.39607842], [5.31135171, 60.39604813], [5.31143757, 60.39601815], [5.31144798, 60.39601449], [5.3115007, 60.39601891], [5.31149218, 60.39602191], [5.31127715, 60.39609855], [5.31114583, 60.39614488], [5.31101394, 60.39619147], [5.31089512, 60.39623339], [5.31076078, 60.39628089], [5.3106289, 60.39632739], [5.31056285, 60.39635072]]]}}, {"type": "Feature", "properties": {"nvdb_id": 1017121715, "type": 43, "Plasser reservert handikappede": 0, "Etableringsår": 2021, "Areal": 167, "Antall parkeringsplasser store kjt.": 0, "Antall parkeringsplasser små kjt.": 14, "Geometri, flate": "POLYGON Z ((-32825.10906152218 6735072.966176086 29.86,-32825.36500648002 6735073.140704892 29.84,-32825.77160563273 6735073.429755833 29.82,-32826.189107878134 6735073.709734084 29.79,-32826.59570703225 6735073.998785025 29.77,-32827.013209278346 6735074.278763282 29.75,-32827.42979632225 6735074.568729432 29.72,-32827.83731068077 6735074.847792496 29.7,-32828.25389772642 6735075.137758645 29.67,-32828.66141208622 6735075.416821708 29.650000000000002,-32829.07799913257 6735075.706787869 29.63,-32829.49550138286 6735075.986766137 29.6,-32829.90210054163 6735076.275817093 29.580000000000002,-32830.31960279273 6735076.555795371 29.55,-32830.727117155795 6735076.834858441 29.53,-32831.143704205635 6735077.12482461 29.51,-32831.561206458835 6735077.404802887 29.48,-32831.76904238283 6735077.554779917 29.47,-32831.9678056204 6735077.693853857 29.46,-32832.385307874996 6735077.973832139 29.43,-32832.79190703784 6735078.262883111 29.41,-32833.209409293835 6735078.542861396 29.39,-32833.625996347284 6735078.8328275755 29.36,-32834.033510715 6735079.111890663 29.34,-32834.45009776973 6735079.401856844 29.310000000000002,-32834.85761213838 6735079.68091994 29.29,-32835.27419919439 6735079.970886126 29.27,-32835.69170145411 6735080.250864422 29.240000000000002,-32836.098300621496 6735080.539915414 29.22,-32836.51580288273 6735080.819893714 29.19,-32836.922402051394 6735081.108944705 29.17,-32837.33990431379 6735081.388923012 29.150000000000002,-32837.74650348362 6735081.677974006 29.12,-32838.16400574695 6735081.957952318 29.1,-32838.580592807615 6735082.247918523 29.07,-32838.76121067803 6735082.365186285 29.060000000000002,-32838.98810718267 6735082.52698163 29.05,-32839.40469424473 6735082.816947836 29.02,-32839.81220862118 6735083.096010951 29,-32840.228795684525 6735083.385977161 28.97,-32840.64629795181 6735083.665955482 28.95,-32841.05289712618 6735083.955006494 28.92,-32841.47039939498 6735084.234984822 28.900000000000002,-32841.876998570515 6735084.524035836 28.87,-32842.076677019475 6735084.6531219045 28.86,-32842.29450084071 6735084.804014163 28.85,-32842.711087907664 6735085.093980385 28.82,-32843.118602288654 6735085.373043517 28.8,-32843.535189357004 6735085.663009739 28.77,-32843.942703739274 6735085.942072876 28.75,-32844.35929080879 6735086.232039105 28.72,-32844.77679308271 6735086.512017448 28.7,-32845.18430746696 6735086.791080587 28.67,-32845.60089453822 6735087.0810468225 28.650000000000002,-32846.00840892375 6735087.360109965 28.62,-32846.42499599606 6735087.650076205 28.6,-32846.84249827324 6735087.930054555 28.57,-32847.24909745634 6735088.219105597 28.55,-32847.6665997348 6735088.499083951 28.52,-32847.93161740026 6735088.684515916 28.51,-32848.07319891942 6735088.788134994 28.5,-32848.49070119893 6735089.068113353 28.48,-32848.907288274844 6735089.358079606 28.47,-32849.31480266561 6735089.6371427635 28.45,-32849.73138974281 6735089.927109019 28.43,-32850.13890413428 6735090.20617218 28.42,-32850.55549121322 6735090.496138438 28.400000000000002,-32850.972993496456 6735090.776116812 28.38,-32851.37959268561 6735091.065167869 28.37,-32851.79709497071 6735091.345146245 28.35,-32852.20369416091 6735091.634197305 28.34,-32852.62119644671 6735091.914175685 28.32,-32853.02779563842 6735092.203226751 28.3,-32853.44529792562 6735092.483205135 28.29,-32853.8618850091 6735092.773171409 28.27,-32854.10875730775 6735092.936797202 28.26,-32854.51535650133 6735093.225848276 28.240000000000002,-32854.93285879085 6735093.505826665 28.23,-32855.3494458769 6735093.795792947 28.21,-32855.7569602764 6735094.074856137 28.19,-32856.17354736361 6735094.364822422 28.18,-32856.58014655998 6735094.653873504 28.16,-32856.98674575705 6735094.94292459 28.14,-32857.40333284577 6735095.232890881 28.13,-32857.809932043776 6735095.521941972 28.11,-32858.21653124248 6735095.810993063 28.09,-32858.623130441876 6735096.100044156 28.080000000000002,-32859.02881443652 6735096.399083142 28.060000000000002,-32859.10505674663 6735096.446356347 28.060000000000002,-32859.445401528035 6735096.689049444 28.04,-32859.84201283811 6735096.977185335 28.03,-32860.24769683415 6735097.276224331 28.01,-32860.65429603611 6735097.565275433 27.990000000000002,-32861.05998003355 6735097.864314429 27.98,-32861.29594924208 6735098.037012929 27.97,-32861.46657923632 6735098.1533655375 27.96,-32861.87226323492 6735098.452404536 27.93,-32862.27886243886 6735098.741455646 27.900000000000002,-32862.68454643863 6735099.04049465 27.88,-32863.10113353527 6735099.33046097 27.85,-32863.506817535614 6735099.629499979 27.830000000000002,-32863.91341674188 6735099.918551098 27.8,-32864.319100743276 6735100.21759011 27.77,-32864.72569995059 6735100.5066412315 27.75,-32865.13138395338 6735100.805680246 27.72,-32865.53798316175 6735101.094731373 27.7,-32865.94366716547 6735101.393770393 27.67,-32866.35026637488 6735101.682821523 27.64,-32866.75595037942 6735101.981860546 27.62,-32867.16254958976 6735102.270911683 27.59,-32867.56823359558 6735102.569950712 27.560000000000002,-32867.974832807085 6735102.85900185 27.54,-32868.38051681372 6735103.158040881 27.51,-32868.78711602662 6735103.447092021 27.490000000000002,-32869.16466676979 6735103.7234096555 27.46,-32869.599399247905 6735104.035182204 27.42,-32870.005998462555 6735104.32423335 27.38,-32870.411682471866 6735104.623272392 27.35,-32870.8182816871 6735104.912323544 27.310000000000002,-32871.22396569722 6735105.21136259 27.27,-32871.63056491362 6735105.500413747 27.23,-32872.03624892456 6735105.799452796 27.2,-32872.44284814247 6735106.088503955 27.16,-32872.84853215469 6735106.387543008 27.12,-32873.25513137365 6735106.676594172 27.080000000000002,-32873.660815386684 6735106.975633229 27.05,-32874.06741460657 6735107.264684398 27.01,-32874.473098620656 6735107.563723462 26.97,-32874.71905573178 6735107.7373372 26.95,-32874.879697841825 6735107.8527746275 26.94,-32875.28538185719 6735108.151813694 26.91,-32875.69198107894 6735108.440864869 26.88,-32876.097665095236 6735108.739903939 26.85,-32876.50426431827 6735109.028955118 26.82,-32876.909948335495 6735109.327994192 26.79,-32877.316547559574 6735109.617045374 26.76,-32877.72223157808 6735109.916084453 26.73,-32878.12883080309 6735110.20513564 26.7,-32878.535430029035 6735110.494186827 26.66,-32878.94111404882 6735110.7932259105 26.63,-32879.34771327581 6735111.082277101 26.6,-32879.75339729688 6735111.381316188 26.57,-32880.159996524104 6735111.670367386 26.54,-32880.56568054645 6735111.969406477 26.51,-32880.97227977519 6735112.258457679 26.48,-32881.13292188849 6735112.373895119 26.47,-32881.37796379812 6735112.557496773 26.46,-32881.78456302837 6735112.846547977 26.43,-32882.20023494528 6735113.146502284 26.400000000000002,-32882.60683417623 6735113.435553491 26.38,-32882.776548976544 6735113.561894036 26.36,-32883.01251820149 6735113.734592595 26.35,-32883.40821433405 6735114.032716492 26.32,-32883.81389835989 6735114.331755602 26.3,-32884.20867928676 6735114.639867395 26.27,-32884.603460213635 6735114.947979195 26.240000000000002,-32884.998241141206 6735115.256090995 26.21,-32885.392106862506 6735115.574190686 26.19,-32885.775984690525 6735115.8913751785 26.16,-32886.15894731239 6735116.218547563 26.13,-32886.54190993414 6735116.545719952 26.11,-32886.914884662954 6735116.871977132 26.080000000000002,-32887.286944184685 6735117.208222211 26.05,-32887.65900370665 6735117.544467293 26.03,-32888.031063228846 6735117.880712373 26,-32888.39221965091 6735118.226030143 25.97,-32888.45755886892 6735118.282376059 25.97,-32888.76336396602 6735118.572263123 25.95,-32889.11453249445 6735118.91666569 25.92,-32889.47477370885 6735119.271971361 25.900000000000002,-32889.82502703008 6735119.626361825 25.87,-32890.174365143874 6735119.990740184 25.85,-32890.52370325744 6735120.355118547 25.82,-32890.86305347725 6735120.7185817035 25.8,-32891.2014884894 6735121.092032757 25.77,-32891.54083870875 6735121.455495918 25.75,-32891.677844209014 6735121.609054541 25.740000000000002,-32891.87835851277 6735121.838934869 25.72,-32892.20680563059 6735122.2114707185 25.69,-32892.53433754051 6735122.593994467 25.67,-32892.761154694366 6735122.866571997 25.650000000000002,-32892.85188155621 6735122.975603009 25.64,-32893.10591676843 6735123.280889844 25.62,-32893.14220751298 6735123.324502249 25.62,-32893.14861396584 6735123.254586992 25.63,-32893.19437434059 6735122.755192303 25.650000000000002,-32893.2501226071 6735122.256712824 25.68,-32893.295882977895 6735121.757318134 25.71,-32893.34164334682 6735121.257923446 25.73,-32893.39739160775 6735120.759443962 25.76,-32893.416610961314 6735120.549698192 25.77,-32893.22516933945 6735120.33072096 25.79,-32892.88673431915 6735119.957269906 25.810000000000002,-32892.54829929909 6735119.583818851 25.84,-32892.20894907159 6735119.220355691 25.86,-32891.859610949876 6735118.855977328 25.89,-32891.51027282816 6735118.491598966 25.92,-32891.16001949948 6735118.137208496 25.94,-32890.80976616999 6735117.782818033 25.97,-32890.44952494721 6735117.427512363 25.990000000000002,-32890.20905906311 6735117.193971214 26.01,-32890.088368517696 6735117.082194586 26.02,-32889.82975726016 6735116.826847239 26.04,-32889.727212087484 6735116.7368768165 26.04,-32889.36605565762 6735116.391559048 26.07,-32888.99491133448 6735116.045326069 26.09,-32888.62285180413 6735115.709080991 26.12,-32888.24987706717 6735115.382823807 26.150000000000002,-32887.87781753717 6735115.046578731 26.17,-32887.49485490727 6735114.719406345 26.2,-32887.11189227761 6735114.392233959 26.22,-32886.72801444109 6735114.075049471 26.25,-32886.344136605156 6735113.757864984 26.28,-32885.950270876056 6735113.439765292 26.3,-32885.555489941034 6735113.131653493 26.330000000000002,-32885.16070900601 6735112.823541702 26.35,-32884.76592807169 6735112.515429908 26.38,-32884.36024403793 6735112.216390803 26.41,-32883.954560004524 6735111.917351702 26.43,-32883.5488759717 6735111.618312605 26.46,-32883.142276733066 6735111.329261399 26.48,-32882.7356774949 6735111.040210196 26.51,-32882.30910247157 6735110.749328583 26.54,-32881.91249112773 6735110.461192586 26.57,-32881.50589189073 6735110.172141393 26.6,-32881.10020786151 6735109.873102304 26.63,-32880.69360862614 6735109.58405111 26.66,-32880.28792459762 6735109.285012026 26.69,-32879.8813253633 6735108.995960837 26.72,-32879.47472612932 6735108.70690965 26.75,-32879.06904210255 6735108.407870572 26.78,-32878.66244286974 6735108.118819389 26.810000000000002,-32878.2567588439 6735107.819780312 26.84,-32877.85015961225 6735107.530729135 26.87,-32877.444475587225 6735107.231690065 26.900000000000002,-32877.03787635686 6735106.942638887 26.93,-32876.63219233288 6735106.643599821 26.96,-32876.22559310333 6735106.354548653 26.990000000000002,-32875.89523619064 6735106.112770698 27.01,-32875.819909080514 6735106.055509589 27.02,-32875.41330985213 6735105.766458421 27.060000000000002,-32875.00762583024 6735105.467419361 27.1,-32874.601026602904 6735105.178368198 27.13,-32874.19534258195 6735104.879329145 27.17,-32873.78874335566 6735104.590277986 27.21,-32873.383059336105 6735104.291238933 27.25,-32872.976460110745 6735104.002187776 27.28,-32872.570776092005 6735103.703148728 27.32,-32872.164176867926 6735103.414097577 27.36,-32871.75849285023 6735103.115058536 27.400000000000002,-32871.351893627085 6735102.8260073885 27.43,-32870.94620961009 6735102.52696835 27.47,-32870.539610388456 6735102.237917204 27.51,-32870.34084712085 6735102.098843183 27.53,-32870.13301116729 6735101.948866061 27.54,-32869.72732715204 6735101.649827028 27.57,-32869.32072793157 6735101.360775892 27.59,-32868.91504391725 6735101.061736863 27.62,-32868.50844469818 6735100.772685726 27.650000000000002,-32868.10276068514 6735100.473646702 27.67,-32867.68617357535 6735100.183680365 27.7,-32867.28048956301 6735099.884641344 27.72,-32866.8738903458 6735099.595590219 27.75,-32866.8176238162 6735099.550147419 27.75,-32866.468206334626 6735099.296551202 27.78,-32866.06160711893 6735099.00750008 27.8,-32865.65500790335 6735098.7184489565 27.830000000000002,-32865.24932389392 6735098.419409947 27.85,-32864.8427246795 6735098.130358831 27.88,-32864.436125465785 6735097.841307714 27.91,-32864.029526252765 6735097.552256602 27.93,-32863.61385435355 6735097.252302394 27.96,-32863.20725514158 6735096.963251286 27.98,-32862.800655929954 6735096.674200179 28.01,-32862.46122634469 6735096.421519183 28.03,-32862.394971923786 6735096.375161181 28.03,-32861.98837271356 6735096.086110079 28.05,-32861.58177350357 6735095.797058976 28.07,-32861.176089499146 6735095.498019986 28.080000000000002,-32860.76949029055 6735095.208968887 28.1,-32860.598860293976 6735095.092616284 28.11,-32860.352903190884 6735094.919002586 28.12,-32859.94630398345 6735094.629951492 28.13,-32859.54061998101 6735094.33091251 28.150000000000002,-32859.134020774276 6735094.0418614205 28.17,-32858.72742156824 6735093.752810333 28.18,-32858.32173756743 6735093.453771356 28.2,-32857.91513836256 6735093.16472027 28.22,-32857.50853915792 6735092.87566919 28.23,-32857.09286726767 6735092.575715014 28.25,-32856.686268064426 6735092.286663935 28.27,-32856.48750480637 6735092.147589943 28.28,-32856.27966886165 6735091.997612861 28.28,-32855.86216656398 6735091.717634471 28.3,-32855.45556736237 6735091.4285834 28.32,-32855.03806506586 6735091.148605015 28.330000000000002,-32854.8864956504 6735091.0440707235 28.34,-32854.469908559 6735090.754104453 28.36,-32854.052406264236 6735090.474126073 28.37,-32853.645807065186 6735090.185075009 28.39,-32853.22830477159 6735089.905096633 28.41,-32852.82170557382 6735089.616045574 28.42,-32852.40420328104 6735089.336067203 28.44,-32851.98761619383 6735089.046100944 28.46,-32851.58010179363 6735088.767037778 28.47,-32851.163514707354 6735088.477071522 28.490000000000002,-32850.75600030809 6735088.198008363 28.51,-32850.339413223206 6735087.908042111 28.52,-32849.9219109345 6735087.62806375 28.54,-32849.51531174127 6735087.3390127085 28.560000000000002,-32849.10779734468 6735087.059949555 28.57,-32848.69121026213 6735086.769983309 28.6,-32848.2737079761 6735086.4900049595 28.62,-32847.85712089471 6735086.200038719 28.650000000000002,-32847.44960650045 6735085.920975576 28.67,-32847.033019420574 6735085.631009337 28.7,-32846.62550502771 6735085.351946196 28.72,-32846.20891794842 6735085.061979964 28.75,-32845.801403556834 6735084.782916827 28.77,-32845.38481647917 6735084.4929506 28.8,-32844.96731419815 6735084.212972265 28.82,-32844.560715012136 6735083.923921241 28.85,-32844.143212732626 6735083.643942908 28.87,-32843.736613547546 6735083.354891893 28.900000000000002,-32843.31911126955 6735083.074913562 28.92,-32842.90252419561 6735082.784947344 28.95,-32842.49500980857 6735082.5058842255 28.97,-32842.07750753232 6735082.225905901 29,-32841.670908350265 6735081.936854893 29.02,-32841.25340607506 6735081.656876575 29.05,-32840.83681900415 6735081.366910367 29.07,-32840.42930462025 6735081.087847259 29.1,-32840.01271755074 6735080.797881052 29.13,-32839.93739044899 6735080.740619974 29.13,-32839.605203168234 6735080.518817944 29.150000000000002,-32839.188616099884 6735080.228851745 29.17,-32838.77111382829 6735079.948873439 29.2,-32838.364514651126 6735079.659822445 29.22,-32837.94701238116 6735079.379844143 29.240000000000002,-32837.54041320516 6735079.090793152 29.27,-32837.12291093648 6735078.810814854 29.29,-32836.706323871505 6735078.520848668 29.32,-32836.29880949424 6735078.241785574 29.34,-32835.882222430664 6735077.951819389 29.36,-32835.4747080541 6735077.672756302 29.39,-32835.058120991685 6735077.382790122 29.41,-32834.64061872696 6735077.102811835 29.44,-32834.234019555384 6735076.813760862 29.46,-32833.816517292056 6735076.533782577 29.48,-32833.409918121644 6735076.244731609 29.51,-32832.9924158596 6735075.964753327 29.53,-32832.94522202131 6735075.930213646 29.54,-32832.58581669 6735075.675702364 29.560000000000002,-32832.16831442935 6735075.395724088 29.580000000000002,-32831.75172737194 6735075.105757924 29.6,-32831.34421300131 6735074.826694856 29.63,-32830.92762594554 6735074.536728695 29.650000000000002,-32830.52011157619 6735074.257665629 29.68,-32830.10352452134 6735073.967699473 29.7,-32829.6860222643 6735073.687721209 29.72,-32829.27942309994 6735073.398670258 29.75,-32828.86192084383 6735073.118691997 29.77,-32828.455321680754 6735072.82964105 29.8,-32828.037819425925 6735072.549662795 29.82,-32827.89532271179 6735072.456031642 29.830000000000002,-32827.568388641695 6735072.50664827 29.830000000000002,-32827.076157132746 6735072.60254899 29.84,-32826.58484082855 6735072.68846182 29.84,-32826.09260932356 6735072.784362539 29.85,-32825.60129302333 6735072.870275368 29.85,-32825.10906152218 6735072.966176086 29.86))", "Eier": "Fylkeskommune", "Vedlikeholdsansvarlig": "Fylkeskommune", "Type": "Parkering langs kjørebane", "Innfartsparkering": "Nei", "Prosjektreferanse": "Nordnes del 2", "Navn": "Parkering", "vegsystem": "FV5348 S1D1 m1273", "veglenkesekvenser": [805810]}, "geometry": {"type": "Polygon", "coordinates": [[[5.3071294, 60.39808275], [5.30712435, 60.39808396], [5.3071163, 60.39808598], [5.3071081, 60.39808791], [5.30710005, 60.39808993], [5.30709185, 60.39809186], [5.30708362, 60.39809388], [5.3070756, 60.39809582], [5.30706737, 60.39809784], [5.30705935, 60.39809977], [5.30705112, 60.39810179], [5.3070429, 60.39810372], [5.30703487, 60.39810574], [5.30702665, 60.39810767], [5.30701863, 60.3981096], [5.3070104, 60.39811162], [5.30700219, 60.39811355], [5.30699807, 60.39811461], [5.30699414, 60.39811558], [5.30698594, 60.39811751], [5.30697789, 60.39811953], [5.30696969, 60.39812146], [5.30696146, 60.39812348], [5.30695342, 60.39812541], [5.30694521, 60.39812743], [5.30693717, 60.39812936], [5.30692896, 60.39813138], [5.30692074, 60.39813331], [5.30691271, 60.39813534], [5.30690449, 60.39813726], [5.30689646, 60.39813929], [5.30688824, 60.39814122], [5.30688019, 60.39814324], [5.30687199, 60.39814517], [5.30686376, 60.39814719], [5.30686022, 60.39814799], [5.30685573, 60.39814912], [5.3068475, 60.39815114], [5.30683948, 60.39815308], [5.30683125, 60.39815509], [5.30682305, 60.39815702], [5.306815, 60.39815905], [5.3068068, 60.39816098], [5.30679875, 60.398163], [5.30679483, 60.39816388], [5.30679053, 60.39816493], [5.30678232, 60.39816695], [5.30677428, 60.39816888], [5.30676607, 60.3981709], [5.30675803, 60.39817283], [5.30674982, 60.39817485], [5.3067416, 60.39817678], [5.30673357, 60.39817872], [5.30672534, 60.39818073], [5.30671732, 60.39818267], [5.30670909, 60.39818469], [5.30670089, 60.39818662], [5.30669284, 60.39818864], [5.30668462, 60.39819057], [5.30667939, 60.39819187], [5.30667659, 60.39819259], [5.30666837, 60.39819452], [5.30666016, 60.39819654], [5.30665212, 60.39819847], [5.30664391, 60.39820049], [5.30663587, 60.39820243], [5.30662766, 60.39820445], [5.30661944, 60.39820638], [5.30661139, 60.3982084], [5.30660318, 60.39821033], [5.30659514, 60.39821235], [5.30658693, 60.39821428], [5.30657889, 60.3982163], [5.30657068, 60.39821823], [5.30656245, 60.39822025], [5.3065576, 60.39822138], [5.30654957, 60.3982234], [5.30654135, 60.39822533], [5.30653314, 60.39822735], [5.3065251, 60.39822929], [5.30651687, 60.3982313], [5.30650884, 60.39823333], [5.30650079, 60.39823535], [5.30649258, 60.39823737], [5.30648453, 60.39823939], [5.30647648, 60.39824142], [5.30646845, 60.39824344], [5.30646039, 60.39824555], [5.30645891, 60.39824587], [5.30645218, 60.39824757], [5.30644432, 60.3982496], [5.30643626, 60.39825171], [5.30642823, 60.39825374], [5.30642017, 60.39825585], [5.30641549, 60.39825707], [5.30641212, 60.39825787], [5.30640409, 60.39825999], [5.30639604, 60.39826201], [5.30638798, 60.39826412], [5.30637977, 60.39826614], [5.30637171, 60.39826825], [5.30636368, 60.39827029], [5.30635562, 60.3982724], [5.30634757, 60.39827442], [5.30633954, 60.39827654], [5.30633149, 60.39827856], [5.30632343, 60.39828067], [5.3063154, 60.39828269], [5.30630734, 60.39828481], [5.3062993, 60.39828683], [5.30629126, 60.39828894], [5.30628321, 60.39829097], [5.30627515, 60.39829308], [5.30626712, 60.3982951], [5.30625963, 60.39829705], [5.30625103, 60.39829924], [5.30624299, 60.39830126], [5.30623493, 60.39830338], [5.3062269, 60.3983054], [5.30621884, 60.39830751], [5.30621079, 60.39830954], [5.30620276, 60.39831165], [5.3061947, 60.39831368], [5.30618665, 60.39831579], [5.30617862, 60.39831782], [5.30617056, 60.39831993], [5.30616253, 60.39832195], [5.30615447, 60.39832407], [5.30614961, 60.39832527], [5.30614643, 60.39832609], [5.30613839, 60.3983282], [5.30613034, 60.39833023], [5.30612228, 60.39833234], [5.30611425, 60.39833436], [5.3061062, 60.39833648], [5.30609815, 60.3983385], [5.30609011, 60.39834061], [5.30608206, 60.39834263], [5.30607403, 60.39834466], [5.30606597, 60.39834677], [5.30605792, 60.39834879], [5.30604989, 60.39835091], [5.30604184, 60.39835293], [5.30603378, 60.39835504], [5.30602575, 60.39835707], [5.30602256, 60.39835788], [5.30601769, 60.39835918], [5.30600964, 60.39836121], [5.30600142, 60.39836332], [5.30599337, 60.39836534], [5.30599, 60.39836624], [5.30598532, 60.39836746], [5.30597746, 60.39836957], [5.3059694, 60.39837169], [5.30596152, 60.39837389], [5.30595365, 60.3983761], [5.30594577, 60.39837831], [5.30593788, 60.39838061], [5.30593017, 60.39838291], [5.30592244, 60.39838531], [5.30591472, 60.3983877], [5.30590719, 60.39839009], [5.30589964, 60.39839258], [5.30589209, 60.39839506], [5.30588454, 60.39839755], [5.30587717, 60.39840013], [5.30587584, 60.39840054], [5.30586961, 60.39840271], [5.3058624, 60.3984053], [5.30585502, 60.39840797], [5.30584781, 60.39841064], [5.3058406, 60.39841341], [5.30583337, 60.39841617], [5.30582634, 60.39841895], [5.30581931, 60.39842181], [5.30581226, 60.39842457], [5.3058094, 60.39842575], [5.30580521, 60.39842753], [5.30579834, 60.39843039], [5.30579147, 60.39843335], [5.30578669, 60.39843546], [5.30578477, 60.39843631], [5.30577941, 60.39843867], [5.30577865, 60.39843902], [5.30577871, 60.39843839], [5.30577924, 60.3984339], [5.30577956, 60.39842942], [5.30578006, 60.39842494], [5.30578057, 60.39842046], [5.30578091, 60.39841597], [5.30578111, 60.3984141], [5.30578512, 60.39841241], [5.30579216, 60.39840954], [5.30579922, 60.39840669], [5.30580625, 60.39840391], [5.30581346, 60.39840115], [5.30582069, 60.39839839], [5.30582789, 60.39839571], [5.30583509, 60.39839303], [5.30584247, 60.39839036], [5.30584741, 60.39838861], [5.30584987, 60.39838778], [5.30585516, 60.39838586], [5.30585724, 60.3983852], [5.30586462, 60.39838262], [5.30587218, 60.39838004], [5.30587972, 60.39837755], [5.30588726, 60.39837516], [5.30589481, 60.39837267], [5.30590253, 60.39837027], [5.30591025, 60.39836788], [5.30591796, 60.39836558], [5.30592567, 60.39836328], [5.30593357, 60.39836098], [5.30594145, 60.39835878], [5.30594932, 60.39835657], [5.3059572, 60.39835435], [5.30596526, 60.39835224], [5.3059733, 60.39835013], [5.30598135, 60.39834802], [5.3059894, 60.39834599], [5.30599743, 60.39834397], [5.30600584, 60.39834195], [5.30601371, 60.39833993], [5.30602174, 60.3983379], [5.3060298, 60.39833579], [5.30603783, 60.39833377], [5.30604588, 60.39833165], [5.30605393, 60.39832963], [5.30606196, 60.39832761], [5.30607002, 60.39832549], [5.30607807, 60.39832347], [5.30608611, 60.39832136], [5.30609416, 60.39831934], [5.30610221, 60.39831722], [5.30611024, 60.3983152], [5.3061183, 60.39831309], [5.30612633, 60.39831106], [5.30613289, 60.39830936], [5.30613439, 60.39830895], [5.30614244, 60.39830692], [5.30615048, 60.3983048], [5.30615852, 60.39830278], [5.30616658, 60.39830067], [5.30617461, 60.39829864], [5.30618267, 60.39829653], [5.30619072, 60.39829451], [5.30619875, 60.3982924], [5.3062068, 60.39829037], [5.30621486, 60.39828826], [5.30622289, 60.39828624], [5.30623095, 60.39828412], [5.30623898, 60.3982821], [5.30624291, 60.39828113], [5.30624702, 60.39828008], [5.30625508, 60.39827796], [5.30626311, 60.39827594], [5.30627117, 60.39827383], [5.30627922, 60.3982718], [5.30628726, 60.39826969], [5.30629549, 60.39826767], [5.30630354, 60.39826556], [5.30631157, 60.39826354], [5.3063127, 60.3982632], [5.30631963, 60.39826142], [5.30632766, 60.3982594], [5.30633571, 60.39825737], [5.30634377, 60.39825525], [5.3063518, 60.39825323], [5.30635984, 60.39825121], [5.30636787, 60.39824918], [5.30637611, 60.39824708], [5.30638416, 60.39824505], [5.30639219, 60.39824303], [5.30639894, 60.39824124], [5.30640025, 60.39824092], [5.3064083, 60.39823889], [5.30641633, 60.39823687], [5.30642438, 60.39823476], [5.30643243, 60.39823273], [5.30643578, 60.39823193], [5.30644064, 60.39823071], [5.30644869, 60.39822869], [5.30645673, 60.39822658], [5.30646478, 60.39822455], [5.30647283, 60.39822253], [5.30648087, 60.39822042], [5.30648891, 60.39821839], [5.30649694, 60.39821637], [5.30650518, 60.39821426], [5.30651323, 60.39821224], [5.30651714, 60.39821127], [5.30652126, 60.39821022], [5.30652948, 60.39820829], [5.30653751, 60.39820626], [5.30654573, 60.39820433], [5.30654873, 60.3982036], [5.30655694, 60.39820158], [5.30656516, 60.39819966], [5.30657319, 60.39819763], [5.30658141, 60.3981957], [5.30658944, 60.39819368], [5.30659766, 60.39819175], [5.30660588, 60.39818973], [5.30661392, 60.3981878], [5.30662213, 60.39818578], [5.30663017, 60.39818384], [5.3066384, 60.39818183], [5.3066466, 60.3981799], [5.30665465, 60.39817787], [5.30666267, 60.39817594], [5.3066709, 60.39817392], [5.3066791, 60.39817199], [5.30668733, 60.39816997], [5.30669535, 60.39816804], [5.30670358, 60.39816602], [5.3067116, 60.39816408], [5.30671983, 60.39816207], [5.30672787, 60.39816013], [5.30673608, 60.39815811], [5.3067443, 60.39815618], [5.30675234, 60.39815416], [5.30676056, 60.39815223], [5.30676859, 60.39815021], [5.30677681, 60.39814828], [5.30678502, 60.39814626], [5.30679306, 60.39814433], [5.30680126, 60.3981424], [5.30680931, 60.39814037], [5.30681753, 60.39813845], [5.30682574, 60.39813643], [5.30683378, 60.39813449], [5.30684199, 60.39813247], [5.3068435, 60.39813207], [5.30685003, 60.39813054], [5.30685824, 60.39812852], [5.30686646, 60.39812659], [5.30687449, 60.39812457], [5.30688272, 60.39812264], [5.30689076, 60.39812062], [5.30689897, 60.39811869], [5.3069072, 60.39811667], [5.30691522, 60.39811473], [5.30692345, 60.39811271], [5.30693147, 60.39811078], [5.3069397, 60.39810876], [5.3069479, 60.39810683], [5.30695595, 60.39810481], [5.30696415, 60.39810288], [5.3069722, 60.39810086], [5.30698042, 60.39809893], [5.30698135, 60.39809868], [5.30698845, 60.3980969], [5.30699667, 60.39809497], [5.30700488, 60.39809295], [5.30701292, 60.39809102], [5.30702113, 60.398089], [5.30702917, 60.39808707], [5.30703739, 60.39808505], [5.30704561, 60.39808312], [5.30705365, 60.3980811], [5.30706186, 60.39807917], [5.30706991, 60.39807714], [5.30707811, 60.39807521], [5.30708092, 60.39807457], [5.30708663, 60.39807545], [5.30709518, 60.39807695], [5.30710373, 60.39807835], [5.30711228, 60.39807984], [5.30712085, 60.39808125], [5.3071294, 60.39808275]]]}}, {"type": "Feature", "properties": {"nvdb_id": 1025984948, "type": 43, "Plasser reservert handikappede": 0, "Etableringsår": 2025, "Areal": 799, "Antall parkeringsplasser store kjt.": 0, "Antall parkeringspl. med lading, små kjt.": 0, "Antall parkeringsplasser små kjt.": 22, "Antall parkeringspl. med lading, store kjt.": 0, "Geometri, flate": "POLYGON Z ((-32266.278211648925 6735337.98117943 2.7028,-32256.74357000261 6735339.1740558585 2.6396,-32255.74829666631 6735339.298635195 2.6319,-32255.411834537634 6735339.34069374 2.6293,-32254.752931414172 6735339.4231079 2.6248,-32254.73103992641 6735339.425907641 2.6247,-32253.757655935944 6735339.547702121 2.6188000000000002,-32252.762297656853 6735339.672175827 2.6128,-32251.76701642829 6735339.796753996 2.6069,-32250.771756444126 6735339.921242002 2.6009,-32250.162621372147 6735339.997412261 2.5972,-32249.899858189514 6735340.030336743 2.5956,-32249.776377963717 6735340.045806013 2.5947,-32249.70669141237 6735340.054519457 2.5943,-32248.78111786046 6735340.170294997 2.5895,-32248.35513316642 6735340.223561714 2.5883000000000003,-32247.785736245685 6735340.294873747 2.5871,-32246.79047631158 6735340.419361732 2.585,-32245.79511017853 6735340.5438342625 2.5829,-32244.79983697855 6735340.668413565 2.5808,-32243.80457807344 6735340.792901693 2.5787,-32242.80919868895 6735340.917465535 2.5765000000000002,-32241.813938671956 6735341.0419545 2.5744,-32240.81855714519 6735341.166533223 2.5723000000000003,-32239.823297296767 6735341.291021194 2.5702,-32238.827918955358 6735341.415585167 2.5708,-32237.83119269577 6735341.540370596 2.5713,-32237.670876178425 6735341.560316559 2.5714,-32237.630601657205 6735341.565405881 2.5714,-32237.566902852966 6735341.573365834 2.5715,-32236.837375923642 6735341.664666144 2.5719000000000003,-32235.842017857358 6735341.789139796 2.5724,-32235.164217723766 6735341.87397039 2.5728,-32234.8437455456 6735341.914087431 2.573,-32233.851379647967 6735342.038192699 2.5692,-32232.85610674112 6735342.162770975 2.5621,-32231.860740639153 6735342.287244453 2.5517000000000003,-32230.865465447423 6735342.4118385995 2.5379,-32229.870198776014 6735342.536325526 2.5208,-32229.65618244384 6735342.563058188 2.5162,-32229.310620016768 6735342.6063284725 2.5087,-32228.445658640936 6735343.017478881 2.4934,-32228.278413729277 6735343.226381345 2.4875,-32228.115527684335 6735343.429730895 2.4819,-32227.9568724985 6735343.627710617 2.4764,-32227.80225285457 6735343.820910404 2.4711,-32227.65126337961 6735344.009364524 2.4659,-32227.50386611442 6735344.193375592 2.4609,-32227.35978983005 6735344.373323786 2.456,-32227.218708225526 6735344.549438349 2.4513,-32227.080711484537 6735344.721733409 2.4467,-32226.94543361757 6735344.890696988 2.4422,-32226.812784137437 6735345.056268288 2.4378,-32226.682601207518 6735345.21876534 2.4336,-32226.554750765674 6735345.378461583 2.4294000000000002,-32226.429157795734 6735345.535238659 2.4254,-32226.305551359546 6735345.689474741 2.4214,-32226.184003432863 6735345.841364804 2.4176,-32226.06423079595 6735345.9908838365 2.4138,-32225.94620526838 6735346.138121007 2.4102,-32225.829885952407 6735346.2833643025 2.4066,-32225.715147599927 6735346.42682662 2.4031000000000002,-32225.60171142826 6735346.568250456 2.3997,-32225.489740484743 6735346.708047776 2.3964,-32225.379098180216 6735346.846321343 2.3931,-32225.269594923826 6735346.983043572 2.3899,-32225.161117171985 6735347.118291188 2.3868,-32225.053819391294 6735347.252395831 2.3838,-32224.947420243407 6735347.385208103 2.3808,-32224.841892967 6735347.516925827 2.3779,-32224.73506956175 6735347.645005519 2.3751,-32224.62553160626 6735347.768035546 2.3725,-32224.512828969164 6735347.886350793 2.3701,-32224.397002568934 6735348.000359629 2.3679,-32224.277812842513 6735348.11032216 2.3658,-32224.15491081588 6735348.216511959 2.3638,-32224.02809577668 6735348.318977875 2.3621,-32223.897082610638 6735348.41820246 2.3605,-32223.761294460623 6735348.514102783 2.359,-32223.62030014838 6735348.606709348 2.3578,-32223.473680124385 6735348.696160794 2.3567,-32223.320470836945 6735348.782210463 2.3558,-32223.160306261387 6735348.865144646 2.3552,-32222.99194230174 6735348.94453397 2.3547000000000002,-32222.814185184077 6735349.020237139 2.3545,-32222.625855726656 6735349.091956856 2.3546,-32222.42491837195 6735349.159011714 2.3548999999999998,-32222.209155005054 6735349.220769764 2.3557,-32221.97525815072 6735349.27613034 2.3568,-32221.71889780811 6735349.323566247 2.3585000000000003,-32221.43507627526 6735349.361220996 2.3607,-32221.42661900504 6735349.355937714 2.4807,-32221.1610217524 6735349.37091277 2.412698,-32221.00965097791 6735349.40822771 2.42195,-32220.996309099486 6735349.40481735 2.4819,-32220.896613291232 6735349.41706596 2.4814,-32220.796922544367 6735349.429224078 2.481,-32220.69724304159 6735349.44136761 2.4807,-32220.597537126858 6735349.453629951 2.4804,-32220.49784216867 6735349.465879686 2.4802,-32220.398166878032 6735349.477931592 2.48,-32220.36029720644 6735349.482550846 2.48,-32220.29857033305 6735349.490194646 2.4799,-32220.19886644138 6735349.502443089 2.4798,-32220.099183780258 6735349.514601363 2.4797000000000002,-32219.999496337376 6735349.526743742 2.4796,-32219.899806729052 6735349.538901006 2.4795,-32219.800110778306 6735349.551150605 2.4793,-32219.700406886986 6735349.563399048 2.4792,-32219.600740675232 6735349.575451261 2.4791,-32219.50113505358 6735349.587714004 2.479,-32219.401440241025 6735349.599962753 2.479,-32219.301749640494 6735349.612119874 2.4789,-32219.202054682188 6735349.624369619 2.4788,-32219.10236408189 6735349.636526742 2.4787,-32219.002683588653 6735349.648670128 2.4786,-32218.959839458694 6735349.653989624 2.4786,-32218.903076793766 6735349.660947903 2.4785,-32218.803396300296 6735349.673091291 2.4785,-32218.70370669372 6735349.685248556 2.4784,-32218.604003796238 6735349.697497143 2.4783,-32218.504323303 6735349.709640529 2.4782,-32218.40461724752 6735349.721903858 2.4782,-32218.30493774824 6735349.734047391 2.4781,-32218.205247148406 6735349.746204512 2.4781,-32218.105650462327 6735349.758468557 2.478,-32218.005946717225 6735349.770716007 2.478,-32217.906280362862 6735349.7827692125 2.4779,-32217.806576618692 6735349.79501666 2.4779,-32217.706893960945 6735349.807174939 2.4778000000000002,-32217.807912823744 6735351.167076954 2.3308,-32217.908011786756 6735352.515183222 2.3038,-32218.007701538387 6735352.503024965 2.303,-32218.107397342566 6735352.490776363 2.3023,-32218.207084782887 6735352.478633991 2.3016,-32218.306669173646 6735352.466461416 2.3009,-32218.406372070312 6735352.454212833 2.3001,-32218.506054730038 6735352.44205456 2.2994,-32218.605757627287 6735352.429805977 2.2987,-32218.705453576637 6735352.417556382 2.298,-32218.805128721287 6735352.405505475 2.2973,-32218.904725408414 6735352.393241436 2.2966,-32219.004429155262 6735352.380993991 2.2959,-32219.104110823362 6735352.368835573 2.2952,-32219.160977676045 6735352.361906644 2.2948,-32219.203827033518 6735352.357192039 2.2945,-32219.30385908007 6735352.349646992 2.2937,-32219.40427118214 6735352.347138267 2.2928,-32219.505082244985 6735352.349542925 2.2917,-32219.606134194764 6735352.357257608 2.2905,-32219.707751760376 6735352.370112649 2.2892,-32219.809701111866 6735352.388398391 2.2878,-32219.91204614297 6735352.412309623 2.2862,-32220.014838897507 6735352.442178287 2.2843999999999998,-32220.11804645625 6735352.478279354 2.2825,-32220.22188515344 6735352.521153149 2.2803,-32220.326187418774 6735352.571303394 2.278,-32220.43112131802 6735352.6296647955 2.2754,-32220.536670606467 6735352.697024613 2.2725,-32220.602512593614 6735352.744004516 2.2706,-32220.642997940886 6735352.775030358 2.2694,-32220.69668022252 6735352.820248814 2.26765,-32220.7503623605 6735352.865468259 2.2659000000000002,-32220.85873570561 6735352.971241332 2.2619,-32220.859514721902 6735352.981191032 2.3819,-32220.969425147516 6735353.10706319 2.3775,-32221.081456745393 6735353.260820038 2.3722,-32221.196846626583 6735353.46047757 2.3657,-32221.32006200112 6735353.764453085 2.3562,-32221.33790618647 6735353.829187883 2.35425,-32222.10278850945 6735357.021091512 2.15125,-32228.061139569967 6735356.348013463 2.1854,-32228.081927958294 6735356.252514185 2.2059,-32228.092257096083 6735356.175260761 2.2063,-32228.096117533743 6735356.14804382 2.2064,-32228.10520703264 6735356.088349666 2.2067,-32228.1124898477 6735356.043194735 2.2069,-32228.13294943387 6735355.928376325 2.2075,-32228.152105737827 6735355.83223712 2.208,-32228.17410178634 6735355.731949798 2.2085,-32228.18551009544 6735355.683528211 2.2088,-32228.197236509062 6735355.635678994 2.209,-32228.209287490696 6735355.588371667 2.2093,-32228.2216535412 6735355.541713307 2.2095000000000002,-32228.234361093608 6735355.49552226 2.2096999999999998,-32228.247384136193 6735355.449872792 2.21,-32228.26074347878 6735355.404782127 2.2102,-32228.27431801916 6735355.3602326345 2.2105,-32228.28812349611 6735355.316227632 2.2107,-32228.302166433656 6735355.272659589 2.2109,-32228.31655304006 6735355.229543981 2.2111,-32228.331162786228 6735355.1869707005 2.2114,-32228.34600999183 6735355.144834394 2.2116,-32228.36109579471 6735355.103134208 2.2118,-32228.376426853705 6735355.061873138 2.2121,-32228.39189507987 6735355.021048646 2.2123,-32228.40770796803 6735354.980676717 2.2126,-32228.423758316203 6735354.940741757 2.213,-32228.439627650776 6735354.902001891 2.2134,-32228.456403560354 6735354.861970815 2.2138,-32228.47300625418 6735354.823136971 2.2142,-32228.489838610985 6735354.784737948 2.2147,-32228.506840359303 6735354.746658546 2.2153,-32228.52408690087 6735354.708923927 2.2158,-32228.541592277004 6735354.671535123 2.2164,-32228.55915172049 6735354.634464358 2.217,-32228.57706333988 6735354.597738803 2.2176,-32228.595142752398 6735354.561239377 2.2183,-32228.613367273356 6735354.5251776725 2.219,-32228.631760723772 6735354.489341256 2.2197,-32228.650422401726 6735354.453730376 2.2205,-32228.66934060317 6735354.418481195 2.2213,-32228.688315182342 6735354.383534174 2.2221,-32228.707466060878 6735354.348706064 2.2229,-32228.72697967349 6735354.314255105 2.2237999999999998,-32228.746558172745 6735354.2799990745 2.2247,-32228.766506774584 6735354.246013833 2.2257,-32228.786527210614 6735354.212224543 2.2266,-32228.80681267858 6735354.178689724 2.2276,-32228.82719106588 6735354.1452616835 2.2286,-32228.847918327432 6735354.112194586 2.2297000000000002,-32228.868830119027 6735354.079245568 2.2308,-32228.890034261858 6735354.046356326 2.2319,-32228.911168057122 6735354.013950485 2.233,-32228.93280213012 6735353.98161745 2.2342,-32228.954519015737 6735353.949404929 2.2354,-32228.97662146215 6735353.9173569735 2.2366,-32228.998788794735 6735353.885503958 2.2378,-32229.02134168707 6735353.853815507 2.2391,-32229.043977390742 6735353.822247574 2.2405,-32229.06700196059 6735353.790828468 2.2418,-32229.090308048064 6735353.759543583 2.2432,-32229.113794041215 6735353.728408546 2.2446,-32229.13756386377 6735353.697391847 2.246,-32229.16161980352 6735353.666540455 2.2475,-32229.185873455834 6735353.635702622 2.249,-32229.210493422346 6735353.605119817 2.2506,-32229.23531485384 6735353.574580524 2.2521,-32229.26051706355 6735353.5441898955 2.2536,-32229.286015073885 6735353.513842312 2.2551,-32229.3117946001 6735353.483628955 2.2567,-32229.337875701487 6735353.453474687 2.2582,-32229.36425855593 6735353.423364335 2.2597,-32229.391015243018 6735353.393401634 2.2613,-32229.418074821937 6735353.363482003 2.2628,-32229.44560593262 6735353.3338327035 2.2644,-32229.47336133488 6735353.304014335 2.266,-32229.50158132112 6735353.274465286 2.2676,-32229.53001893242 6735353.2448556665 2.2691,-32229.558948031627 6735353.21531656 2.2707,-32229.588258903124 6735353.185926266 2.2723,-32229.617969798972 6735353.1565941805 2.274,-32229.648075755802 6735353.12731959 2.2756,-32229.678596018697 6735353.098012043 2.2772,-32229.70959433657 6735353.068867315 2.2788,-32229.740994664608 6735353.039781091 2.2804,-32229.77280234988 6735353.010660893 2.282,-32229.80509702477 6735352.981704815 2.2836,-32229.837883044034 6735352.952820249 2.2852,-32229.87118263147 6735352.923917163 2.2868,-32229.90497356397 6735352.895085582 2.2884,-32229.93925247749 6735352.866418269 2.29,-32229.974038192537 6735352.837716249 2.2916,-32230.009320881683 6735352.809102772 2.2932,-32230.045301525155 6735352.780589846 2.2947,-32230.08167741017 6735352.752119239 2.2963,-32230.118764249724 6735352.723659854 2.2979,-32230.15634041163 6735352.695285868 2.2995,-32230.19450300664 6735352.667075272 2.3011,-32230.233361097984 6735352.63898211 2.3026,-32230.272833337192 6735352.610868852 2.3042,-32230.31287959125 6735352.582948592 2.3058,-32230.35371629242 6735352.555127154 2.3074,-32230.540262426483 6735352.434394987 2.3142,-32230.868009240017 6735352.248850833 2.325,-32231.07264716667 6735352.147967125 2.3311,-32232.040959542734 6735351.8067942215 2.3538,-32233.03362091165 6735351.661155797 2.3687,-32234.050411348697 6735351.708467497 2.3765,-32235.093987636734 6735351.970119541 2.3767,-32235.09279129957 6735351.960216551 2.3567,-32236.170913125155 6735352.497829046 2.3472,-32236.524908187333 6735352.749733761 2.3417,-32237.287368079415 6735353.341062846 2.3296,-32238.406872372958 6735354.209362692 2.3118,-32239.22745013761 6735354.845743836 2.2987,-32239.3002132501 6735354.902238418 2.2975,-32239.32045624859 6735354.900025909 2.29755,-32239.341069871676 6735354.897342275 2.2976,-32239.501303581987 6735354.87727583 2.298,-32240.49668294622 6735354.752712172 2.3001,-32241.49194183154 6735354.628224229 2.3022,-32242.48720186483 6735354.50373544 2.3043,-32243.48258126725 6735354.379171768 2.3064,-32244.4778411811 6735354.254683963 2.3085,-32245.473222774803 6735354.130105398 2.3107,-32246.46848172159 6735354.005617438 2.3128,-32247.463861173484 6735353.881053762 2.3149,-32248.45912113751 6735353.7565659415 2.317,-32249.45440465689 6735353.631972071 2.3191,-32250.023786001024 6735353.560767337 2.3203,-32250.449762914446 6735353.507498545 2.3215,-32251.375349651324 6735353.391632831 2.3263,-32251.445043155458 6735353.382920405 2.3266999999999998,-32251.56851123355 6735353.367541632 2.3276,-32251.83127428312 6735353.334618191 2.3292,-32252.44040143874 6735353.258446876 2.3329,-32253.43568269466 6735353.133868879 2.3389,-32254.430942734703 6735353.009381035 2.3448,-32255.426316512283 6735352.884801285 2.3508,-32256.39970054361 6735352.763006968 2.3567,-32256.421583523508 6735352.760314455 2.3568,-32257.08047770534 6735352.677913286 2.3613,-32257.41695515986 6735352.635749582 2.3639,-32258.412223334308 6735352.511261897 2.3716,-32259.407581705134 6735352.386788342 2.3793,-32260.40286205581 6735352.262210179 2.387,-32261.08561550721 6735352.17677056 2.3917,-32261.398122183513 6735352.13772232 2.3935,-32262.393503988627 6735352.013143702 2.3995,-32263.38876414066 6735351.888655832 2.4054,-32264.384143804084 6735351.764092102 2.4114,-32265.37940313248 6735351.639603093 2.4173,-32266.374778039288 6735351.515023448 2.4232,-32266.445393511443 6735351.506244494 2.4237,-32267.19784342358 6735351.412016835 2.4289,-32267.37004518893 6735351.390536584 2.4302,-32267.96524048492 6735351.316096337 2.4349,-32268.01305087353 6735351.310077424 2.4353,-32268.365318692056 6735351.265957381 2.4381,-32269.23327952309 6735351.157403696 2.4449,-32269.36172080948 6735351.141326512 2.4459,-32270.355958656408 6735351.016905745 2.4529,-32270.736202282016 6735350.969355999 2.4553000000000003,-32271.351324125193 6735350.892433166 2.459,-32272.346599845914 6735350.767839059 2.4649,-32273.010447245557 6735350.684828769 2.4689,-32273.317089034128 6735350.646442403 2.4708,-32273.341958535137 6735350.643364468 2.471,-32274.337240053574 6735350.518786405 2.4777,-32274.874725190457 6735350.451539561 2.4813,-32275.3325986244 6735350.394312795 2.4844,-32276.327865886036 6735350.269825906 2.4905,-32277.32314744289 6735350.145247827 2.4961,-32278.318506050156 6735350.020774218 2.501,-32279.31378880574 6735349.896181102 2.5054,-32280.309147582622 6735349.771706487 2.5092,-32281.30442918907 6735349.647128404 2.5124,-32281.638836556813 6735349.605266522 2.5134,-32282.29968163604 6735349.522639321 2.5152,-32283.29507164436 6735349.398061792 2.5179,-32284.290324117057 6735349.273572706 2.5206,-32285.285710990313 6735349.149009922 2.5233,-32286.28096348734 6735349.0245208265 2.526,-32287.276335497387 6735348.899955861 2.5288,-32288.27160390129 6735348.775469071 2.5315,-32289.266887919046 6735348.650875079 2.5342000000000002,-32289.903892895323 6735348.571259691 2.5359,-32290.261477586813 6735348.520520893 2.537,-32290.597840823582 6735348.461820237 2.5383,-32291.24702331354 6735348.317980019 2.5444,-32291.58438530867 6735348.22658891 2.5504,-32291.89115837775 6735348.133577394 2.5569,-32292.220954485936 6735348.022433289 2.5632,-32292.716907702154 6735347.833092982 2.5702,-32293.182685320964 6735347.629617224 2.5754,-32294.13134254585 6735347.131720359 2.5878,-32296.048967431416 6735345.834689426 2.6825229999999998,-32295.22380674898 6735339.44333916 2.7933310000000002,-32266.973243065295 6735342.999170149 2.6023,-32266.278211648925 6735337.98117943 2.7028))", "Eier": "Kommune", "Vedlikeholdsansvarlig": "Kommune", "Type": "Avskjermet plass", "Innfartsparkering": "Nei", "Prosjektreferanse": "22/46854", "Navn": "Parkering", "vegsystem": "PV16737 S1D1 m55", "veglenkesekvenser": [762768]}, "geometry": {"type": "Polygon", "coordinates": [[[5.31642242, 60.40116249], [5.31658982, 60.40118557], [5.3166073, 60.40118798], [5.3166132, 60.40118879], [5.31662477, 60.40119039], [5.31662516, 60.40119044], [5.31664224, 60.4011928], [5.31665973, 60.4011952], [5.3166772, 60.40119762], [5.31669467, 60.40120002], [5.31670536, 60.40120149], [5.31670998, 60.40120213], [5.31671216, 60.40120244], [5.31671337, 60.40120261], [5.31672963, 60.40120484], [5.31673711, 60.40120588], [5.3167471, 60.40120725], [5.31676459, 60.40120966], [5.31678206, 60.40121207], [5.31679953, 60.40121447], [5.316817, 60.40121689], [5.31683448, 60.40121929], [5.31685195, 60.40122171], [5.31686942, 60.40122412], [5.31688691, 60.40122652], [5.31690438, 60.40122894], [5.31692189, 60.40123134], [5.3169247, 60.40123173], [5.3169254, 60.40123183], [5.31692652, 60.40123198], [5.31693934, 60.40123376], [5.31695681, 60.40123616], [5.31696871, 60.4012378], [5.31697433, 60.40123858], [5.31699177, 60.40124098], [5.31700924, 60.40124339], [5.31702671, 60.40124579], [5.31704419, 60.40124821], [5.31706166, 60.40125061], [5.31706542, 60.40125113], [5.31707148, 60.40125197], [5.31708586, 60.40125674], [5.31708831, 60.40125881], [5.31709067, 60.40126083], [5.31709299, 60.40126279], [5.31709525, 60.4012647], [5.31709745, 60.40126656], [5.31709959, 60.40126839], [5.31710169, 60.40127017], [5.31710375, 60.40127191], [5.31710576, 60.40127362], [5.31710774, 60.4012753], [5.31710967, 60.40127693], [5.31711156, 60.40127854], [5.31711343, 60.40128012], [5.31711526, 60.40128167], [5.31711706, 60.4012832], [5.31711883, 60.40128471], [5.31712058, 60.40128619], [5.3171223, 60.40128765], [5.31712399, 60.40128908], [5.31712567, 60.40129051], [5.31712732, 60.4012919], [5.31712895, 60.40129329], [5.31713057, 60.40129466], [5.31713215, 60.40129601], [5.31713375, 60.40129735], [5.3171353, 60.40129868], [5.31713687, 60.40129999], [5.31713839, 60.4013013], [5.31713997, 60.40130257], [5.31714159, 60.40130381], [5.3171433, 60.401305], [5.31714507, 60.40130616], [5.31714691, 60.40130729], [5.31714883, 60.4013084], [5.31715083, 60.40130947], [5.31715291, 60.40131052], [5.31715509, 60.40131154], [5.31715736, 60.40131255], [5.31715974, 60.40131353], [5.31716227, 60.4013145], [5.31716491, 60.40131544], [5.3171677, 60.40131637], [5.31717069, 60.40131727], [5.31717386, 60.40131815], [5.31717728, 60.40131901], [5.31718098, 60.40131984], [5.31718502, 60.40132063], [5.31718947, 60.4013214], [5.31719445, 60.4013221], [5.31719461, 60.40132206], [5.31719933, 60.40132254], [5.31720193, 60.40132307], [5.31720219, 60.40132306], [5.31720393, 60.4013233], [5.31720568, 60.40132354], [5.31720744, 60.40132377], [5.31720918, 60.40132402], [5.31721093, 60.40132426], [5.31721269, 60.40132449], [5.31721336, 60.40132459], [5.31721443, 60.40132473], [5.31721619, 60.40132497], [5.31721794, 60.40132521], [5.3172197, 60.40132545], [5.31722144, 60.40132569], [5.3172232, 60.40132592], [5.31722495, 60.40132616], [5.31722669, 60.4013264], [5.31722845, 60.40132664], [5.3172302, 60.40132688], [5.31723194, 60.40132712], [5.3172337, 60.40132736], [5.31723546, 60.4013276], [5.31723719, 60.40132784], [5.31723795, 60.40132794], [5.31723895, 60.40132808], [5.31724071, 60.40132831], [5.31724245, 60.40132855], [5.31724421, 60.40132879], [5.31724596, 60.40132903], [5.3172477, 60.40132927], [5.31724946, 60.40132951], [5.31725121, 60.40132974], [5.31725295, 60.40132998], [5.31725471, 60.40133023], [5.31725646, 60.40133046], [5.3172582, 60.4013307], [5.31725996, 60.40133094], [5.31725454, 60.40134284], [5.31724918, 60.40135464], [5.31724742, 60.4013544], [5.31724568, 60.40135417], [5.31724392, 60.40135393], [5.31724217, 60.40135368], [5.31724043, 60.40135345], [5.31723867, 60.40135321], [5.31723692, 60.40135297], [5.31723518, 60.40135274], [5.31723342, 60.4013525], [5.31723166, 60.40135225], [5.31722993, 60.40135202], [5.31722817, 60.40135178], [5.31722717, 60.40135164], [5.31722641, 60.40135154], [5.31722464, 60.40135135], [5.31722286, 60.40135119], [5.31722105, 60.40135108], [5.31721922, 60.40135101], [5.31721736, 60.401351], [5.31721549, 60.40135102], [5.3172136, 60.4013511], [5.31721168, 60.40135123], [5.31720974, 60.40135141], [5.31720776, 60.40135166], [5.31720577, 60.40135196], [5.31720374, 60.40135235], [5.31720166, 60.4013528], [5.31720036, 60.40135313], [5.31719956, 60.40135335], [5.31719847, 60.40135368], [5.31719741, 60.40135401], [5.31719517, 60.4013548], [5.31719513, 60.40135489], [5.31719285, 60.40135586], [5.31719043, 60.40135708], [5.31718783, 60.40135869], [5.31718482, 60.40136122], [5.31718433, 60.40136177], [5.31716217, 60.40138902], [5.31705737, 60.40137524], [5.31705724, 60.40137437], [5.31705727, 60.40137366], [5.31705727, 60.40137342], [5.31705727, 60.40137288], [5.31705726, 60.40137247], [5.31705719, 60.40137142], [5.31705711, 60.40137055], [5.31705698, 60.40136963], [5.31705689, 60.40136919], [5.31705682, 60.40136875], [5.31705674, 60.40136831], [5.31705663, 60.40136789], [5.31705653, 60.40136747], [5.31705642, 60.40136704], [5.31705629, 60.40136663], [5.31705618, 60.40136621], [5.31705605, 60.4013658], [5.31705591, 60.4013654], [5.31705575, 60.401365], [5.31705562, 60.4013646], [5.31705546, 60.40136421], [5.3170553, 60.40136382], [5.31705515, 60.40136344], [5.31705497, 60.40136306], [5.31705479, 60.40136268], [5.31705461, 60.40136231], [5.31705443, 60.40136194], [5.31705424, 60.40136156], [5.31705404, 60.4013612], [5.31705384, 60.40136084], [5.31705364, 60.40136048], [5.31705343, 60.40136012], [5.31705321, 60.40135977], [5.31705301, 60.40135941], [5.31705278, 60.40135907], [5.31705256, 60.40135872], [5.31705233, 60.40135838], [5.31705209, 60.40135803], [5.31705186, 60.4013577], [5.31705161, 60.40135735], [5.31705136, 60.40135703], [5.31705112, 60.40135669], [5.31705085, 60.40135636], [5.31705058, 60.40135603], [5.31705032, 60.4013557], [5.31705005, 60.40135538], [5.31704978, 60.40135506], [5.31704951, 60.40135473], [5.31704922, 60.40135441], [5.31704893, 60.40135409], [5.31704865, 60.40135377], [5.31704836, 60.40135346], [5.31704805, 60.40135315], [5.31704774, 60.40135283], [5.31704743, 60.40135252], [5.31704712, 60.40135221], [5.31704681, 60.4013519], [5.31704649, 60.40135159], [5.31704616, 60.40135128], [5.31704583, 60.40135098], [5.31704548, 60.40135066], [5.31704514, 60.40135036], [5.31704479, 60.40135006], [5.31704444, 60.40134975], [5.31704409, 60.40134945], [5.31704372, 60.40134915], [5.31704334, 60.40134884], [5.31704297, 60.40134854], [5.31704259, 60.40134824], [5.31704221, 60.40134794], [5.31704182, 60.40134764], [5.31704142, 60.40134733], [5.31704101, 60.40134703], [5.31704059, 60.40134674], [5.31704019, 60.40134644], [5.31703975, 60.40134614], [5.31703932, 60.40134584], [5.31703888, 60.40134554], [5.31703844, 60.40134524], [5.31703798, 60.40134495], [5.31703753, 60.40134464], [5.31703705, 60.40134435], [5.31703657, 60.40134405], [5.31703609, 60.40134375], [5.3170356, 60.40134345], [5.3170351, 60.40134315], [5.31703459, 60.40134285], [5.31703407, 60.40134255], [5.31703354, 60.40134225], [5.31703301, 60.40134195], [5.31703246, 60.40134166], [5.31703191, 60.40134135], [5.31703134, 60.40134106], [5.31703076, 60.40134075], [5.31703017, 60.40134046], [5.31702958, 60.40134015], [5.31702896, 60.40133985], [5.31702835, 60.40133956], [5.31702771, 60.40133926], [5.31702707, 60.40133895], [5.31702641, 60.40133865], [5.31702341, 60.40133734], [5.31701803, 60.40133527], [5.31701463, 60.40133411], [5.31699822, 60.40132982], [5.31698084, 60.40132722], [5.31696254, 60.4013263], [5.31694317, 60.40132725], [5.31694321, 60.40132716], [5.3169225, 60.40133051], [5.3169155, 60.40133228], [5.3169003, 60.40133651], [5.31687796, 60.40134272], [5.3168616, 60.40134728], [5.31686014, 60.40134768], [5.31685979, 60.40134763], [5.31685942, 60.40134758], [5.31685661, 60.40134719], [5.31683912, 60.40134479], [5.31682165, 60.40134238], [5.31680418, 60.40133997], [5.3167867, 60.40133756], [5.31676922, 60.40133515], [5.31675176, 60.40133274], [5.31673428, 60.40133034], [5.3167168, 60.40132792], [5.31669933, 60.40132552], [5.31668186, 60.4013231], [5.31667185, 60.40132173], [5.31666437, 60.40132069], [5.31664813, 60.40131846], [5.3166469, 60.40131829], [5.31664472, 60.40131799], [5.31664012, 60.40131735], [5.31662943, 60.40131587], [5.31661194, 60.40131347], [5.31659447, 60.40131105], [5.316577, 60.40130865], [5.3165599, 60.40130629], [5.31655952, 60.40130624], [5.31654796, 60.40130465], [5.31654204, 60.40130383], [5.31652458, 60.40130142], [5.31650709, 60.40129901], [5.31648962, 60.4012966], [5.31647762, 60.40129495], [5.31647215, 60.4012942], [5.31645466, 60.40129178], [5.31643719, 60.40128938], [5.31641972, 60.40128697], [5.31640225, 60.40128456], [5.31638476, 60.40128215], [5.31638353, 60.40128198], [5.31637031, 60.40128015], [5.31636729, 60.40127974], [5.31635685, 60.4012783], [5.316356, 60.40127818], [5.31634982, 60.40127733], [5.31633458, 60.40127523], [5.31633232, 60.40127491], [5.31631486, 60.40127251], [5.31630819, 60.40127159], [5.3162974, 60.4012701], [5.31627991, 60.40126769], [5.31626827, 60.40126609], [5.31626288, 60.40126534], [5.31626244, 60.40126528], [5.31624497, 60.40126288], [5.31623552, 60.40126158], [5.31622748, 60.40126046], [5.31621001, 60.40125806], [5.31619254, 60.40125564], [5.31617505, 60.40125324], [5.31615758, 60.40125083], [5.31614011, 60.40124842], [5.31612264, 60.40124601], [5.31611676, 60.4012452], [5.31610515, 60.4012436], [5.31608769, 60.40124119], [5.31607021, 60.40123879], [5.31605273, 60.40123637], [5.31603526, 60.40123397], [5.31601779, 60.40123155], [5.3160003, 60.40122914], [5.31598283, 60.40122674], [5.31597165, 60.40122519], [5.31596539, 60.40122428], [5.31595952, 60.40122331], [5.31594829, 60.40122119], [5.31594251, 60.40121994], [5.31593726, 60.40121871], [5.31593165, 60.40121729], [5.31592328, 60.40121497], [5.31591548, 60.40121256], [5.31589985, 60.4012069], [5.31586898, 60.40119291], [5.3159007, 60.40113742], [5.31639667, 60.40120599], [5.31642242, 60.40116249]]]}}]}