{"type": "FeatureCollection", "features": [{"type": "Feature", "properties": {"osm_type": "node", "osm_id": 3988074931, "name": null, "kategori": "beboer", "capacity": null, "access": "private", "fee": null, "maxstay": null, "parking": {"parking": "multi-storey"}, "alle_tags": {"access": "private", "amenity": "parking", "parking": "multi-storey"}}, "geometry": {"type": "Point", "coordinates": [5.3282116, 60.3852416]}}, {"type": "Feature", "properties": {"osm_type": "node", "osm_id": 4038735667, "name": null, "kategori": "annet", "capacity": null, "access": null, "fee": null, "maxstay": null, "parking": {"parking": "lane"}, "alle_tags": {"amenity": "parking", "capacity:disabled": "yes", "parking": "lane"}}, "geometry": {"type": "Point", "coordinates": [5.3229111, 60.3911071]}}, {"type": "Feature", "properties": {"osm_type": "node", "osm_id": 4086516308, "name": "Møhlenpris beboerparkinger", "kategori": "beboer", "capacity": null, "access": "private", "fee": null, "maxstay": null, "parking": {"parking": "underground"}, "alle_tags": {"access": "private", "amenity": "parking", "layer": "-1", "level": "-1", "maxheight": "1.9", "name": "Møhlenpris beboerparkinger", "operator": "Bergen Kommune", "parking": "underground"}}, "geometry": {"type": "Point", "coordinates": [5.324219, 60.3828801]}}, {"type": "Feature", "properties": {"osm_type": "node", "osm_id": 4146353508, "name": "Nordnes beboerparkering", "kategori": "beboer", "capacity": null, "access": "private", "fee": null, "maxstay": null, "parking": {"parking": "underground"}, "alle_tags": {"access": "private", "amenity": "parking", "layer": "-1", "level": "-2", "maxheight": "1.9", "name": "Nordnes beboerparkering", "operator": "Bergen Kommune", "parking": "underground"}}, "geometry": {"type": "Point", "coordinates": [5.3054964, 60.3998569]}}, {"type": "Feature", "properties": {"osm_type": "node", "osm_id": 4161694048, "name": "Skansedammen beboeranlegg", "kategori": "beboer", "capacity": "196", "access": "private", "fee": null, "maxstay": null, "parking": {"parking": "underground"}, "alle_tags": {"access": "private", "amenity": "parking", "capacity": "196", "maxheight": "2.3", "name": "Skansedammen beboeranlegg", "operator": "Bergen Kommune", "parking": "underground"}}, "geometry": {"type": "Point", "coordinates": [5.3300617, 60.3978696]}}, {"type": "Feature", "properties": {"osm_type": "node", "osm_id": 4183496958, "name": null, "kategori": "beboer", "capacity": null, "access": "private", "fee": null, "maxstay": null, "parking": {"parking": "underground"}, "alle_tags": {"access": "private", "amenity": "parking", "maxheight": "2.1", "parking": "underground"}}, "geometry": {"type": "Point", "coordinates": [5.3113567, 60.3995912]}}, {"type": "Feature", "properties": {"osm_type": "node", "osm_id": 4802321456, "name": null, "kategori": "annet", "capacity": "1", "access": null, "fee": null, "maxstay": null, "parking": {"parking": "lane"}, "alle_tags": {"amenity": "parking", "capacity": "1", "capacity:disabled": "1", "parking": "lane"}}, "geometry": {"type": "Point", "coordinates": [5.319986, 60.3989394]}}, {"type": "Feature", "properties": {"osm_type": "node", "osm_id": 5061941766, "name": null, "kategori": "avgift", "capacity": "5", "access": "yes", "fee": "yes", "maxstay": null, "parking": {"parking": "street_side"}, "alle_tags": {"access": "yes", "amenity": "parking", "capacity": "5", "fee": "yes", "opening_hours": "24/7", "parking": "street_side"}}, "geometry": {"type": "Point", "coordinates": [5.3146579, 60.3950362]}}, {"type": "Feature", "properties": {"osm_type": "node", "osm_id": 5262554284, "name": null, "kategori": "beboer", "capacity": null, "access": "private", "fee": null, "maxstay": null, "parking": {"parking": "underground"}, "alle_tags": {"access": "private", "amenity": "parking", "parking": "underground"}}, "geometry": {"type": "Point", "coordinates": [5.319306, 60.3856095]}}, {"type": "Feature", "properties": {"osm_type": "node", "osm_id": 5407690448, "name": null, "kategori": "beboer", "capacity": null, "access": "private", "fee": null, "maxstay": null, "parking": {"parking": "underground"}, "alle_tags": {"access": "private", "amenity": "parking", "parking": "underground"}}, "geometry": {"type": "Point", "coordinates": [5.3182168, 60.3816894]}}, {"type": "Feature", "properties": {"osm_type": "node", "osm_id": 6016455254, "name": null, "kategori": "beboer", "capacity": null, "access": "private", "fee": null, "maxstay": null, "parking": {"parking": "underground"}, "alle_tags": {"access": "private", "amenity": "parking", "parking": "underground"}}, "geometry": {"type": "Point", "coordinates": [5.3225192, 60.3806686]}}, {"type": "Feature", "properties": {"osm_type": "node", "osm_id": 6431791260, "name": null, "kategori": "beboer", "capacity": null, "access": "private", "fee": null, "maxstay": null, "parking": {"parking": "lane"}, "alle_tags": {"access": "private", "amenity": "parking", "maxheight": "2", "operator": "Puddefjorden borettslag", "parking": "lane"}}, "geometry": {"type": "Point", "coordinates": [5.3225159, 60.3824137]}}, {"type": "Feature", "properties": {"osm_type": "node", "osm_id": 8506896422, "name": null, "kategori": "beboer", "capacity": null, "access": "private", "fee": null, "maxstay": null, "parking": {"parking": "surface"}, "alle_tags": {"access": "private", "amenity": "parking", "parking": "surface"}}, "geometry": {"type": "Point", "coordinates": [5.3299409, 60.3892808]}}, {"type": "Feature", "properties": {"osm_type": "node", "osm_id": 8845862213, "name": null, "kategori": "annet", "capacity": null, "access": null, "fee": null, "maxstay": null, "parking": {"parking": "street_side"}, "alle_tags": {"amenity": "parking", "parking": "street_side"}}, "geometry": {"type": "Point", "coordinates": [5.3292668, 60.3952708]}}, {"type": "Feature", "properties": {"osm_type": "node", "osm_id": 9487843959, "name": null, "kategori": "beboer", "capacity": null, "access": "private", "fee": null, "maxstay": null, "parking": {"parking": "surface"}, "alle_tags": {"access": "private", "amenity": "parking", "parking": "surface"}}, "geometry": {"type": "Point", "coordinates": [5.3121018, 60.3811177]}}, {"type": "Feature", "properties": {"osm_type": "way", "osm_id": 3506362, "name": "Kong Oscars gate", "kategori": "forbud", "capacity": null, "access": null, "fee": null, "maxstay": null, "parking": {"parking:lane:right": "no_parking"}, "alle_tags": {"bicycle": "yes", "cycleway:both": "track", "cycleway:both:segregated": "no", "highway": "primary", "lanes": "2", "lit": "yes", "maxspeed": "40", "name": "Kong Oscars gate", "parking:lane:right": "no_parking", "priority_road": "designated", "ref": "585", "sidewalk": "both", "surface": "asphalt", "trolley_wire": "yes", "zone:traffic": "NO:urban"}}, "geometry": {"type": "LineString", "coordinates": [[5.3314989, 60.3926387], [5.3319129, 60.3923882], [5.3319952, 60.3923364], [5.3321583, 60.3922372], [5.3323899, 60.3920964], [5.3327597, 60.3918809], [5.333269, 60.391608]]}}, {"type": "Feature", "properties": {"osm_type": "way", "osm_id": 4322377, "name": null, "kategori": "beboer", "capacity": null, "access": "private", "fee": null, "maxstay": null, "parking": {"parking": "surface"}, "alle_tags": {"access": "private", "amenity": "parking", "layer": "1", "note": "For university employees and students only", "parking": "surface"}}, "geometry": {"type": "Polygon", "coordinates": [[[5.3302201, 60.3840836], [5.3305031, 60.383947], [5.3305991, 60.3839956], [5.3307842, 60.3839062], [5.3310491, 60.3840403], [5.330581, 60.3842662], [5.3302201, 60.3840836]]]}}, {"type": "Feature", "properties": {"osm_type": "way", "osm_id": 4344670, "name": "Harald Hårfagres gate", "kategori": "annet", "capacity": null, "access": null, "fee": null, "maxstay": null, "parking": {"parking:lane:left": "no", "parking:lane:right": "parallel", "parking:lane:right:parallel": "street_side"}, "alle_tags": {"cycleway:left": "lane", "highway": "unclassified", "lanes": "1", "lit": "yes", "name": "Harald Hårfagres gate", "name:etymology:wikidata": "Q96357191", "oneway": "yes", "oneway:bicycle": "no", "parking:lane:left": "no", "parking:lane:right": "parallel", "parking:lane:right:parallel": "street_side", "sidewalk": "both", "surface": "asphalt"}}, "geometry": {"type": "LineString", "coordinates": [[5.3247601, 60.3868297], [5.3246737, 60.3868843], [5.3246416, 60.3869137], [5.3243784, 60.3871547], [5.3240199, 60.387486], [5.3239748, 60.3875277]]}}, {"type": "Feature", "properties": {"osm_type": "way", "osm_id": 4703279, "name": "Strømgaten", "kategori": "annet", "capacity": null, "access": null, "fee": null, "maxstay": null, "parking": {"parking:lane:left": "perpendicular", "parking:lane:left:perpendicular": "on_street", "parking:lane:right": "no"}, "alle_tags": {"highway": "unclassified", "lane_markings": "no", "lit": "yes", "maxspeed:type": "NO:urban", "name": "Strømgaten", "name:etymology:wikidata": "Q19379429", "parking:lane:left": "perpendicular", "parking:lane:left:perpendicular": "on_street", "parking:lane:right": "no", "sidewalk": "both", "surface": "asphalt"}}, "geometry": {"type": "LineString", "coordinates": [[5.3258369, 60.3861896], [5.3260401, 60.3863406], [5.3261173, 60.3864209]]}}, {"type": "Feature", "properties": {"osm_type": "way", "osm_id": 4729706, "name": "Løytnant Bjelkes gate", "kategori": "annet", "capacity": null, "access": null, "fee": null, "maxstay": null, "parking": {"parking:both": "lane", "parking:both:orientation": "parallel"}, "alle_tags": {"highway": "residential", "lane_markings": "no", "name": "Løytnant Bjelkes gate", "oneway": "yes", "parking:both": "lane", "parking:both:orientation": "parallel", "surface": "asphalt"}}, "geometry": {"type": "LineString", "coordinates": [[5.32867, 60.4029575], [5.327928, 60.4028959]]}}, {"type": "Feature", "properties": {"osm_type": "way", "osm_id": 4788086, "name": "Holbergsallmenningen", "kategori": "beboer", "capacity": null, "access": "private", "fee": null, "maxstay": null, "parking": {"parking": "street_side"}, "alle_tags": {"access": "private", "amenity": "parking", "name": "Holbergsallmenningen", "note": "Soneparkering", "parking": "street_side"}}, "geometry": {"type": "Polygon", "coordinates": [[[5.3151844, 60.3953602], [5.3149479, 60.3952079], [5.3147101, 60.3953077], [5.3149712, 60.395445], [5.3150921, 60.3953969], [5.3151844, 60.3953602]]]}}, {"type": "Feature", "properties": {"osm_type": "way", "osm_id": 4933904, "name": "Vestre Holbergsallmenningen", "kategori": "forbud", "capacity": null, "access": null, "fee": null, "maxstay": null, "parking": {"parking:lane:left": "no_stopping"}, "alle_tags": {"highway": "service", "name": "Vestre Holbergsallmenningen", "oneway": "yes", "parking:lane:left": "no_stopping", "sidewalk": "both", "surface": "asphalt", "zone:traffic": "NO:urban"}}, "geometry": {"type": "LineString", "coordinates": [[5.3127627, 60.3939189], [5.3132013, 60.3942259], [5.3136203, 60.3944751]]}}, {"type": "Feature", "properties": {"osm_type": "way", "osm_id": 11401399, "name": null, "kategori": "beboer", "capacity": null, "access": "private", "fee": null, "maxstay": null, "parking": {"parking": "surface"}, "alle_tags": {"access": "private", "amenity": "parking", "operator": "Bergen Kommune", "parking": "surface"}}, "geometry": {"type": "Polygon", "coordinates": [[[5.3286318, 60.3925307], [5.3284035, 60.3923242], [5.3284968, 60.392299], [5.3290229, 60.3921346], [5.3292854, 60.3920525], [5.3293872, 60.3921467], [5.3295163, 60.3922603], [5.3288634, 60.3924682], [5.3287456, 60.3925], [5.3286318, 60.3925307]]]}}, {"type": "Feature", "properties": {"osm_type": "way", "osm_id": 11407001, "name": "Gjeble Pederssøns gate", "kategori": "annet", "capacity": null, "access": null, "fee": null, "maxstay": null, "parking": {"parking:right": "lane", "parking:right:orientation": "parallel"}, "alle_tags": {"highway": "residential", "lane_markings": "no", "name": "Gjeble Pederssøns gate", "parking:right": "lane", "parking:right:orientation": "parallel", "surface": "asphalt"}}, "geometry": {"type": "LineString", "coordinates": [[5.3283342, 60.4016186], [5.328285, 60.4016846], [5.3282569, 60.4017645], [5.3281179, 60.4022314], [5.327928, 60.4028959], [5.3279021, 60.4029573], [5.3278786, 60.4030107], [5.3278526, 60.4030559], [5.3278134, 60.4031063], [5.3277557, 60.4031591], [5.3276768, 60.4032266], [5.3276291, 60.4032584], [5.327593, 60.4032874], [5.3272109, 60.4036697]]}}, {"type": "Feature", "properties": {"osm_type": "way", "osm_id": 124365117, "name": null, "kategori": "beboer", "capacity": null, "access": "private", "fee": null, "maxstay": null, "parking": null, "alle_tags": {"access": "private", "amenity": "parking"}}, "geometry": {"type": "Polygon", "coordinates": [[[5.3127627, 60.3939189], [5.3123161, 60.3936686], [5.3123365, 60.3936608], [5.3125762, 60.3935506], [5.3126301, 60.3935248], [5.312666, 60.3935405], [5.3130785, 60.3938178], [5.3127627, 60.3939189]]]}}, {"type": "Feature", "properties": {"osm_type": "way", "osm_id": 178581712, "name": null, "kategori": "beboer", "capacity": "30", "access": "private", "fee": null, "maxstay": null, "parking": {"parking": "surface"}, "alle_tags": {"access": "private", "amenity": "parking", "capacity": "30", "parking": "surface"}}, "geometry": {"type": "Polygon", "coordinates": [[[5.3115759, 60.3811247], [5.3115771, 60.381074], [5.3126115, 60.3810809], [5.3126026, 60.3811537], [5.3118562, 60.3811505], [5.3115759, 60.3811247]]]}}, {"type": "Feature", "properties": {"osm_type": "way", "osm_id": 194487343, "name": null, "kategori": "beboer", "capacity": null, "access": "private", "fee": null, "maxstay": null, "parking": {"parking": "surface"}, "alle_tags": {"access": "private", "amenity": "parking", "parking": "surface"}}, "geometry": {"type": "Polygon", "coordinates": [[[5.3108828, 60.3992732], [5.3113714, 60.3995059], [5.3114763, 60.3994608], [5.3109657, 60.3992309], [5.3108828, 60.3992732]]]}}, {"type": "Feature", "properties": {"osm_type": "way", "osm_id": 194609925, "name": null, "kategori": "beboer", "capacity": null, "access": "private", "fee": null, "maxstay": null, "parking": {"parking": "surface"}, "alle_tags": {"access": "private", "amenity": "parking", "parking": "surface"}}, "geometry": {"type": "Polygon", "coordinates": [[[5.3173686, 60.3885817], [5.3170751, 60.3883586], [5.3171649, 60.3881832], [5.3175724, 60.3885168], [5.3173686, 60.3885817]]]}}, {"type": "Feature", "properties": {"osm_type": "way", "osm_id": 194609926, "name": null, "kategori": "beboer", "capacity": null, "access": "private", "fee": null, "maxstay": null, "parking": {"parking": "surface"}, "alle_tags": {"access": "private", "amenity": "parking", "parking": "surface"}}, "geometry": {"type": "Polygon", "coordinates": [[[5.3171667, 60.3877781], [5.3169168, 60.3878513], [5.3166401, 60.38847], [5.3167032, 60.3885204], [5.3169507, 60.3884304], [5.3172444, 60.3878477], [5.3171667, 60.3877781]]]}}, {"type": "Feature", "properties": {"osm_type": "way", "osm_id": 202149838, "name": "Vetrlidsallmenningen", "kategori": "forbud", "capacity": null, "access": null, "fee": null, "maxstay": null, "parking": {"parking:lane:right": "no_stopping"}, "alle_tags": {"abutters": "retail", "highway": "secondary", "lanes": "3", "lanes:backward": "2", "lanes:forward": "1", "lit": "yes", "maxspeed": "30", "name": "Vetrlidsallmenningen", "old_ref": "264", "parking:lane:right": "no_stopping", "ref": "5342", "sidewalk": "both", "surface": "sett", "zone:traffic": "NO:urban"}}, "geometry": {"type": "LineString", "coordinates": [[5.3268379, 60.395686], [5.3273599, 60.3959274], [5.3282592, 60.3962883], [5.3282837, 60.3963213]]}}, {"type": "Feature", "properties": {"osm_type": "way", "osm_id": 264539158, "name": null, "kategori": "beboer", "capacity": null, "access": "private", "fee": null, "maxstay": null, "parking": {"parking": "surface"}, "alle_tags": {"access": "private", "amenity": "parking", "parking": "surface"}}, "geometry": {"type": "Polygon", "coordinates": [[[5.3114179, 60.3805792], [5.3114171, 60.3805438], [5.3119271, 60.3805411], [5.3119278, 60.3805765], [5.3116801, 60.3805778], [5.3114179, 60.3805792]]]}}, {"type": "Feature", "properties": {"osm_type": "way", "osm_id": 264539159, "name": null, "kategori": "beboer", "capacity": "15", "access": "private", "fee": null, "maxstay": null, "parking": {"parking": "surface"}, "alle_tags": {"access": "private", "amenity": "parking", "capacity": "15", "parking": "surface"}}, "geometry": {"type": "Polygon", "coordinates": [[[5.3123486, 60.3815475], [5.3124664, 60.3815741], [5.3126136, 60.3815237], [5.3127571, 60.3814677], [5.3127497, 60.3814014], [5.3123526, 60.3813988], [5.3123486, 60.3815475]]]}}, {"type": "Feature", "properties": {"osm_type": "way", "osm_id": 265382515, "name": null, "kategori": "beboer", "capacity": null, "access": "private", "fee": null, "maxstay": null, "parking": null, "alle_tags": {"access": "private", "amenity": "parking", "note": "Soneparkering"}}, "geometry": {"type": "Polygon", "coordinates": [[[5.3161731, 60.3950513], [5.3153215, 60.395297], [5.3152129, 60.3952169], [5.3159438, 60.3950002], [5.3161114, 60.3949479], [5.316281, 60.3950079], [5.3163237, 60.3950384], [5.3162268, 60.3950738], [5.3161731, 60.3950513]]]}}, {"type": "Feature", "properties": {"osm_type": "way", "osm_id": 344279277, "name": "Tartargaten", "kategori": "annet", "capacity": null, "access": null, "fee": null, "maxstay": null, "parking": {"parking:left": "lane", "parking:left:orientation": "parallel", "parking:right": "no"}, "alle_tags": {"highway": "residential", "lane_markings": "no", "name": "Tartargaten", "oneway": "yes", "parking:left": "lane", "parking:left:orientation": "parallel", "parking:right": "no", "surface": "asphalt"}}, "geometry": {"type": "LineString", "coordinates": [[5.3288924, 60.4022881], [5.32867, 60.4029575]]}}, {"type": "Feature", "properties": {"osm_type": "way", "osm_id": 344279279, "name": "Tartargaten", "kategori": "annet", "capacity": null, "access": null, "fee": null, "maxstay": null, "parking": {"parking:left": "no", "parking:right": "lane", "parking:right:orientation": "parallel"}, "alle_tags": {"highway": "residential", "lane_markings": "no", "name": "Tartargaten", "oneway": "yes", "parking:left": "no", "parking:right": "lane", "parking:right:orientation": "parallel", "surface": "asphalt"}}, "geometry": {"type": "LineString", "coordinates": [[5.3283571, 60.4036351], [5.3284359, 60.4035977], [5.3284917, 60.4035582], [5.3285163, 60.4035049], [5.32867, 60.4029575]]}}, {"type": "Feature", "properties": {"osm_type": "way", "osm_id": 359367628, "name": null, "kategori": "beboer", "capacity": null, "access": "private", "fee": null, "maxstay": null, "parking": {"parking": "surface"}, "alle_tags": {"access": "private", "amenity": "parking", "parking": "surface"}}, "geometry": {"type": "Polygon", "coordinates": [[[5.3213797, 60.4002417], [5.3213664, 60.4000893], [5.3211249, 60.3997568], [5.320379, 60.399882], [5.3202076, 60.399668], [5.3199418, 60.3997058], [5.3201021, 60.3999219], [5.3204715, 60.4003914], [5.3213797, 60.4002417]]]}}, {"type": "Feature", "properties": {"osm_type": "way", "osm_id": 364189553, "name": "Saluttplassen", "kategori": "beboer", "capacity": "25", "access": "private", "fee": null, "maxstay": null, "parking": {"parking": "surface"}, "alle_tags": {"access": "private", "amenity": "parking", "capacity": "25", "name": "Saluttplassen", "name:de": "Salutierplatz", "name:en": "salute battery ground", "parking": "surface"}}, "geometry": {"type": "Polygon", "coordinates": [[[5.319904, 60.4014479], [5.3204145, 60.4012311], [5.3202357, 60.4011291], [5.3201855, 60.4011363], [5.3197066, 60.4013435], [5.319904, 60.4014479]]]}}, {"type": "Feature", "properties": {"osm_type": "way", "osm_id": 390053737, "name": null, "kategori": "avgift", "capacity": "23", "access": "yes", "fee": "Mo-Fr 08:00-23:00; Sa 08:00-17:00", "maxstay": "120", "parking": {"parking": "street_side"}, "alle_tags": {"access": "yes", "amenity": "parking", "capacity": "23", "fee": "Mo-Fr 08:00-23:00; Sa 08:00-17:00", "maxstay": "120", "operator": "Bergen Kommune", "parking": "street_side"}}, "geometry": {"type": "Polygon", "coordinates": [[[5.3283193, 60.3853483], [5.3281743, 60.3852721], [5.3277765, 60.3854592], [5.3273811, 60.3856452], [5.3275461, 60.3857302], [5.3280655, 60.3854717], [5.3283193, 60.3853483]]]}}, {"type": "Feature", "properties": {"osm_type": "way", "osm_id": 394822323, "name": null, "kategori": "beboer", "capacity": null, "access": "private", "fee": null, "maxstay": null, "parking": null, "alle_tags": {"access": "private", "amenity": "parking", "operator": "Bergen Kommune"}}, "geometry": {"type": "Polygon", "coordinates": [[[5.3286318, 60.3925307], [5.3287882, 60.3926721], [5.3288283, 60.3926613], [5.3289383, 60.3926316], [5.3290198, 60.3926096], [5.3288634, 60.3924682], [5.3287456, 60.3925], [5.3286318, 60.3925307]]]}}, {"type": "Feature", "properties": {"osm_type": "way", "osm_id": 395079737, "name": null, "kategori": "avgift", "capacity": null, "access": "yes", "fee": "yes", "maxstay": null, "parking": {"parking": "street_side"}, "alle_tags": {"access": "yes", "amenity": "parking", "fee": "yes", "operator": "Bergen Og Omland Havnevesen", "parking": "street_side"}}, "geometry": {"type": "Polygon", "coordinates": [[[5.3165902, 60.3964396], [5.3167896, 60.3964695], [5.3168876, 60.3964788], [5.3169388, 60.3964794], [5.3169778, 60.3964783], [5.3170234, 60.396475], [5.3170656, 60.3964694], [5.3171106, 60.3964616], [5.3171599, 60.39645], [5.3172411, 60.3964269], [5.3172604, 60.3964417], [5.317397, 60.3963981], [5.3173777, 60.3963833], [5.3174727, 60.396349], [5.3175396, 60.3963981], [5.3173245, 60.3964624], [5.3171196, 60.3965128], [5.3170549, 60.3965227], [5.3169838, 60.3965257], [5.3167548, 60.3965182], [5.3167216, 60.3965124], [5.3166586, 60.3965023], [5.3165627, 60.3964889], [5.3165902, 60.3964396]]]}}, {"type": "Feature", "properties": {"osm_type": "way", "osm_id": 395594147, "name": null, "kategori": "beboer", "capacity": null, "access": "private", "fee": null, "maxstay": null, "parking": {"parking": "surface"}, "alle_tags": {"access": "private", "amenity": "parking", "operator": "Bergen Og Omland Havnevesen", "parking": "surface"}}, "geometry": {"type": "Polygon", "coordinates": [[[5.3165902, 60.3964396], [5.3165627, 60.3964889], [5.3165228, 60.3964848], [5.3164776, 60.3964838], [5.3164283, 60.3964868], [5.3163508, 60.3965056], [5.3162382, 60.3965446], [5.3160886, 60.3965936], [5.3159301, 60.3966472], [5.3157353, 60.3967138], [5.3156773, 60.3966726], [5.3161074, 60.3965212], [5.3162187, 60.3964831], [5.3163254, 60.3964477], [5.3164058, 60.3964336], [5.3164682, 60.3964304], [5.3165339, 60.3964329], [5.3165902, 60.3964396]]]}}, {"type": "Feature", "properties": {"osm_type": "way", "osm_id": 395602327, "name": null, "kategori": "beboer", "capacity": null, "access": "private", "fee": null, "maxstay": null, "parking": {"parking": "surface"}, "alle_tags": {"access": "private", "amenity": "parking", "parking": "surface"}}, "geometry": {"type": "Polygon", "coordinates": [[[5.3147129, 60.3972435], [5.3147081, 60.3972236], [5.3146951, 60.3972058], [5.3144895, 60.397074], [5.3141752, 60.3971795], [5.3140228, 60.3972301], [5.3134272, 60.3974323], [5.3134838, 60.3974704], [5.3135447, 60.3974503], [5.3137458, 60.397384], [5.3139389, 60.3977019], [5.3141216, 60.3976757], [5.3139146, 60.3973283], [5.3140673, 60.3972731], [5.3142218, 60.3972203], [5.3144773, 60.3971375], [5.3146078, 60.3972269], [5.3146096, 60.3972391], [5.3146088, 60.3972434], [5.3145968, 60.3972598], [5.3145715, 60.3972764], [5.3145276, 60.3972998], [5.3146094, 60.3973296], [5.3146615, 60.3973043], [5.3146897, 60.3972862], [5.3147103, 60.3972583], [5.3147129, 60.3972435]]]}}, {"type": "Feature", "properties": {"osm_type": "way", "osm_id": 395640788, "name": null, "kategori": "annet", "capacity": null, "access": null, "fee": null, "maxstay": null, "parking": {"parking": "street_side"}, "alle_tags": {"amenity": "parking", "parking": "street_side"}}, "geometry": {"type": "Polygon", "coordinates": [[[5.3100155, 60.3990645], [5.310066, 60.3990931], [5.3090598, 60.3994878], [5.3088283, 60.3995808], [5.3086383, 60.3994654], [5.3098643, 60.3989727], [5.3100155, 60.3990645]]]}}, {"type": "Feature", "properties": {"osm_type": "way", "osm_id": 396041984, "name": null, "kategori": "beboer", "capacity": null, "access": "private", "fee": null, "maxstay": null, "parking": {"parking": "surface"}, "alle_tags": {"access": "private", "amenity": "parking", "barrier": "fence", "parking": "surface"}}, "geometry": {"type": "Polygon", "coordinates": [[[5.3212245, 60.3912826], [5.3210988, 60.3912245], [5.3210016, 60.3911809], [5.3209109, 60.3912269], [5.3207919, 60.3912737], [5.3208159, 60.3912985], [5.3208495, 60.3913331], [5.3209735, 60.3913931], [5.3212245, 60.3912826]]]}}, {"type": "Feature", "properties": {"osm_type": "way", "osm_id": 410330633, "name": null, "kategori": "annet", "capacity": null, "access": null, "fee": null, "maxstay": null, "parking": {"parking": "lane"}, "alle_tags": {"amenity": "parking", "parking": "lane"}}, "geometry": {"type": "Polygon", "coordinates": [[[5.3206608, 60.3986604], [5.3199934, 60.3988393], [5.3199404, 60.398791], [5.3206077, 60.3986121], [5.3206608, 60.3986604]]]}}, {"type": "Feature", "properties": {"osm_type": "way", "osm_id": 417401867, "name": null, "kategori": "beboer", "capacity": null, "access": "private", "fee": null, "maxstay": null, "parking": {"parking": "surface"}, "alle_tags": {"access": "private", "amenity": "parking", "hiking": "yes", "parking": "surface", "surface": "compacted"}}, "geometry": {"type": "Polygon", "coordinates": [[[5.3365604, 60.3958296], [5.3363127, 60.3956956], [5.3368623, 60.3954476], [5.33711, 60.3955816], [5.3365604, 60.3958296]]]}}, {"type": "Feature", "properties": {"osm_type": "way", "osm_id": 417806660, "name": null, "kategori": "avgift", "capacity": "9", "access": "yes", "fee": "Mo-Fr 08:00-23:00; Sa 08:00-17:00", "maxstay": "120 minutes", "parking": {"parking": "street_side"}, "alle_tags": {"access": "yes", "amenity": "parking", "capacity": "9", "fee": "Mo-Fr 08:00-23:00; Sa 08:00-17:00", "maxstay": "120 minutes", "operator": "Bergen Kommune", "parking": "street_side", "surface": "asphalt"}}, "geometry": {"type": "Polygon", "coordinates": [[[5.3184574, 60.3884336], [5.3184092, 60.3883925], [5.3187477, 60.388304], [5.318796, 60.3883451], [5.3184574, 60.3884336]]]}}, {"type": "Feature", "properties": {"osm_type": "way", "osm_id": 417849126, "name": null, "kategori": "beboer", "capacity": null, "access": "private", "fee": null, "maxstay": null, "parking": {"parking": "street_side"}, "alle_tags": {"access": "private", "amenity": "parking", "parking": "street_side"}}, "geometry": {"type": "Polygon", "coordinates": [[[5.3152776, 60.38988], [5.3151974, 60.3899021], [5.3150101, 60.3897363], [5.3150903, 60.3897142], [5.3152776, 60.38988]]]}}, {"type": "Feature", "properties": {"osm_type": "way", "osm_id": 417851396, "name": null, "kategori": "beboer", "capacity": null, "access": "private", "fee": null, "maxstay": null, "parking": null, "alle_tags": {"access": "private", "amenity": "parking"}}, "geometry": {"type": "Polygon", "coordinates": [[[5.3174121, 60.3951935], [5.3172786, 60.3951244], [5.3174417, 60.3950475], [5.3172353, 60.3949407], [5.3173615, 60.3948812], [5.317602, 60.3950056], [5.3176591, 60.3949786], [5.3177585, 60.3950301], [5.3174121, 60.3951935]]]}}, {"type": "Feature", "properties": {"osm_type": "way", "osm_id": 417856776, "name": null, "kategori": "beboer", "capacity": null, "access": "private", "fee": null, "maxstay": null, "parking": {"parking": "surface"}, "alle_tags": {"access": "private", "amenity": "parking", "parking": "surface"}}, "geometry": {"type": "Polygon", "coordinates": [[[5.3237378, 60.3860877], [5.3233547, 60.3862681], [5.3234537, 60.3863194], [5.3238367, 60.386139], [5.3237378, 60.3860877]]]}}, {"type": "Feature", "properties": {"osm_type": "way", "osm_id": 417856777, "name": null, "kategori": "beboer", "capacity": null, "access": "private", "fee": null, "maxstay": null, "parking": {"parking": "surface"}, "alle_tags": {"access": "private", "amenity": "parking", "parking": "surface"}}, "geometry": {"type": "Polygon", "coordinates": [[[5.3233926, 60.3862025], [5.3232161, 60.3861087], [5.3234747, 60.3859898], [5.3233626, 60.3859303], [5.3235591, 60.3858399], [5.3238477, 60.3859931], [5.3233926, 60.3862025]]]}}, {"type": "Feature", "properties": {"osm_type": "way", "osm_id": 417856778, "name": "Harald Hårfagres gate", "kategori": "annet", "capacity": null, "access": null, "fee": null, "maxstay": null, "parking": {"parking:lane:left": "no"}, "alle_tags": {"highway": "unclassified", "lane_markings": "no", "lit": "yes", "name": "Harald Hårfagres gate", "name:etymology:wikidata": "Q96357191", "oneway": "yes", "parking:lane:left": "no", "sidewalk": "both", "surface": "asphalt"}}, "geometry": {"type": "LineString", "coordinates": [[5.3261173, 60.3864209], [5.3259699, 60.3864608], [5.3257828, 60.3865118], [5.3247601, 60.3868297]]}}, {"type": "Feature", "properties": {"osm_type": "way", "osm_id": 417885999, "name": null, "kategori": "avgift", "capacity": null, "access": "customers", "fee": "yes", "maxstay": "0.5", "parking": {"parking": "street_side"}, "alle_tags": {"access": "customers", "amenity": "parking", "fee": "yes", "maxstay": "0.5", "parking": "street_side"}}, "geometry": {"type": "Polygon", "coordinates": [[[5.311183, 60.3995538], [5.3112443, 60.3996029], [5.3108288, 60.3997117], [5.3108185, 60.3996929], [5.311183, 60.3995538]]]}}, {"type": "Feature", "properties": {"osm_type": "way", "osm_id": 418546493, "name": null, "kategori": "avgift", "capacity": null, "access": "yes", "fee": "Mo-Fr 08:00-23:00; Sa 08:00-17:00", "maxstay": "120", "parking": {"parking": "lane"}, "alle_tags": {"access": "yes", "amenity": "parking", "capacity:disabled": "2", "fee": "Mo-Fr 08:00-23:00; Sa 08:00-17:00", "maxstay": "120", "parking": "lane"}}, "geometry": {"type": "Polygon", "coordinates": [[[5.3233827, 60.3869739], [5.3233586, 60.3869487], [5.3237824, 60.3866227], [5.323828, 60.3866399], [5.3233827, 60.3869739]]]}}, {"type": "Feature", "properties": {"osm_type": "way", "osm_id": 436763185, "name": null, "kategori": "beboer", "capacity": null, "access": "private", "fee": null, "maxstay": null, "parking": {"parking": "surface"}, "alle_tags": {"access": "private", "amenity": "parking", "parking": "surface"}}, "geometry": {"type": "Polygon", "coordinates": [[[5.3210892, 60.3936027], [5.321216, 60.3937035], [5.3212588, 60.3936906], [5.3211324, 60.3935906], [5.3210892, 60.3936027]]]}}, {"type": "Feature", "properties": {"osm_type": "way", "osm_id": 464543448, "name": null, "kategori": "beboer", "capacity": "1", "access": "private", "fee": null, "maxstay": null, "parking": {"parking": "surface"}, "alle_tags": {"access": "private", "amenity": "parking", "capacity": "1", "hgv": "yes", "motorcar": "no", "motorcycle": "no", "parking": "surface"}}, "geometry": {"type": "Polygon", "coordinates": [[[5.3266883, 60.3925502], [5.3268055, 60.392668], [5.3267607, 60.3926789], [5.3266435, 60.392561], [5.3266883, 60.3925502]]]}}, {"type": "Feature", "properties": {"osm_type": "way", "osm_id": 464543449, "name": null, "kategori": "beboer", "capacity": "2", "access": "private", "fee": null, "maxstay": null, "parking": {"parking": "surface"}, "alle_tags": {"access": "private", "amenity": "parking", "capacity": "2", "capacity:disabled": "2", "parking": "surface"}}, "geometry": {"type": "Polygon", "coordinates": [[[5.3264616, 60.3923781], [5.3265063, 60.3923672], [5.3266883, 60.3925502], [5.3266435, 60.392561], [5.3264616, 60.3923781]]]}}, {"type": "Feature", "properties": {"osm_type": "way", "osm_id": 474232737, "name": null, "kategori": "annet", "capacity": "1", "access": null, "fee": null, "maxstay": null, "parking": {"parking": "lane"}, "alle_tags": {"amenity": "parking", "capacity": "1", "hgv": "yes", "motorcar": "no", "motorcycle": "no", "note": "Lastebil mellom 08-17 og ingen parkering ellers", "parking": "lane"}}, "geometry": {"type": "Polygon", "coordinates": [[[5.3169368, 60.3920669], [5.3169137, 60.3920453], [5.3164865, 60.392158], [5.3165906, 60.3921607], [5.3169368, 60.3920669]]]}}, {"type": "Feature", "properties": {"osm_type": "way", "osm_id": 474232738, "name": null, "kategori": "beboer", "capacity": "3", "access": "private", "fee": null, "maxstay": null, "parking": {"parking": "surface"}, "alle_tags": {"access": "private", "amenity": "parking", "capacity": "3", "capacity:disabled": "3", "parking": "surface"}}, "geometry": {"type": "Polygon", "coordinates": [[[5.3172801, 60.3919518], [5.3169137, 60.3920453], [5.3169368, 60.3920669], [5.3172308, 60.391992], [5.3172801, 60.3919518]]]}}, {"type": "Feature", "properties": {"osm_type": "way", "osm_id": 477112655, "name": null, "kategori": "beboer", "capacity": "2", "access": "private", "fee": null, "maxstay": null, "parking": {"parking": "surface"}, "alle_tags": {"access": "private", "amenity": "parking", "capacity": "2", "capacity:disabled": "2", "parking": "surface"}}, "geometry": {"type": "Polygon", "coordinates": [[[5.3186351, 60.3884445], [5.3186612, 60.388467], [5.3188878, 60.3884027], [5.3188618, 60.3883802], [5.3186351, 60.3884445]]]}}, {"type": "Feature", "properties": {"osm_type": "way", "osm_id": 484592941, "name": null, "kategori": "annet", "capacity": null, "access": null, "fee": null, "maxstay": null, "parking": {"parking": "street_side"}, "alle_tags": {"amenity": "parking", "parking": "street_side"}}, "geometry": {"type": "Polygon", "coordinates": [[[5.321398, 60.3908053], [5.3213696, 60.3907798], [5.3207027, 60.3909604], [5.3207311, 60.3909859], [5.321398, 60.3908053]]]}}, {"type": "Feature", "properties": {"osm_type": "way", "osm_id": 488104902, "name": null, "kategori": "beboer", "capacity": "7", "access": "private", "fee": null, "maxstay": null, "parking": null, "alle_tags": {"access": "private", "amenity": "parking", "capacity": "7"}}, "geometry": {"type": "Polygon", "coordinates": [[[5.3220225, 60.4007732], [5.3213632, 60.4009249], [5.321384, 60.400947], [5.3220434, 60.4007953], [5.3220225, 60.4007732]]]}}, {"type": "Feature", "properties": {"osm_type": "way", "osm_id": 489763678, "name": null, "kategori": "annet", "capacity": null, "access": null, "fee": null, "maxstay": null, "parking": {"parking": "street_side"}, "alle_tags": {"amenity": "parking", "parking": "street_side"}}, "geometry": {"type": "Polygon", "coordinates": [[[5.3012936, 60.3857387], [5.3014022, 60.3857367], [5.3013834, 60.3854829], [5.3013147, 60.3854811], [5.3012828, 60.3854803], [5.3012936, 60.3857387]]]}}, {"type": "Feature", "properties": {"osm_type": "way", "osm_id": 496493496, "name": null, "kategori": "beboer", "capacity": null, "access": "private", "fee": null, "maxstay": null, "parking": null, "alle_tags": {"access": "private", "amenity": "parking"}}, "geometry": {"type": "Polygon", "coordinates": [[[5.3118333, 60.398051], [5.3116798, 60.3981385], [5.3119809, 60.3982703], [5.3120472, 60.3981974], [5.3121016, 60.3981667], [5.3118333, 60.398051]]]}}, {"type": "Feature", "properties": {"osm_type": "way", "osm_id": 501427408, "name": null, "kategori": "beboer", "capacity": null, "access": "private", "fee": null, "maxstay": null, "parking": {"parking": "surface"}, "alle_tags": {"access": "private", "amenity": "parking", "parking": "surface"}}, "geometry": {"type": "Polygon", "coordinates": [[[5.314883, 60.3923142], [5.3146912, 60.3920426], [5.3145619, 60.3920649], [5.3147536, 60.3923365], [5.314883, 60.3923142]]]}}, {"type": "Feature", "properties": {"osm_type": "way", "osm_id": 502723158, "name": null, "kategori": "beboer", "capacity": null, "access": "private", "fee": null, "maxstay": null, "parking": {"parking": "surface"}, "alle_tags": {"access": "private", "amenity": "parking", "parking": "surface"}}, "geometry": {"type": "Polygon", "coordinates": [[[5.34294, 60.387887], [5.3428271, 60.3878042], [5.3429011, 60.3877779], [5.3430113, 60.3877421], [5.343124, 60.3878245], [5.34294, 60.387887]]]}}, {"type": "Feature", "properties": {"osm_type": "way", "osm_id": 502723162, "name": null, "kategori": "beboer", "capacity": null, "access": "private", "fee": null, "maxstay": null, "parking": {"parking": "surface"}, "alle_tags": {"access": "private", "amenity": "parking", "note": "Gjesteparking for Kalfarhagen", "parking": "surface"}}, "geometry": {"type": "Polygon", "coordinates": [[[5.3427847, 60.3879071], [5.342731, 60.3878679], [5.342432, 60.3879686], [5.3424856, 60.3880078], [5.3427847, 60.3879071]]]}}, {"type": "Feature", "properties": {"osm_type": "way", "osm_id": 502725991, "name": null, "kategori": "beboer", "capacity": null, "access": "private", "fee": null, "maxstay": null, "parking": {"parking": "surface"}, "alle_tags": {"access": "private", "amenity": "parking", "parking": "surface"}}, "geometry": {"type": "Polygon", "coordinates": [[[5.3178018, 60.3852003], [5.3181598, 60.3850699], [5.3180973, 60.385028], [5.317955, 60.3850799], [5.317671, 60.3848895], [5.3175648, 60.3849282], [5.3177341, 60.3850391], [5.3176194, 60.3850779], [5.3178018, 60.3852003]]]}}, {"type": "Feature", "properties": {"osm_type": "way", "osm_id": 504034379, "name": null, "kategori": "beboer", "capacity": null, "access": "private", "fee": null, "maxstay": null, "parking": {"parking": "surface"}, "alle_tags": {"access": "private", "amenity": "parking", "operator": "Fløibanen AS", "parking": "surface"}}, "geometry": {"type": "Polygon", "coordinates": [[[5.3342298, 60.3954746], [5.3342861, 60.3954309], [5.334039, 60.3953532], [5.3339827, 60.3953969], [5.3342298, 60.3954746]]]}}, {"type": "Feature", "properties": {"osm_type": "way", "osm_id": 504348172, "name": null, "kategori": "beboer", "capacity": null, "access": "private", "fee": null, "maxstay": null, "parking": {"parking": "surface"}, "alle_tags": {"access": "private", "amenity": "parking", "parking": "surface"}}, "geometry": {"type": "Polygon", "coordinates": [[[5.3176204, 60.3864556], [5.3175672, 60.386417], [5.3173204, 60.3864939], [5.3173813, 60.386538], [5.3176204, 60.3864556]]]}}, {"type": "Feature", "properties": {"osm_type": "way", "osm_id": 504348176, "name": null, "kategori": "beboer", "capacity": null, "access": "private", "fee": null, "maxstay": null, "parking": {"parking": "surface"}, "alle_tags": {"access": "private", "amenity": "parking", "parking": "surface"}}, "geometry": {"type": "Polygon", "coordinates": [[[5.3169187, 60.3866716], [5.3169738, 60.3867053], [5.3171684, 60.3866291], [5.3171154, 60.3865942], [5.3169187, 60.3866716]]]}}, {"type": "Feature", "properties": {"osm_type": "way", "osm_id": 504845860, "name": null, "kategori": "beboer", "capacity": null, "access": "private", "fee": null, "maxstay": null, "parking": {"parking": "surface"}, "alle_tags": {"access": "private", "amenity": "parking", "fixme": "antar \"operator\" bør være Bane nor, er ihvertfall ikke NSB lenger", "operator": "Bane NOR", "parking": "surface"}}, "geometry": {"type": "Polygon", "coordinates": [[[5.3353297, 60.3885775], [5.3355521, 60.3887825], [5.3356419, 60.3888296], [5.3356521, 60.3889072], [5.3356017, 60.3890773], [5.3355652, 60.3890924], [5.3354958, 60.3891216], [5.335537, 60.3890378], [5.3355528, 60.3889539], [5.3355481, 60.3889016], [5.3354951, 60.3888159], [5.3353254, 60.3886665], [5.3352675, 60.3885978], [5.3353297, 60.3885775]]]}}, {"type": "Feature", "properties": {"osm_type": "way", "osm_id": 507976656, "name": null, "kategori": "beboer", "capacity": "10", "access": "private", "fee": null, "maxstay": null, "parking": null, "alle_tags": {"access": "private", "amenity": "parking", "capacity": "10", "surface": "sett"}}, "geometry": {"type": "Polygon", "coordinates": [[[5.3120298, 60.3979498], [5.312415, 60.3977787], [5.3124982, 60.3978244], [5.3124253, 60.3978568], [5.3121924, 60.3979603], [5.312113, 60.3979955], [5.3120298, 60.3979498]]]}}, {"type": "Feature", "properties": {"osm_type": "way", "osm_id": 507976672, "name": null, "kategori": "beboer", "capacity": null, "access": "private", "fee": null, "maxstay": null, "parking": {"parking": "surface"}, "alle_tags": {"access": "private", "amenity": "parking", "parking": "surface", "surface": "asphalt"}}, "geometry": {"type": "Polygon", "coordinates": [[[5.332214, 60.3907855], [5.3322875, 60.3907335], [5.3323834, 60.3906819], [5.3324223, 60.390665], [5.3326858, 60.3908028], [5.3326173, 60.3908307], [5.3325468, 60.390787], [5.3322652, 60.3908979], [5.3323357, 60.3909416], [5.3323472, 60.3910096], [5.3323995, 60.391046], [5.3323648, 60.3910844], [5.3323378, 60.3911143], [5.3323292, 60.3911211], [5.3323137, 60.3911335], [5.3322091, 60.3911109], [5.3320809, 60.3910833], [5.3321155, 60.391032], [5.3320905, 60.3910279], [5.332039, 60.3910194], [5.332214, 60.3907855]]]}}, {"type": "Feature", "properties": {"osm_type": "way", "osm_id": 507976681, "name": null, "kategori": "beboer", "capacity": "6", "access": "private", "fee": null, "maxstay": null, "parking": {"parking": "surface"}, "alle_tags": {"access": "private", "amenity": "parking", "capacity": "6", "note": "Gjelder beboere med P-kort til Sone 1", "parking": "surface", "surface": "sett"}}, "geometry": {"type": "Polygon", "coordinates": [[[5.3323061, 60.3905455], [5.3321617, 60.3904494], [5.3320732, 60.3904818], [5.3322176, 60.390578], [5.3323061, 60.3905455]]]}}, {"type": "Feature", "properties": {"osm_type": "way", "osm_id": 508586257, "name": null, "kategori": "beboer", "capacity": null, "access": "private", "fee": null, "maxstay": null, "parking": null, "alle_tags": {"access": "private", "amenity": "parking"}}, "geometry": {"type": "Polygon", "coordinates": [[[5.3223368, 60.3939741], [5.3222547, 60.3939276], [5.3222296, 60.3938905], [5.3222231, 60.393819], [5.3222716, 60.3937889], [5.3223895, 60.3937185], [5.3224625, 60.3936749], [5.3228192, 60.3937823], [5.3229281, 60.3938083], [5.3223368, 60.3939741]]]}}, {"type": "Feature", "properties": {"osm_type": "way", "osm_id": 508589337, "name": null, "kategori": "annet", "capacity": null, "access": null, "fee": null, "maxstay": null, "parking": {"parking": "street_side"}, "alle_tags": {"amenity": "parking", "parking": "street_side"}}, "geometry": {"type": "Polygon", "coordinates": [[[5.3267115, 60.3830387], [5.3269851, 60.3829406], [5.3264111, 60.3827584], [5.3262663, 60.382769], [5.3267115, 60.3830387]]]}}, {"type": "Feature", "properties": {"osm_type": "way", "osm_id": 516684925, "name": null, "kategori": "beboer", "capacity": null, "access": "private", "fee": null, "maxstay": null, "parking": null, "alle_tags": {"access": "private", "amenity": "parking"}}, "geometry": {"type": "Polygon", "coordinates": [[[5.3283172, 60.3871867], [5.3282377, 60.3872431], [5.3281365, 60.3872726], [5.3280721, 60.3872699], [5.328058, 60.3872636], [5.3280017, 60.3872789], [5.3279918, 60.3872805], [5.3278438, 60.3871782], [5.3279606, 60.3870877], [5.3279766, 60.3870753], [5.3283172, 60.3871867]]]}}, {"type": "Feature", "properties": {"osm_type": "way", "osm_id": 540235555, "name": null, "kategori": "beboer", "capacity": null, "access": "private", "fee": null, "maxstay": null, "parking": null, "alle_tags": {"access": "private", "amenity": "parking"}}, "geometry": {"type": "Polygon", "coordinates": [[[5.321096, 60.394274], [5.321437, 60.394059], [5.321479, 60.394033], [5.321553, 60.394077], [5.3215783, 60.3940941], [5.321696, 60.394176], [5.32168, 60.394182], [5.321703, 60.394197], [5.321629, 60.394224], [5.321184, 60.394372], [5.3210574, 60.3942986], [5.321096, 60.394274]]]}}, {"type": "Feature", "properties": {"osm_type": "way", "osm_id": 544395801, "name": null, "kategori": "beboer", "capacity": null, "access": "private", "fee": null, "maxstay": null, "parking": {"parking": "surface"}, "alle_tags": {"access": "private", "amenity": "parking", "parking": "surface"}}, "geometry": {"type": "Polygon", "coordinates": [[[5.3226241, 60.3949165], [5.3225736, 60.394933], [5.322524, 60.3948959], [5.3225745, 60.3948795], [5.3226241, 60.3949165]]]}}, {"type": "Feature", "properties": {"osm_type": "way", "osm_id": 544395803, "name": null, "kategori": "beboer", "capacity": null, "access": "private", "fee": null, "maxstay": null, "parking": {"parking": "surface"}, "alle_tags": {"access": "private", "amenity": "parking", "parking": "surface"}}, "geometry": {"type": "Polygon", "coordinates": [[[5.3226241, 60.3949165], [5.3225745, 60.3948795], [5.3227665, 60.3948168], [5.322816, 60.3948539], [5.3226241, 60.3949165]]]}}, {"type": "Feature", "properties": {"osm_type": "way", "osm_id": 544629069, "name": null, "kategori": "annet", "capacity": null, "access": "tourist_bus", "fee": null, "maxstay": "2 hours", "parking": {"parking": "lane"}, "alle_tags": {"access": "tourist_bus", "amenity": "parking", "maxstay": "2 hours", "note": "Parking for tourist buses. Maxstay 2 hours", "parking": "lane"}}, "geometry": {"type": "Polygon", "coordinates": [[[5.3336364, 60.3906561], [5.3336792, 60.3907065], [5.3331678, 60.3909179], [5.3331225, 60.3909286], [5.3330618, 60.3908836], [5.3332166, 60.3908217], [5.3332932, 60.3907915], [5.3336364, 60.3906561]]]}}, {"type": "Feature", "properties": {"osm_type": "way", "osm_id": 544629070, "name": null, "kategori": "annet", "capacity": null, "access": "tourist_bus", "fee": null, "maxstay": "24 hours", "parking": {"parking": "street_side"}, "alle_tags": {"access": "tourist_bus", "amenity": "parking", "maxstay": "24 hours", "note": "Parking for tourist buses. Maxstay 24 hours", "parking": "street_side"}}, "geometry": {"type": "Polygon", "coordinates": [[[5.32955, 60.3889687], [5.3295305, 60.3889905], [5.3287983, 60.3891436], [5.3287028, 60.3891377], [5.32955, 60.3889687]]]}}, {"type": "Feature", "properties": {"osm_type": "way", "osm_id": 544629074, "name": null, "kategori": "annet", "capacity": null, "access": "tourist_bus", "fee": null, "maxstay": "24 hours", "parking": {"parking": "street_side"}, "alle_tags": {"access": "tourist_bus", "amenity": "parking", "maxstay": "24 hours", "note": "Parking for tourist buses. Maxstay 24 hours", "parking": "street_side"}}, "geometry": {"type": "Polygon", "coordinates": [[[5.3133045, 60.3974482], [5.3140368, 60.3972044], [5.3139938, 60.3971752], [5.3132616, 60.3974197], [5.3133045, 60.3974482]]]}}, {"type": "Feature", "properties": {"osm_type": "way", "osm_id": 544629077, "name": null, "kategori": "annet", "capacity": null, "access": "tourist_bus", "fee": null, "maxstay": "15 minutes", "parking": {"parking": "lane"}, "alle_tags": {"access": "tourist_bus", "amenity": "parking", "maxstay": "15 minutes", "note": "Parking for tourist buses. Maxstay 15 min", "parking": "lane"}}, "geometry": {"type": "Polygon", "coordinates": [[[5.3280483, 60.3961994], [5.328109, 60.3961659], [5.3275189, 60.3959258], [5.3274636, 60.3959577], [5.3280483, 60.3961994]]]}}, {"type": "Feature", "properties": {"osm_type": "way", "osm_id": 544629079, "name": null, "kategori": "annet", "capacity": null, "access": "no", "fee": null, "maxstay": "15 minutes", "parking": {"parking": "lane"}, "alle_tags": {"access": "no", "amenity": "parking", "maxstay": "15 minutes", "note": "Parking for tourist buses. Maxstay 15 min", "parking": "lane", "tourist_bus": "yes"}}, "geometry": {"type": "Polygon", "coordinates": [[[5.3199038, 60.3994899], [5.3198384, 60.3994903], [5.3198081, 60.3994905], [5.3197949, 60.3990097], [5.3198905, 60.399009], [5.3199038, 60.3994899]]]}}, {"type": "Feature", "properties": {"osm_type": "way", "osm_id": 551042310, "name": null, "kategori": "beboer", "capacity": null, "access": "private", "fee": null, "maxstay": null, "parking": null, "alle_tags": {"access": "private", "amenity": "parking"}}, "geometry": {"type": "Polygon", "coordinates": [[[5.3412344, 60.3888726], [5.3412677, 60.3888964], [5.3416309, 60.388663], [5.3417058, 60.3886003], [5.3416844, 60.3885899], [5.3416129, 60.3885552], [5.3416047, 60.3885581], [5.3410607, 60.3887529], [5.3411028, 60.3887832], [5.3411168, 60.3887931], [5.3412344, 60.3888726]]]}}, {"type": "Feature", "properties": {"osm_type": "way", "osm_id": 551042312, "name": null, "kategori": "beboer", "capacity": null, "access": "private", "fee": null, "maxstay": null, "parking": {"parking": "surface"}, "alle_tags": {"access": "private", "amenity": "parking", "parking": "surface"}}, "geometry": {"type": "Polygon", "coordinates": [[[5.3397984, 60.3885452], [5.3396668, 60.3885027], [5.3395449, 60.3884675], [5.3398608, 60.3881553], [5.339953, 60.3881689], [5.3400741, 60.3881867], [5.3400823, 60.3882478], [5.3399959, 60.3883402], [5.3397984, 60.3885452]]]}}, {"type": "Feature", "properties": {"osm_type": "way", "osm_id": 560768856, "name": null, "kategori": "beboer", "capacity": null, "access": "private", "fee": null, "maxstay": null, "parking": {"parking": "street_side"}, "alle_tags": {"access": "private", "amenity": "parking", "description": "Parkering for Damsgårdssundet borettslag", "parking": "street_side"}}, "geometry": {"type": "Polygon", "coordinates": [[[5.3185916, 60.381904], [5.3182802, 60.3816982], [5.3182479, 60.3817101], [5.3181524, 60.3816455], [5.3183188, 60.381586], [5.3184998, 60.3816942], [5.3185414, 60.3816788], [5.3186508, 60.3817605], [5.318778, 60.3818352], [5.3185916, 60.381904]]]}}, {"type": "Feature", "properties": {"osm_type": "way", "osm_id": 614568994, "name": null, "kategori": "annet", "capacity": null, "access": null, "fee": null, "maxstay": null, "parking": {"parking": "lane"}, "alle_tags": {"amenity": "parking", "note": "Soneparkering", "parking": "lane"}}, "geometry": {"type": "Polygon", "coordinates": [[[5.3181721, 60.395914], [5.3179499, 60.3957555], [5.3178636, 60.395785], [5.3177901, 60.3957326], [5.3177634, 60.3957417], [5.318059, 60.3959527], [5.3181721, 60.395914]]]}}, {"type": "Feature", "properties": {"osm_type": "way", "osm_id": 617861413, "name": null, "kategori": "beboer", "capacity": null, "access": "private", "fee": null, "maxstay": null, "parking": null, "alle_tags": {"access": "private", "amenity": "parking"}}, "geometry": {"type": "Polygon", "coordinates": [[[5.3233675, 60.3934491], [5.3234356, 60.393393], [5.3235599, 60.3933596], [5.3237292, 60.3933156], [5.3236919, 60.3932805], [5.3236352, 60.3932273], [5.3235125, 60.3932592], [5.3234554, 60.393274], [5.3231731, 60.3933475], [5.3231381, 60.3933805], [5.3232833, 60.3934239], [5.3233675, 60.3934491]]]}}, {"type": "Feature", "properties": {"osm_type": "way", "osm_id": 617861418, "name": null, "kategori": "beboer", "capacity": null, "access": "private", "fee": null, "maxstay": null, "parking": null, "alle_tags": {"access": "private", "amenity": "parking"}}, "geometry": {"type": "Polygon", "coordinates": [[[5.320582, 60.3939603], [5.3208245, 60.3937831], [5.3207122, 60.3936932], [5.320693, 60.393668], [5.3205393, 60.3937143], [5.3204762, 60.393734], [5.320351, 60.393772], [5.320582, 60.3939603]]]}}, {"type": "Feature", "properties": {"osm_type": "way", "osm_id": 625773202, "name": null, "kategori": "beboer", "capacity": null, "access": "private", "fee": null, "maxstay": null, "parking": {"parking": "street_side"}, "alle_tags": {"access": "private", "amenity": "parking", "note:access": "Soneparkering", "parking": "street_side"}}, "geometry": {"type": "Polygon", "coordinates": [[[5.3127251, 60.3971623], [5.3126397, 60.3971869], [5.3129235, 60.397412], [5.3130072, 60.3973865], [5.3128237, 60.3972407], [5.3127251, 60.3971623]]]}}, {"type": "Feature", "properties": {"osm_type": "way", "osm_id": 641869412, "name": null, "kategori": "annet", "capacity": null, "access": null, "fee": null, "maxstay": null, "parking": {"parking": "lane"}, "alle_tags": {"amenity": "parking", "parking": "lane"}}, "geometry": {"type": "Polygon", "coordinates": [[[5.3237976, 60.3943812], [5.3240801, 60.3943067], [5.3241339, 60.3943159], [5.3238173, 60.3943994], [5.3237976, 60.3943812]]]}}, {"type": "Feature", "properties": {"osm_type": "way", "osm_id": 641869413, "name": null, "kategori": "avgift", "capacity": null, "access": "no", "fee": "no", "maxstay": null, "parking": {"parking": "street_side"}, "alle_tags": {"access": "no", "access:conditional": "yes @ Mo-Su 00:00-08:00, 17:00-24:00", "amenity": "parking", "fee": "no", "parking": "street_side"}}, "geometry": {"type": "Polygon", "coordinates": [[[5.3230922, 60.3945905], [5.3231056, 60.3945636], [5.3237976, 60.3943812], [5.3238173, 60.3943994], [5.3230922, 60.3945905]]]}}, {"type": "Feature", "properties": {"osm_type": "way", "osm_id": 648251311, "name": null, "kategori": "annet", "capacity": null, "access": null, "fee": null, "maxstay": null, "parking": {"parking": "lane"}, "alle_tags": {"amenity": "parking", "parking": "lane"}}, "geometry": {"type": "Polygon", "coordinates": [[[5.323858, 60.394459], [5.3239661, 60.3944591], [5.3246411, 60.3942983], [5.3246701, 60.3942644], [5.323858, 60.394459]]]}}, {"type": "Feature", "properties": {"osm_type": "way", "osm_id": 648251312, "name": null, "kategori": "annet", "capacity": null, "access": null, "fee": null, "maxstay": null, "parking": {"parking": "street_side"}, "alle_tags": {"amenity": "parking", "parking": "street_side"}}, "geometry": {"type": "Polygon", "coordinates": [[[5.3231663, 60.3946429], [5.3232295, 60.3946513], [5.323527, 60.394569], [5.3235559, 60.3945351], [5.3231663, 60.3946429]]]}}, {"type": "Feature", "properties": {"osm_type": "way", "osm_id": 648251313, "name": null, "kategori": "beboer", "capacity": null, "access": "private", "fee": null, "maxstay": null, "parking": null, "alle_tags": {"access": "private", "amenity": "parking"}}, "geometry": {"type": "Polygon", "coordinates": [[[5.324292, 60.394074], [5.324393, 60.394045], [5.324482, 60.394024], [5.324447, 60.393987], [5.324455, 60.393983], [5.324449, 60.393977], [5.3244, 60.393922], [5.324336, 60.393936], [5.324244, 60.393957], [5.324258, 60.393972], [5.324206, 60.393984], [5.324245, 60.394024], [5.324292, 60.394074]]]}}, {"type": "Feature", "properties": {"osm_type": "way", "osm_id": 662879261, "name": null, "kategori": "beboer", "capacity": null, "access": "private", "fee": null, "maxstay": null, "parking": null, "alle_tags": {"access": "private", "amenity": "parking"}}, "geometry": {"type": "Polygon", "coordinates": [[[5.3172372, 60.3934575], [5.3171659, 60.39349], [5.317229, 60.3935238], [5.317119, 60.3935738], [5.3174091, 60.3937294], [5.317486, 60.3937706], [5.3174538, 60.3937853], [5.3176625, 60.3938973], [5.3177385, 60.3938627], [5.3176794, 60.393831], [5.3177518, 60.3937981], [5.317817, 60.3937684], [5.317428, 60.3935598], [5.3172372, 60.3934575]]]}}, {"type": "Feature", "properties": {"osm_type": "way", "osm_id": 662879268, "name": null, "kategori": "annet", "capacity": null, "access": null, "fee": null, "maxstay": null, "parking": {"parking": "lane"}, "alle_tags": {"amenity": "parking", "parking": "lane"}}, "geometry": {"type": "Polygon", "coordinates": [[[5.315979, 60.3916109], [5.3167827, 60.3913983], [5.3167328, 60.3913905], [5.3159881, 60.3915874], [5.315979, 60.3916109]]]}}, {"type": "Feature", "properties": {"osm_type": "way", "osm_id": 662879270, "name": null, "kategori": "beboer", "capacity": null, "access": "private", "fee": null, "maxstay": null, "parking": null, "alle_tags": {"access": "private", "amenity": "parking", "operator": "Bergen kommune"}}, "geometry": {"type": "Polygon", "coordinates": [[[5.3159425, 60.3921042], [5.3158732, 60.392019], [5.3156582, 60.3917543], [5.3156152, 60.3917464], [5.3154122, 60.3917552], [5.3154448, 60.3917996], [5.3154214, 60.3918047], [5.3154318, 60.3918201], [5.3153896, 60.3918281], [5.3154582, 60.3919143], [5.3155086, 60.3919051], [5.315508, 60.391906], [5.3155943, 60.3919987], [5.3154508, 60.3920265], [5.3154045, 60.3920387], [5.3154232, 60.3920859], [5.3154627, 60.3920898], [5.3155039, 60.3921469], [5.3156655, 60.3921062], [5.3158047, 60.3920939], [5.3158151, 60.3921227], [5.3159425, 60.3921042]]]}}, {"type": "Feature", "properties": {"osm_type": "way", "osm_id": 662879289, "name": null, "kategori": "beboer", "capacity": null, "access": "private", "fee": null, "maxstay": null, "parking": null, "alle_tags": {"access": "private", "amenity": "parking"}}, "geometry": {"type": "Polygon", "coordinates": [[[5.3168316, 60.392287], [5.3169241, 60.392345], [5.3169711, 60.3923745], [5.3172061, 60.3923153], [5.3170977, 60.3922153], [5.3168316, 60.392287]]]}}, {"type": "Feature", "properties": {"osm_type": "way", "osm_id": 663307275, "name": null, "kategori": "beboer", "capacity": null, "access": "private", "fee": null, "maxstay": null, "parking": {"parking": "surface"}, "alle_tags": {"access": "private", "amenity": "parking", "parking": "surface"}}, "geometry": {"type": "Polygon", "coordinates": [[[5.3145595, 60.389335], [5.3146806, 60.3892788], [5.314533, 60.3892012], [5.3144097, 60.3892584], [5.3145595, 60.389335]]]}}, {"type": "Feature", "properties": {"osm_type": "way", "osm_id": 672924634, "name": null, "kategori": "beboer", "capacity": null, "access": "private", "fee": null, "maxstay": null, "parking": null, "alle_tags": {"access": "private", "amenity": "parking"}}, "geometry": {"type": "Polygon", "coordinates": [[[5.3172061, 60.3923153], [5.3175953, 60.3922187], [5.3175708, 60.3921994], [5.317493, 60.3921416], [5.3174619, 60.3921174], [5.3173975, 60.3921346], [5.3170977, 60.3922153], [5.3172061, 60.3923153]]]}}, {"type": "Feature", "properties": {"osm_type": "way", "osm_id": 689957045, "name": null, "kategori": "beboer", "capacity": null, "access": "private", "fee": null, "maxstay": null, "parking": {"parking": "street_side"}, "alle_tags": {"access": "private", "amenity": "parking", "parking": "street_side"}}, "geometry": {"type": "Polygon", "coordinates": [[[5.3211983, 60.3896287], [5.3210789, 60.3895339], [5.3211026, 60.3895273], [5.3212088, 60.3894976], [5.321375, 60.3894529], [5.3214404, 60.3894399], [5.3214739, 60.3894713], [5.3213458, 60.3895047], [5.3213961, 60.3895518], [5.3214236, 60.389573], [5.3211983, 60.3896287]]]}}, {"type": "Feature", "properties": {"osm_type": "way", "osm_id": 691706976, "name": null, "kategori": "beboer", "capacity": null, "access": "private", "fee": null, "maxstay": null, "parking": null, "alle_tags": {"access": "private", "amenity": "parking"}}, "geometry": {"type": "Polygon", "coordinates": [[[5.3158408, 60.3914458], [5.3160022, 60.3914029], [5.3163316, 60.3913171], [5.3163169, 60.3913033], [5.3163206, 60.3912992], [5.3163072, 60.3912865], [5.3162885, 60.3912915], [5.3162717, 60.3912764], [5.3157935, 60.3914013], [5.3158408, 60.3914458]]]}}, {"type": "Feature", "properties": {"osm_type": "way", "osm_id": 692641093, "name": null, "kategori": "beboer", "capacity": null, "access": "private", "fee": null, "maxstay": null, "parking": {"parking": "surface"}, "alle_tags": {"access": "private", "amenity": "parking", "parking": "surface"}}, "geometry": {"type": "Polygon", "coordinates": [[[5.3149376, 60.3829061], [5.3147858, 60.3827865], [5.3148698, 60.3827605], [5.3150216, 60.3828801], [5.3149376, 60.3829061]]]}}, {"type": "Feature", "properties": {"osm_type": "way", "osm_id": 709222571, "name": null, "kategori": "beboer", "capacity": null, "access": "permit", "fee": "yes", "maxstay": null, "parking": {"parking": "surface"}, "alle_tags": {"access": "permit", "amenity": "parking", "capacity:charging": "9", "description": "Zoneparking for residents and public electric vehicle charging", "fee": "yes", "parking": "surface"}}, "geometry": {"type": "Polygon", "coordinates": [[[5.3153526, 60.3954495], [5.3157647, 60.3957484], [5.3158455, 60.395722], [5.3154372, 60.3954186], [5.3153526, 60.3954495]]]}}, {"type": "Feature", "properties": {"osm_type": "way", "osm_id": 709222572, "name": null, "kategori": "beboer", "capacity": null, "access": "private", "fee": null, "maxstay": "180", "parking": {"parking": "surface"}, "alle_tags": {"access": "private", "amenity": "parking", "maxstay": "180", "parking": "surface"}}, "geometry": {"type": "Polygon", "coordinates": [[[5.3154838, 60.395694], [5.3155705, 60.3957592], [5.3156566, 60.395824], [5.3155838, 60.3958476], [5.315411, 60.3957176], [5.3154838, 60.395694]]]}}, {"type": "Feature", "properties": {"osm_type": "way", "osm_id": 709222573, "name": null, "kategori": "beboer", "capacity": null, "access": "private", "fee": null, "maxstay": "180", "parking": {"parking": "surface"}, "alle_tags": {"access": "private", "amenity": "parking", "maxstay": "180", "parking": "surface"}}, "geometry": {"type": "Polygon", "coordinates": [[[5.315351, 60.3955936], [5.3154204, 60.3956459], [5.3154838, 60.395694], [5.315411, 60.3957176], [5.3152778, 60.3956174], [5.315351, 60.3955936]]]}}, {"type": "Feature", "properties": {"osm_type": "way", "osm_id": 722204925, "name": null, "kategori": "annet", "capacity": "1", "access": null, "fee": null, "maxstay": null, "parking": {"parking": "street_side"}, "alle_tags": {"amenity": "parking", "capacity": "1", "capacity:disabled": "1", "parking": "street_side"}}, "geometry": {"type": "Polygon", "coordinates": [[[5.3151844, 60.3953602], [5.3152679, 60.395415], [5.31517, 60.3954474], [5.3150921, 60.3953969], [5.3151844, 60.3953602]]]}}, {"type": "Feature", "properties": {"osm_type": "way", "osm_id": 905824554, "name": null, "kategori": "beboer", "capacity": null, "access": "private", "fee": null, "maxstay": null, "parking": {"parking": "surface"}, "alle_tags": {"access": "private", "amenity": "parking", "parking": "surface", "surface": "asphalt"}}, "geometry": {"type": "Polygon", "coordinates": [[[5.3246964, 60.3971257], [5.3246214, 60.3971735], [5.3243399, 60.3970656], [5.3244149, 60.3970178], [5.3246964, 60.3971257]]]}}, {"type": "Feature", "properties": {"osm_type": "way", "osm_id": 914972902, "name": null, "kategori": "avgift", "capacity": "3", "access": "yes", "fee": "Mo-Fr 08:00-23:00; Sa 08:00-17:00", "maxstay": "120 minutes", "parking": {"parking": "street_side"}, "alle_tags": {"access": "yes", "amenity": "parking", "capacity": "3", "fee": "Mo-Fr 08:00-23:00; Sa 08:00-17:00", "maxstay": "120 minutes", "operator": "Bergen Kommune", "parking": "street_side", "surface": "asphalt"}}, "geometry": {"type": "Polygon", "coordinates": [[[5.3189606, 60.3883031], [5.3189124, 60.388262], [5.319041, 60.3882294], [5.3190893, 60.3882705], [5.3189606, 60.3883031]]]}}, {"type": "Feature", "properties": {"osm_type": "way", "osm_id": 916562930, "name": null, "kategori": "beboer", "capacity": "4", "access": "private", "fee": null, "maxstay": null, "parking": null, "alle_tags": {"access": "private", "amenity": "parking", "capacity": "4"}}, "geometry": {"type": "Polygon", "coordinates": [[[5.3220697, 60.4006642], [5.3218724, 60.4007113], [5.3219147, 60.4007559], [5.322112, 60.4007089], [5.3220697, 60.4006642]]]}}, {"type": "Feature", "properties": {"osm_type": "way", "osm_id": 916562931, "name": null, "kategori": "beboer", "capacity": "4", "access": "private", "fee": null, "maxstay": null, "parking": null, "alle_tags": {"access": "private", "amenity": "parking", "capacity": "4"}}, "geometry": {"type": "Polygon", "coordinates": [[[5.3217649, 60.4007364], [5.321575, 60.4007815], [5.3216173, 60.4008261], [5.3218073, 60.4007811], [5.3217649, 60.4007364]]]}}, {"type": "Feature", "properties": {"osm_type": "way", "osm_id": 973288426, "name": "Kilen P-hus", "kategori": "beboer", "capacity": null, "access": "permit", "fee": "yes", "maxstay": null, "parking": {"parking": "multi-storey"}, "alle_tags": {"access": "permit", "amenity": "parking", "building": "garages", "building:levels": "3", "fee": "yes", "name": "Kilen P-hus", "operator": "Frydenbø Eiendom", "operator:type": "business", "parking": "multi-storey", "payment:app": "yes", "ref:bygningsnr": "14043977", "source": "survey;local knowledge", "surface": "concrete", "website": "https://sesam-sesam.com/anlegg/kilen/"}}, "geometry": {"type": "Polygon", "coordinates": [[[5.3115054, 60.3836346], [5.311818, 60.3838407], [5.3117377, 60.3838705], [5.3117897, 60.3839048], [5.3115307, 60.3840006], [5.3114797, 60.383967], [5.3114089, 60.3839816], [5.3107145, 60.3841248], [5.3105876, 60.3839744], [5.3115054, 60.3836346]]]}}, {"type": "Feature", "properties": {"osm_type": "way", "osm_id": 984821941, "name": "Kong Oscars gate", "kategori": "forbud", "capacity": null, "access": null, "fee": null, "maxstay": null, "parking": {"parking:lane:right": "no_stopping"}, "alle_tags": {"bicycle": "yes", "highway": "primary", "lane_markings": "no", "lit": "yes", "maxspeed": "40", "name": "Kong Oscars gate", "parking:lane:right": "no_stopping", "priority_road": "designated", "ref": "585", "shoulder": "no", "sidewalk": "both", "surface": "asphalt", "trolley_wire": "yes", "zone:traffic": "NO:urban"}}, "geometry": {"type": "LineString", "coordinates": [[5.3310276, 60.3929163], [5.3311761, 60.3928162], [5.3312931, 60.3927526], [5.3314989, 60.3926387]]}}, {"type": "Feature", "properties": {"osm_type": "way", "osm_id": 1039833237, "name": null, "kategori": "beboer", "capacity": null, "access": "private", "fee": null, "maxstay": null, "parking": {"parking": "surface"}, "alle_tags": {"access": "private", "amenity": "parking", "parking": "surface"}}, "geometry": {"type": "Polygon", "coordinates": [[[5.3386407, 60.3887136], [5.3391945, 60.3884028], [5.3393488, 60.3885187], [5.3391925, 60.3886026], [5.3391751, 60.3886745], [5.3390155, 60.3887573], [5.3389451, 60.3888159], [5.338807, 60.3887606], [5.3386407, 60.3887136]]]}}, {"type": "Feature", "properties": {"osm_type": "way", "osm_id": 1064033016, "name": null, "kategori": "annet", "capacity": null, "access": null, "fee": null, "maxstay": null, "parking": {"parking": "street_side"}, "alle_tags": {"amenity": "parking", "operator": "Bergen kommune", "operator:type": "public", "orientation": "parallel", "parking": "street_side"}}, "geometry": {"type": "Polygon", "coordinates": [[[5.3321019, 60.3932531], [5.3321181, 60.3932366], [5.3314733, 60.3930446], [5.3314467, 60.3930637], [5.3321019, 60.3932531]]]}}, {"type": "Feature", "properties": {"osm_type": "way", "osm_id": 1084387216, "name": null, "kategori": "annet", "capacity": "3", "access": null, "fee": null, "maxstay": null, "parking": {"parking": "street_side"}, "alle_tags": {"amenity": "parking", "capacity": "3", "parking": "street_side"}}, "geometry": {"type": "Polygon", "coordinates": [[[5.3164337, 60.3872923], [5.316352, 60.3873236], [5.3164582, 60.3873914], [5.31654, 60.3873601], [5.3164337, 60.3872923]]]}}, {"type": "Feature", "properties": {"osm_type": "way", "osm_id": 1084387217, "name": null, "kategori": "annet", "capacity": "2", "access": null, "fee": null, "maxstay": null, "parking": {"parking": "street_side"}, "alle_tags": {"amenity": "parking", "capacity": "2", "parking": "street_side"}}, "geometry": {"type": "Polygon", "coordinates": [[[5.3165739, 60.3874484], [5.3165042, 60.387476], [5.3164475, 60.3874409], [5.3165182, 60.387413], [5.3165739, 60.3874484]]]}}, {"type": "Feature", "properties": {"osm_type": "way", "osm_id": 1148248535, "name": null, "kategori": "beboer", "capacity": "4", "access": "private", "fee": null, "maxstay": null, "parking": {"parking": "surface"}, "alle_tags": {"access": "private", "amenity": "parking", "capacity": "4", "parking": "surface"}}, "geometry": {"type": "Polygon", "coordinates": [[[5.3390539, 60.3930287], [5.3390814, 60.3929833], [5.3392468, 60.3930078], [5.3392192, 60.3930532], [5.3390539, 60.3930287]]]}}, {"type": "Feature", "properties": {"osm_type": "way", "osm_id": 1148248536, "name": null, "kategori": "beboer", "capacity": "4", "access": "private", "fee": null, "maxstay": null, "parking": {"parking": "surface"}, "alle_tags": {"access": "private", "amenity": "parking", "capacity": "4", "parking": "surface"}}, "geometry": {"type": "Polygon", "coordinates": [[[5.3392953, 60.3929409], [5.3392334, 60.3928926], [5.3392147, 60.3928847], [5.3391056, 60.3928806], [5.3390748, 60.3928905], [5.3390511, 60.3929016], [5.3390298, 60.3929239], [5.3392953, 60.3929409]]]}}, {"type": "Feature", "properties": {"osm_type": "way", "osm_id": 1157782204, "name": null, "kategori": "annet", "capacity": "5", "access": null, "fee": null, "maxstay": null, "parking": {"parking": "street_side"}, "alle_tags": {"amenity": "parking", "capacity": "5", "capacity:disabled": "5", "parking": "street_side"}}, "geometry": {"type": "Polygon", "coordinates": [[[5.3288676, 60.3914483], [5.3289047, 60.3914381], [5.3292518, 60.3917472], [5.3292147, 60.3917573], [5.3288676, 60.3914483]]]}}, {"type": "Feature", "properties": {"osm_type": "way", "osm_id": 1306104006, "name": null, "kategori": "beboer", "capacity": null, "access": "permit", "fee": null, "maxstay": null, "parking": {"parking": "surface"}, "alle_tags": {"access": "permit", "amenity": "parking", "parking": "surface", "surface": "asphalt"}}, "geometry": {"type": "Polygon", "coordinates": [[[5.3306908, 60.3812899], [5.3306734, 60.3812733], [5.3310529, 60.3811712], [5.3310717, 60.3811891], [5.3306908, 60.3812899]]]}}, {"type": "Feature", "properties": {"osm_type": "way", "osm_id": 1312805951, "name": null, "kategori": "beboer", "capacity": null, "access": "permit", "fee": null, "maxstay": null, "parking": {"parking": "surface"}, "alle_tags": {"access": "permit", "amenity": "parking", "parking": "surface"}}, "geometry": {"type": "Polygon", "coordinates": [[[5.313072, 60.3806295], [5.3129567, 60.3805109], [5.3136178, 60.3803398], [5.3137265, 60.3804664], [5.313072, 60.3806295]]]}}, {"type": "Feature", "properties": {"osm_type": "way", "osm_id": 1413036530, "name": null, "kategori": "avgift", "capacity": null, "access": "yes", "fee": "yes", "maxstay": "2 hours", "parking": {"parking": "street_side"}, "alle_tags": {"access": "yes", "amenity": "parking", "charge": "50 NOK / hour", "fee": "yes", "fee:conditional": "no @ (Mo-Sa 00:00-08:00,23:00-00:00; Su 00:00-00:00)", "maxstay": "2 hours", "maxstay:conditional": "none @ (Mo-Sa 00:00-08:00,23:00-00:00; Su 00:00-00:00)", "note": "Paid parking Mo-Sa 08:00-23:00. Parking meter at Strandgaten 214", "opening_hours": "24/7", "parking": "street_side", "ref": "6005", "surface": "sett"}}, "geometry": {"type": "Polygon", "coordinates": [[[5.3105885, 60.3980325], [5.3106597, 60.3980333], [5.3109343, 60.3978676], [5.3109157, 60.3978365], [5.3105885, 60.3980325]]]}}, {"type": "Feature", "properties": {"osm_type": "way", "osm_id": 1413036531, "name": null, "kategori": "avgift", "capacity": null, "access": "yes", "fee": "yes", "maxstay": "2 hours", "parking": {"parking": "street_side"}, "alle_tags": {"access": "yes", "amenity": "parking", "charge": "50 NOK / hour", "fee": "yes", "fee:conditional": "no @ (Mo-Sa 00:00-08:00,23:00-00:00; Su 00:00-00:00)", "maxstay": "2 hours", "maxstay:conditional": "none @ (Mo-Sa 00:00-08:00,23:00-00:00; Su 00:00-00:00)", "note": "Paid parking Mo-Sa 08:00-23:00. Parking meter at Strandgaten 214", "opening_hours": "24/7", "parking": "street_side", "ref": "6005", "surface": "sett"}}, "geometry": {"type": "Polygon", "coordinates": [[[5.3102772, 60.3981191], [5.3102618, 60.3980886], [5.310697, 60.3978251], [5.310765, 60.3978265], [5.3102772, 60.3981191]]]}}, {"type": "Feature", "properties": {"osm_type": "way", "osm_id": 1413036532, "name": null, "kategori": "avgift", "capacity": null, "access": "yes", "fee": "yes", "maxstay": "2 hours", "parking": {"parking": "street_side"}, "alle_tags": {"access": "yes", "amenity": "parking", "charge": "50 NOK / hour", "fee": "yes", "fee:conditional": "no @ (Mo-Sa 00:00-08:00,23:00-00:00; Su 00:00-00:00)", "maxstay": "2 hours", "maxstay:conditional": "none @ (Mo-Sa 00:00-08:00,23:00-00:00; Su 00:00-00:00)", "note": "Paid parking Mo-Sa 08:00-23:00. Parking meter at Strandgaten 214", "opening_hours": "24/7", "parking": "street_side", "ref": "6005", "surface": "sett"}}, "geometry": {"type": "Polygon", "coordinates": [[[5.3110516, 60.3977561], [5.3111207, 60.3977572], [5.3112385, 60.3976903], [5.3113459, 60.3976353], [5.3114331, 60.3975934], [5.3114221, 60.3975625], [5.3113048, 60.3976204], [5.3111985, 60.3976757], [5.3110516, 60.3977561]]]}}, {"type": "Feature", "properties": {"osm_type": "way", "osm_id": 1413036533, "name": null, "kategori": "avgift", "capacity": null, "access": "yes", "fee": "yes", "maxstay": "2 hours", "parking": {"parking": "street_side"}, "alle_tags": {"access": "yes", "amenity": "parking", "charge": "50 NOK / hour", "fee": "yes", "fee:conditional": "no @ (Mo-Sa 00:00-08:00,23:00-00:00; Su 00:00-00:00)", "maxstay": "2 hours", "maxstay:conditional": "none @ (Mo-Sa 00:00-08:00,23:00-00:00; Su 00:00-00:00)", "note": "Paid parking Mo-Sa 08:00-23:00. Parking meter at Strandgaten 214", "opening_hours": "24/7", "parking": "street_side", "ref": "6005", "surface": "sett"}}, "geometry": {"type": "Polygon", "coordinates": [[[5.3108455, 60.397778], [5.3111371, 60.3976148], [5.311067, 60.3976123], [5.3108269, 60.3977453], [5.3108455, 60.397778]]]}}, {"type": "Feature", "properties": {"osm_type": "way", "osm_id": 1413036534, "name": null, "kategori": "avgift", "capacity": null, "access": "yes", "fee": "yes", "maxstay": "2 hours", "parking": {"parking": "street_side"}, "alle_tags": {"access": "yes", "amenity": "parking", "charge": "50 NOK / hour", "fee": "yes", "fee:conditional": "no @ (Mo-Sa 00:00-08:00,23:00-00:00; Su 00:00-00:00)", "maxstay": "2 hours", "maxstay:conditional": "none @ (Mo-Sa 00:00-08:00,23:00-00:00; Su 00:00-00:00)", "note": "Paid parking Mo-Sa 08:00-23:00. Parking meter at Strandgaten 214", "opening_hours": "24/7", "parking": "street_side", "ref": "6005", "surface": "sett"}}, "geometry": {"type": "Polygon", "coordinates": [[[5.3115724, 60.3974969], [5.3116316, 60.3975015], [5.3117467, 60.397456], [5.3118711, 60.3974068], [5.3119681, 60.3973713], [5.3119653, 60.3973404], [5.3118398, 60.3973878], [5.3117138, 60.3974376], [5.3115724, 60.3974969]]]}}, {"type": "Feature", "properties": {"osm_type": "way", "osm_id": 1413036535, "name": null, "kategori": "avgift", "capacity": null, "access": "yes", "fee": "yes", "maxstay": "2 hours", "parking": {"parking": "street_side"}, "alle_tags": {"access": "yes", "amenity": "parking", "charge": "50 NOK / hour", "fee": "yes", "fee:conditional": "no @ (Mo-Sa 00:00-08:00,23:00-00:00; Su 00:00-00:00)", "maxstay": "2 hours", "maxstay:conditional": "none @ (Mo-Sa 00:00-08:00,23:00-00:00; Su 00:00-00:00)", "note": "Paid parking Mo-Sa 08:00-23:00. Parking meter at Strandgaten 214", "opening_hours": "24/7", "parking": "street_side", "ref": "6005", "surface": "sett"}}, "geometry": {"type": "Polygon", "coordinates": [[[5.311705, 60.3973578], [5.3121076, 60.3972146], [5.3124964, 60.3970851], [5.3124378, 60.3970765], [5.31208, 60.3971953], [5.3117286, 60.397318], [5.311705, 60.3973578]]]}}, {"type": "Feature", "properties": {"osm_type": "way", "osm_id": 1413036536, "name": null, "kategori": "avgift", "capacity": null, "access": "yes", "fee": "yes", "maxstay": "2 hours", "parking": {"parking": "street_side"}, "alle_tags": {"access": "yes", "amenity": "parking", "charge": "50 NOK / hour", "fee": "yes", "fee:conditional": "no @ (Mo-Sa 00:00-08:00,23:00-00:00; Su 00:00-00:00)", "maxstay": "2 hours", "maxstay:conditional": "none @ (Mo-Sa 00:00-08:00,23:00-00:00; Su 00:00-00:00)", "note": "Paid parking Mo-Sa 08:00-23:00. Parking meter at Strandgaten 214", "opening_hours": "24/7", "parking": "street_side", "ref": "6005", "surface": "sett"}}, "geometry": {"type": "Polygon", "coordinates": [[[5.3113164, 60.3975216], [5.311306, 60.3974934], [5.3113967, 60.3974534], [5.3114926, 60.39741], [5.3115641, 60.3974165], [5.3114304, 60.3974723], [5.3113164, 60.3975216]]]}}, {"type": "Feature", "properties": {"osm_type": "way", "osm_id": 1413036537, "name": null, "kategori": "avgift", "capacity": null, "access": "yes", "fee": "yes", "maxstay": "2 hours", "parking": {"parking": "street_side"}, "alle_tags": {"access": "yes", "amenity": "parking", "charge": "50 NOK / hour", "fee": "yes", "fee:conditional": "no @ (Mo-Sa 00:00-08:00,23:00-00:00; Su 00:00-00:00)", "maxstay": "2 hours", "maxstay:conditional": "none @ (Mo-Sa 00:00-08:00,23:00-00:00; Su 00:00-00:00)", "note": "Paid parking Mo-Sa 08:00-23:00. Parking meter at Strandgaten 214", "opening_hours": "24/7", "parking": "street_side", "ref": "6005", "surface": "sett"}}, "geometry": {"type": "Polygon", "coordinates": [[[5.3121468, 60.3972814], [5.3122126, 60.3972915], [5.312446, 60.3972127], [5.3124466, 60.3971805], [5.3121468, 60.3972814]]]}}, {"type": "Feature", "properties": {"osm_type": "way", "osm_id": 1498989430, "name": null, "kategori": "annet", "capacity": null, "access": null, "fee": null, "maxstay": null, "parking": {"parking": "street_side"}, "alle_tags": {"amenity": "parking", "parking": "street_side"}}, "geometry": {"type": "Polygon", "coordinates": [[[5.320297, 60.3977778], [5.3202942, 60.3977881], [5.3206267, 60.3980286], [5.3206969, 60.3980015], [5.3203621, 60.3977546], [5.320297, 60.3977778]]]}}, {"type": "Feature", "properties": {"osm_type": "way", "osm_id": 1509477268, "name": null, "kategori": "avgift", "capacity": null, "access": "yes", "fee": "yes", "maxstay": null, "parking": {"parking": "street_side"}, "alle_tags": {"access": "yes", "amenity": "parking", "fee": "yes", "parking": "street_side", "source": "survey"}}, "geometry": {"type": "Polygon", "coordinates": [[[5.3300499, 60.3844826], [5.3300186, 60.384469], [5.3283736, 60.3852609], [5.3284012, 60.3852764], [5.3300499, 60.3844826]]]}}, {"type": "Feature", "properties": {"osm_type": "way", "osm_id": 1509490173, "name": null, "kategori": "avgift", "capacity": null, "access": "yes", "fee": "yes", "maxstay": null, "parking": {"parking": "street_side"}, "alle_tags": {"access": "yes", "amenity": "parking", "fee": "yes", "parking": "street_side", "source": "survey"}}, "geometry": {"type": "Polygon", "coordinates": [[[5.3226169, 60.3885752], [5.3226549, 60.3885618], [5.3222759, 60.3882233], [5.3222378, 60.3882343], [5.3226169, 60.3885752]]]}}, {"type": "Feature", "properties": {"osm_type": "way", "osm_id": 1509490174, "name": null, "kategori": "avgift", "capacity": null, "access": "yes", "fee": "yes", "maxstay": null, "parking": {"parking": "street_side"}, "alle_tags": {"access": "yes", "amenity": "parking", "capacity:disabled": "4", "fee": "yes", "parking": "street_side", "source": "survey"}}, "geometry": {"type": "Polygon", "coordinates": [[[5.3222267, 60.3882084], [5.3222584, 60.388199], [5.322168, 60.3881175], [5.3221363, 60.3881269], [5.3222267, 60.3882084]]]}}]}