{"type": "FeatureCollection", "features": [{"type": "Feature", "id": 101, "geometry": {"type": "Point", "coordinates": [5.332105552923863, 60.393252258005305]}, "properties": {"OBJECTID": 101, "Type": "552 Automat", "publikum_Gate": "Heggebakken", "publikum_PBetingelser": "08-23 (08-17) Maks. 2 timer mot avgift", "Automatnummer": "Automat 46", "pubklikum_AntallPlasser": 7, "publikum_tilleggsinfo": null}}, {"type": "Feature", "id": 165, "geometry": {"type": "Point", "coordinates": [5.325244364604, 60.4052453732768]}, "properties": {"OBJECTID": 165, "Type": "552 Parkometer", "publikum_Gate": "Ladegårdsgaten", "publikum_PBetingelser": "08-23 (08-17) Maks. 2 timer mot avgift", "Automatnummer": "P115", "pubklikum_AntallPlasser": 1, "publikum_tilleggsinfo": null}}, {"type": "Feature", "id": 166, "geometry": {"type": "Point", "coordinates": [5.325252755685992, 60.40524089707292]}, "properties": {"OBJECTID": 166, "Type": "552 Parkometer", "publikum_Gate": "Ladegårdsgaten", "publikum_PBetingelser": "08-23 (08-17) Maks. 2 timer mot avgift", "Automatnummer": "P116", "pubklikum_AntallPlasser": 1, "publikum_tilleggsinfo": null}}, {"type": "Feature", "id": 167, "geometry": {"type": "Point", "coordinates": [5.32537778880316, 60.405139139009435]}, "properties": {"OBJECTID": 167, "Type": "552 Parkometer", "publikum_Gate": "Ladegårdsgaten", "publikum_PBetingelser": "08-23 (08-17) Maks. 2 timer mot avgift", "Automatnummer": "P117", "pubklikum_AntallPlasser": 1, "publikum_tilleggsinfo": null}}, {"type": "Feature", "id": 168, "geometry": {"type": "Point", "coordinates": [5.325368952308861, 60.405150989407325]}, "properties": {"OBJECTID": 168, "Type": "552 Parkometer", "publikum_Gate": "Ladegårdsgaten", "publikum_PBetingelser": "08-23 (08-17) Maks. 2 timer mot avgift", "Automatnummer": "P118", "pubklikum_AntallPlasser": 1, "publikum_tilleggsinfo": null}}, {"type": "Feature", "id": 185, "geometry": {"type": "Point", "coordinates": [5.326146130830451, 60.40105439428638]}, "properties": {"OBJECTID": 185, "Type": "552 Parkometer", "publikum_Gate": "Ladegårdsgaten", "publikum_PBetingelser": "08-23 (08-17) Maks. 2 timer mot avgift", "Automatnummer": "P130", "pubklikum_AntallPlasser": 1, "publikum_tilleggsinfo": null}}, {"type": "Feature", "id": 186, "geometry": {"type": "Point", "coordinates": [5.326157144663421, 60.401062599115996]}, "properties": {"OBJECTID": 186, "Type": "552 Parkometer", "publikum_Gate": "Ladegårdsgaten", "publikum_PBetingelser": "08-23 (08-17) Maks. 2 timer mot avgift", "Automatnummer": "P129", "pubklikum_AntallPlasser": 1, "publikum_tilleggsinfo": null}}, {"type": "Feature", "id": 187, "geometry": {"type": "Point", "coordinates": [5.32623407580352, 60.4011582901221]}, "properties": {"OBJECTID": 187, "Type": "552 Parkometer", "publikum_Gate": "Ladegårdsgaten", "publikum_PBetingelser": "08-23 (08-17) Maks. 2 timer mot avgift", "Automatnummer": "P128", "pubklikum_AntallPlasser": 1, "publikum_tilleggsinfo": null}}, {"type": "Feature", "id": 188, "geometry": {"type": "Point", "coordinates": [5.326242981218573, 60.40116631087338]}, "properties": {"OBJECTID": 188, "Type": "552 Parkometer", "publikum_Gate": "Ladegårdsgaten", "publikum_PBetingelser": "08-23 (08-17) Maks. 2 timer mot avgift", "Automatnummer": "P127", "pubklikum_AntallPlasser": 1, "publikum_tilleggsinfo": null}}, {"type": "Feature", "id": 189, "geometry": {"type": "Point", "coordinates": [5.32638184022377, 60.40130861900286]}, "properties": {"OBJECTID": 189, "Type": "552 Parkometer", "publikum_Gate": "Ladegårdsgaten", "publikum_PBetingelser": "08-23 (08-17) Maks. 2 timer mot avgift", "Automatnummer": "P125", "pubklikum_AntallPlasser": 1, "publikum_tilleggsinfo": null}}, {"type": "Feature", "id": 190, "geometry": {"type": "Point", "coordinates": [5.326376656500453, 60.40130327796533]}, "properties": {"OBJECTID": 190, "Type": "552 Parkometer", "publikum_Gate": "Ladegårdsgaten", "publikum_PBetingelser": "08-23 (08-17) Maks. 2 timer mot avgift", "Automatnummer": "P126", "pubklikum_AntallPlasser": 1, "publikum_tilleggsinfo": null}}, {"type": "Feature", "id": 207, "geometry": {"type": "Point", "coordinates": [5.322047950107805, 60.40348488441856]}, "properties": {"OBJECTID": 207, "Type": "552 Parkometer", "publikum_Gate": "Nye Sandviksveien", "publikum_PBetingelser": "08-23 (08-17) Maks. 2 timer mot avgift", "Automatnummer": "P145", "pubklikum_AntallPlasser": 1, "publikum_tilleggsinfo": null}}, {"type": "Feature", "id": 208, "geometry": {"type": "Point", "coordinates": [5.322058980766946, 60.403478369173925]}, "properties": {"OBJECTID": 208, "Type": "552 Parkometer", "publikum_Gate": "Nye Sandviksveien", "publikum_PBetingelser": "08-23 (08-17) Maks. 2 timer mot avgift", "Automatnummer": "P144", "pubklikum_AntallPlasser": 1, "publikum_tilleggsinfo": null}}, {"type": "Feature", "id": 209, "geometry": {"type": "Point", "coordinates": [5.32217763644117, 60.403415767387315]}, "properties": {"OBJECTID": 209, "Type": "552 Parkometer", "publikum_Gate": "Nye Sandviksveien", "publikum_PBetingelser": "08-23 (08-17) Maks. 2 timer mot avgift", "Automatnummer": "P143", "pubklikum_AntallPlasser": 1, "publikum_tilleggsinfo": null}}, {"type": "Feature", "id": 210, "geometry": {"type": "Point", "coordinates": [5.322190351673642, 60.40340963486949]}, "properties": {"OBJECTID": 210, "Type": "552 Parkometer", "publikum_Gate": "Nye Sandviksveien", "publikum_PBetingelser": "08-23 (08-17) Maks. 2 timer mot avgift", "Automatnummer": "P142", "pubklikum_AntallPlasser": 1, "publikum_tilleggsinfo": null}}, {"type": "Feature", "id": 211, "geometry": {"type": "Point", "coordinates": [5.322339397925429, 60.40332118905684]}, "properties": {"OBJECTID": 211, "Type": "552 Parkometer", "publikum_Gate": "Nye Sandviksveien", "publikum_PBetingelser": "08-23 (08-17) Maks. 2 timer mot avgift", "Automatnummer": "P140", "pubklikum_AntallPlasser": 1, "publikum_tilleggsinfo": null}}, {"type": "Feature", "id": 212, "geometry": {"type": "Point", "coordinates": [5.32232559418132, 60.403328674776326]}, "properties": {"OBJECTID": 212, "Type": "552 Parkometer", "publikum_Gate": "Nye Sandviksveien", "publikum_PBetingelser": "08-23 (08-17) Maks. 2 timer mot avgift", "Automatnummer": "P141", "pubklikum_AntallPlasser": 1, "publikum_tilleggsinfo": null}}, {"type": "Feature", "id": 213, "geometry": {"type": "Point", "coordinates": [5.323020483178675, 60.4028315900438]}, "properties": {"OBJECTID": 213, "Type": "552 Parkometer", "publikum_Gate": "Nye Sandviksveien", "publikum_PBetingelser": "08-23 (08-17) Maks. 2 timer mot avgift", "Automatnummer": "P110", "pubklikum_AntallPlasser": 1, "publikum_tilleggsinfo": null}}, {"type": "Feature", "id": 214, "geometry": {"type": "Point", "coordinates": [5.323029230021985, 60.402825280340004]}, "properties": {"OBJECTID": 214, "Type": "552 Parkometer", "publikum_Gate": "Nye Sandviksveien", "publikum_PBetingelser": "08-23 (08-17) Maks. 2 timer mot avgift", "Automatnummer": "P109", "pubklikum_AntallPlasser": 1, "publikum_tilleggsinfo": null}}, {"type": "Feature", "id": 215, "geometry": {"type": "Point", "coordinates": [5.32315294523972, 60.40273436457919]}, "properties": {"OBJECTID": 215, "Type": "552 Parkometer", "publikum_Gate": "Nye Sandviksveien", "publikum_PBetingelser": "08-23 (08-17) Maks. 2 timer mot avgift", "Automatnummer": "P108", "pubklikum_AntallPlasser": 1, "publikum_tilleggsinfo": null}}, {"type": "Feature", "id": 216, "geometry": {"type": "Point", "coordinates": [5.323165445938381, 60.40272567159961]}, "properties": {"OBJECTID": 216, "Type": "552 Parkometer", "publikum_Gate": "Nye Sandviksveien", "publikum_PBetingelser": "08-23 (08-17) Maks. 2 timer mot avgift", "Automatnummer": "P107", "pubklikum_AntallPlasser": 1, "publikum_tilleggsinfo": null}}, {"type": "Feature", "id": 217, "geometry": {"type": "Point", "coordinates": [5.323248392922561, 60.40266429924209]}, "properties": {"OBJECTID": 217, "Type": "552 Parkometer", "publikum_Gate": "Nye Sandviksveien", "publikum_PBetingelser": "08-23 (08-17) Maks. 2 timer mot avgift", "Automatnummer": "P106", "pubklikum_AntallPlasser": 1, "publikum_tilleggsinfo": null}}, {"type": "Feature", "id": 218, "geometry": {"type": "Point", "coordinates": [5.32325491978278, 60.40265882338456]}, "properties": {"OBJECTID": 218, "Type": "552 Parkometer", "publikum_Gate": "Nye Sandviksveien", "publikum_PBetingelser": "08-23 (08-17) Maks. 2 timer mot avgift", "Automatnummer": "P105", "pubklikum_AntallPlasser": 1, "publikum_tilleggsinfo": null}}, {"type": "Feature", "id": 230, "geometry": {"type": "Point", "coordinates": [5.3256876110884575, 60.399600575107776]}, "properties": {"OBJECTID": 230, "Type": "552 Parkometer", "publikum_Gate": "Stølegaten", "publikum_PBetingelser": "08-23 (08-17) Maks. 2 timer mot avgift", "Automatnummer": "N105", "pubklikum_AntallPlasser": 1, "publikum_tilleggsinfo": null}}, {"type": "Feature", "id": 231, "geometry": {"type": "Point", "coordinates": [5.325693669958826, 60.399595099702026]}, "properties": {"OBJECTID": 231, "Type": "552 Parkometer", "publikum_Gate": "Stølegaten", "publikum_PBetingelser": "08-23 (08-17) Maks. 2 timer mot avgift", "Automatnummer": "N104", "pubklikum_AntallPlasser": 1, "publikum_tilleggsinfo": null}}, {"type": "Feature", "id": 235, "geometry": {"type": "Point", "coordinates": [5.32880221653212, 60.39886061463104]}, "properties": {"OBJECTID": 235, "Type": "552 Parkometer", "publikum_Gate": "Tordenskjolds gate", "publikum_PBetingelser": "08-23 (08-17) Maks. 2 timer mot avgift", "Automatnummer": "N110", "pubklikum_AntallPlasser": 1, "publikum_tilleggsinfo": null}}, {"type": "Feature", "id": 236, "geometry": {"type": "Point", "coordinates": [5.328808379860315, 60.398855399040364]}, "properties": {"OBJECTID": 236, "Type": "552 Parkometer", "publikum_Gate": "Tordenskjolds gate", "publikum_PBetingelser": "08-23 (08-17) Maks. 2 timer mot avgift", "Automatnummer": "N111", "pubklikum_AntallPlasser": 1, "publikum_tilleggsinfo": null}}, {"type": "Feature", "id": 237, "geometry": {"type": "Point", "coordinates": [5.328921465737039, 60.3987676652872]}, "properties": {"OBJECTID": 237, "Type": "552 Parkometer", "publikum_Gate": "Tordenskjolds gate", "publikum_PBetingelser": "08-23 (08-17) Maks. 2 timer mot avgift", "Automatnummer": "N112", "pubklikum_AntallPlasser": 1, "publikum_tilleggsinfo": null}}, {"type": "Feature", "id": 238, "geometry": {"type": "Point", "coordinates": [5.328929424116739, 60.39876207679373]}, "properties": {"OBJECTID": 238, "Type": "552 Parkometer", "publikum_Gate": "Tordenskjolds gate", "publikum_PBetingelser": "08-23 (08-17) Maks. 2 timer mot avgift", "Automatnummer": "N113", "pubklikum_AntallPlasser": 1, "publikum_tilleggsinfo": null}}, {"type": "Feature", "id": 239, "geometry": {"type": "Point", "coordinates": [5.32904235130249, 60.398673633896315]}, "properties": {"OBJECTID": 239, "Type": "552 Parkometer", "publikum_Gate": "Tordenskjolds gate", "publikum_PBetingelser": "08-23 (08-17) Maks. 2 timer mot avgift", "Automatnummer": "N114", "pubklikum_AntallPlasser": 1, "publikum_tilleggsinfo": null}}, {"type": "Feature", "id": 240, "geometry": {"type": "Point", "coordinates": [5.329047963858527, 60.39867027353276]}, "properties": {"OBJECTID": 240, "Type": "552 Parkometer", "publikum_Gate": "Tordenskjolds gate", "publikum_PBetingelser": "08-23 (08-17) Maks. 2 timer mot avgift", "Automatnummer": "N115", "pubklikum_AntallPlasser": 1, "publikum_tilleggsinfo": null}}, {"type": "Feature", "id": 241, "geometry": {"type": "Point", "coordinates": [5.329157788587243, 60.39858043624054]}, "properties": {"OBJECTID": 241, "Type": "552 Parkometer", "publikum_Gate": "Tordenskjolds gate", "publikum_PBetingelser": "08-23 (08-17) Maks. 2 timer mot avgift", "Automatnummer": "N116", "pubklikum_AntallPlasser": 1, "publikum_tilleggsinfo": null}}, {"type": "Feature", "id": 244, "geometry": {"type": "Point", "coordinates": [5.3282054003169055, 60.4002155483818]}, "properties": {"OBJECTID": 244, "Type": "552 Parkometer", "publikum_Gate": "Arbeidergaten", "publikum_PBetingelser": "08-23 (08-17) Maks. 2 timer mot avgift", "Automatnummer": "N109", "pubklikum_AntallPlasser": 1, "publikum_tilleggsinfo": null}}, {"type": "Feature", "id": 245, "geometry": {"type": "Point", "coordinates": [5.3282192348070145, 60.40022018530039]}, "properties": {"OBJECTID": 245, "Type": "552 Parkometer", "publikum_Gate": "Arbeidergaten", "publikum_PBetingelser": "08-23 (08-17) Maks. 2 timer mot avgift", "Automatnummer": "N108", "pubklikum_AntallPlasser": 1, "publikum_tilleggsinfo": null}}, {"type": "Feature", "id": 246, "geometry": {"type": "Point", "coordinates": [5.328359126668232, 60.400266419140955]}, "properties": {"OBJECTID": 246, "Type": "552 Parkometer", "publikum_Gate": "Arbeidergaten", "publikum_PBetingelser": "08-23 (08-17) Maks. 2 timer mot avgift", "Automatnummer": "N107", "pubklikum_AntallPlasser": 1, "publikum_tilleggsinfo": null}}, {"type": "Feature", "id": 247, "geometry": {"type": "Point", "coordinates": [5.328372160787055, 60.40027066273697]}, "properties": {"OBJECTID": 247, "Type": "552 Parkometer", "publikum_Gate": "Arbeidergaten", "publikum_PBetingelser": "08-23 (08-17) Maks. 2 timer mot avgift", "Automatnummer": "N106", "pubklikum_AntallPlasser": 1, "publikum_tilleggsinfo": null}}, {"type": "Feature", "id": 266, "geometry": {"type": "Point", "coordinates": [5.321888789239004, 60.38555180998853]}, "properties": {"OBJECTID": 266, "Type": "552 Parkometer", "publikum_Gate": "Wessels gate", "publikum_PBetingelser": "08-23 (08-17) Maks. 2 timer mot avgift", "Automatnummer": "B125", "pubklikum_AntallPlasser": 1, "publikum_tilleggsinfo": null}}, {"type": "Feature", "id": 267, "geometry": {"type": "Point", "coordinates": [5.321895913780722, 60.385557094401605]}, "properties": {"OBJECTID": 267, "Type": "552 Parkometer", "publikum_Gate": "Wessels gate", "publikum_PBetingelser": "08-23 (08-17) Maks. 2 timer mot avgift", "Automatnummer": "B126", "pubklikum_AntallPlasser": 1, "publikum_tilleggsinfo": null}}, {"type": "Feature", "id": 268, "geometry": {"type": "Point", "coordinates": [5.3216279966910305, 60.385217119666564]}, "properties": {"OBJECTID": 268, "Type": "552 Parkometer", "publikum_Gate": "Wessels gate", "publikum_PBetingelser": "08-23 (08-17) Maks. 2 timer mot avgift", "Automatnummer": "B124", "pubklikum_AntallPlasser": 1, "publikum_tilleggsinfo": null}}, {"type": "Feature", "id": 269, "geometry": {"type": "Point", "coordinates": [5.321618824999783, 60.385209397623555]}, "properties": {"OBJECTID": 269, "Type": "552 Parkometer", "publikum_Gate": "Wessels gate", "publikum_PBetingelser": "08-23 (08-17) Maks. 2 timer mot avgift", "Automatnummer": "B123", "pubklikum_AntallPlasser": 1, "publikum_tilleggsinfo": null}}, {"type": "Feature", "id": 270, "geometry": {"type": "Point", "coordinates": [5.321516906627115, 60.385128495582194]}, "properties": {"OBJECTID": 270, "Type": "552 Parkometer", "publikum_Gate": "Wessels gate", "publikum_PBetingelser": "08-23 (08-17) Maks. 2 timer mot avgift", "Automatnummer": "B122", "pubklikum_AntallPlasser": 1, "publikum_tilleggsinfo": null}}, {"type": "Feature", "id": 271, "geometry": {"type": "Point", "coordinates": [5.321509317106309, 60.3851227632519]}, "properties": {"OBJECTID": 271, "Type": "552 Parkometer", "publikum_Gate": "Wessels gate", "publikum_PBetingelser": "08-23 (08-17) Maks. 2 timer mot avgift", "Automatnummer": "B121", "pubklikum_AntallPlasser": 1, "publikum_tilleggsinfo": null}}, {"type": "Feature", "id": 275, "geometry": {"type": "Point", "coordinates": [5.320953295036824, 60.38468406198846]}, "properties": {"OBJECTID": 275, "Type": "552 Parkometer", "publikum_Gate": "Wessels gate", "publikum_PBetingelser": "08-23 (08-17) Maks. 2 timer mot avgift", "Automatnummer": "B117", "pubklikum_AntallPlasser": 1, "publikum_tilleggsinfo": null}}, {"type": "Feature", "id": 276, "geometry": {"type": "Point", "coordinates": [5.320962560552582, 60.38468990544406]}, "properties": {"OBJECTID": 276, "Type": "552 Parkometer", "publikum_Gate": "Wessels gate", "publikum_PBetingelser": "08-23 (08-17) Maks. 2 timer mot avgift", "Automatnummer": "B118", "pubklikum_AntallPlasser": 1, "publikum_tilleggsinfo": null}}, {"type": "Feature", "id": 277, "geometry": {"type": "Point", "coordinates": [5.321068492144275, 60.384774094546486]}, "properties": {"OBJECTID": 277, "Type": "552 Parkometer", "publikum_Gate": "Wessels gate", "publikum_PBetingelser": "08-23 (08-17) Maks. 2 timer mot avgift", "Automatnummer": "B119", "pubklikum_AntallPlasser": 1, "publikum_tilleggsinfo": null}}, {"type": "Feature", "id": 278, "geometry": {"type": "Point", "coordinates": [5.3210747686963895, 60.38477937621962]}, "properties": {"OBJECTID": 278, "Type": "552 Parkometer", "publikum_Gate": "Wessels gate", "publikum_PBetingelser": "08-23 (08-17) Maks. 2 timer mot avgift", "Automatnummer": "B120", "pubklikum_AntallPlasser": 1, "publikum_tilleggsinfo": null}}, {"type": "Feature", "id": 283, "geometry": {"type": "Point", "coordinates": [5.321593213865415, 60.38406254788116]}, "properties": {"OBJECTID": 283, "Type": "552 Parkometer", "publikum_Gate": "Storms gate", "publikum_PBetingelser": "08-23 (08-17) Maks. 2 timer mot avgift", "Automatnummer": "B106", "pubklikum_AntallPlasser": 1, "publikum_tilleggsinfo": null}}, {"type": "Feature", "id": 284, "geometry": {"type": "Point", "coordinates": [5.3217289595474355, 60.38416916716912]}, "properties": {"OBJECTID": 284, "Type": "552 Parkometer", "publikum_Gate": "Storms gate", "publikum_PBetingelser": "08-23 (08-17) Maks. 2 timer mot avgift", "Automatnummer": "B108", "pubklikum_AntallPlasser": 1, "publikum_tilleggsinfo": null}}, {"type": "Feature", "id": 285, "geometry": {"type": "Point", "coordinates": [5.321586420187606, 60.38405735978331]}, "properties": {"OBJECTID": 285, "Type": "552 Parkometer", "publikum_Gate": "Storms gate", "publikum_PBetingelser": "08-23 (08-17) Maks. 2 timer mot avgift", "Automatnummer": "B105", "pubklikum_AntallPlasser": 1, "publikum_tilleggsinfo": null}}, {"type": "Feature", "id": 286, "geometry": {"type": "Point", "coordinates": [5.322575987878069, 60.38492847118658]}, "properties": {"OBJECTID": 286, "Type": "552 Parkometer", "publikum_Gate": "Storms gate", "publikum_PBetingelser": "08-23 (08-17) Maks. 2 timer mot avgift", "Automatnummer": "B111", "pubklikum_AntallPlasser": 1, "publikum_tilleggsinfo": null}}, {"type": "Feature", "id": 287, "geometry": {"type": "Point", "coordinates": [5.3225817175604835, 60.38493305005974]}, "properties": {"OBJECTID": 287, "Type": "552 Parkometer", "publikum_Gate": "Storms gate", "publikum_PBetingelser": "08-23 (08-17) Maks. 2 timer mot avgift", "Automatnummer": "B112", "pubklikum_AntallPlasser": 1, "publikum_tilleggsinfo": null}}, {"type": "Feature", "id": 288, "geometry": {"type": "Point", "coordinates": [5.322457652581746, 60.38483631020603]}, "properties": {"OBJECTID": 288, "Type": "552 Parkometer", "publikum_Gate": "Storms gate", "publikum_PBetingelser": "08-23 (08-17) Maks. 2 timer mot avgift", "Automatnummer": "B110", "pubklikum_AntallPlasser": 1, "publikum_tilleggsinfo": null}}, {"type": "Feature", "id": 289, "geometry": {"type": "Point", "coordinates": [5.322450234667469, 60.38483052065884]}, "properties": {"OBJECTID": 289, "Type": "552 Parkometer", "publikum_Gate": "Storms gate", "publikum_PBetingelser": "08-23 (08-17) Maks. 2 timer mot avgift", "Automatnummer": "B109", "pubklikum_AntallPlasser": 1, "publikum_tilleggsinfo": null}}, {"type": "Feature", "id": 294, "geometry": {"type": "Point", "coordinates": [5.31360019304298, 60.393690929211076]}, "properties": {"OBJECTID": 294, "Type": "552 Parkometer", "publikum_Gate": "Nøstegaten", "publikum_PBetingelser": "08-23 (08-17) Maks. 1 timer mot avgift", "Automatnummer": "H107", "pubklikum_AntallPlasser": 1, "publikum_tilleggsinfo": null}}, {"type": "Feature", "id": 295, "geometry": {"type": "Point", "coordinates": [5.313622808281129, 60.39368302085685]}, "properties": {"OBJECTID": 295, "Type": "552 Parkometer", "publikum_Gate": "Nøstegaten", "publikum_PBetingelser": "08-23 (08-17) Maks. 1 timer mot avgift", "Automatnummer": "H106", "pubklikum_AntallPlasser": 1, "publikum_tilleggsinfo": null}}, {"type": "Feature", "id": 298, "geometry": {"type": "Point", "coordinates": [5.31460222050862, 60.39509062776257]}, "properties": {"OBJECTID": 298, "Type": "552 Parkometer", "publikum_Gate": "Klosteret", "publikum_PBetingelser": "08-23 (08-17) Maks. 2 timer mot avgift", "Automatnummer": "H114", "pubklikum_AntallPlasser": 1, "publikum_tilleggsinfo": null}}, {"type": "Feature", "id": 299, "geometry": {"type": "Point", "coordinates": [5.314617672533529, 60.39508554346976]}, "properties": {"OBJECTID": 299, "Type": "552 Parkometer", "publikum_Gate": "Klosteret", "publikum_PBetingelser": "08-23 (08-17) Maks. 2 timer mot avgift", "Automatnummer": "H113", "pubklikum_AntallPlasser": 1, "publikum_tilleggsinfo": null}}, {"type": "Feature", "id": 300, "geometry": {"type": "Point", "coordinates": [5.314676210545271, 60.3950715179938]}, "properties": {"OBJECTID": 300, "Type": "552 Parkometer", "publikum_Gate": "Klosteret", "publikum_PBetingelser": "08-23 (08-17) Maks. 2 timer mot avgift", "Automatnummer": "H112", "pubklikum_AntallPlasser": 1, "publikum_tilleggsinfo": null}}, {"type": "Feature", "id": 301, "geometry": {"type": "Point", "coordinates": [5.314690701298352, 60.395066789954356]}, "properties": {"OBJECTID": 301, "Type": "552 Parkometer", "publikum_Gate": "Klosteret", "publikum_PBetingelser": "08-23 (08-17) Maks. 2 timer mot avgift", "Automatnummer": "H111", "pubklikum_AntallPlasser": 1, "publikum_tilleggsinfo": null}}, {"type": "Feature", "id": 302, "geometry": {"type": "Point", "coordinates": [5.314746185139367, 60.39505297912314]}, "properties": {"OBJECTID": 302, "Type": "552 Parkometer", "publikum_Gate": "Klosteret", "publikum_PBetingelser": "08-23 (08-17) Maks. 2 timer mot avgift", "Automatnummer": "H110", "pubklikum_AntallPlasser": 1, "publikum_tilleggsinfo": null}}, {"type": "Feature", "id": 341, "geometry": {"type": "Point", "coordinates": [5.330252528139427, 60.3863290361397]}, "properties": {"OBJECTID": 341, "Type": "552 Automat", "publikum_Gate": "Nygårdsgaten", "publikum_PBetingelser": "08-23 (08-23) Maks 2 timer mot avgift", "Automatnummer": "", "pubklikum_AntallPlasser": 5, "publikum_tilleggsinfo": null}}, {"type": "Feature", "id": 342, "geometry": {"type": "Point", "coordinates": [5.329435104329049, 60.38687074809267]}, "properties": {"OBJECTID": 342, "Type": "552 Automat", "publikum_Gate": "Nygårdsgaten", "publikum_PBetingelser": "08-23 (08-23) Maks 2 timer mot avgift", "Automatnummer": "Automat 86", "pubklikum_AntallPlasser": 5, "publikum_tilleggsinfo": null}}, {"type": "Feature", "id": 343, "geometry": {"type": "Point", "coordinates": [5.328376847635337, 60.38770936283902]}, "properties": {"OBJECTID": 343, "Type": "552 Automat", "publikum_Gate": "Nygårdsgaten", "publikum_PBetingelser": "08-23 (08-23) Maks 2 timer mot avgift", "Automatnummer": "Automat 64", "pubklikum_AntallPlasser": 6, "publikum_tilleggsinfo": null}}, {"type": "Feature", "id": 349, "geometry": {"type": "Point", "coordinates": [5.320719201591987, 60.39096677600824]}, "properties": {"OBJECTID": 349, "Type": "552 Automat", "publikum_Gate": "Neumanns gate", "publikum_PBetingelser": "08-23 (08-23), Maks. 1 time mot avgift", "Automatnummer": "Automat 6, 4 plasser", "pubklikum_AntallPlasser": 4, "publikum_tilleggsinfo": null}}, {"type": "Feature", "id": 352, "geometry": {"type": "Point", "coordinates": [5.323192744127806, 60.399218265879455]}, "properties": {"OBJECTID": 352, "Type": "552 Parkometer", "publikum_Gate": "Dreggsallmenningen", "publikum_PBetingelser": "08-23 (08-23) Maks 2 timer mot avgift", "Automatnummer": "K143", "pubklikum_AntallPlasser": 1, "publikum_tilleggsinfo": null}}, {"type": "Feature", "id": 353, "geometry": {"type": "Point", "coordinates": [5.323185450552442, 60.39921847231616]}, "properties": {"OBJECTID": 353, "Type": "552 Parkometer", "publikum_Gate": "Dreggsallmenningen", "publikum_PBetingelser": "08-23 (08-23) Maks 2 timer mot avgift", "Automatnummer": "K144", "pubklikum_AntallPlasser": 1, "publikum_tilleggsinfo": null}}, {"type": "Feature", "id": 354, "geometry": {"type": "Point", "coordinates": [5.322991157332071, 60.39921084677705]}, "properties": {"OBJECTID": 354, "Type": "552 Parkometer", "publikum_Gate": "Dreggsallmenningen", "publikum_PBetingelser": "08-23 (08-23) Maks 2 timer mot avgift", "Automatnummer": "K145", "pubklikum_AntallPlasser": 1, "publikum_tilleggsinfo": null}}, {"type": "Feature", "id": 355, "geometry": {"type": "Point", "coordinates": [5.322980132796649, 60.399209697999424]}, "properties": {"OBJECTID": 355, "Type": "552 Parkometer", "publikum_Gate": "Dreggsallmenningen", "publikum_PBetingelser": "08-23 (08-23) Maks 2 timer mot avgift", "Automatnummer": "K146", "pubklikum_AntallPlasser": 1, "publikum_tilleggsinfo": null}}, {"type": "Feature", "id": 356, "geometry": {"type": "Point", "coordinates": [5.32274170149739, 60.39914520316889]}, "properties": {"OBJECTID": 356, "Type": "552 Parkometer", "publikum_Gate": "Dreggsallmenningen", "publikum_PBetingelser": "08-23 (08-23) Maks 2 timer mot avgift", "Automatnummer": "K147", "pubklikum_AntallPlasser": 1, "publikum_tilleggsinfo": null}}, {"type": "Feature", "id": 358, "geometry": {"type": "Point", "coordinates": [5.321040371458251, 60.399380929387135]}, "properties": {"OBJECTID": 358, "Type": "552 Automat", "publikum_Gate": "Øvre Dreggsallmenningen", "publikum_PBetingelser": "08-23 (08-23) Maks. 2 timer mot avgift", "Automatnummer": "Automat 26", "pubklikum_AntallPlasser": 16, "publikum_tilleggsinfo": null}}, {"type": "Feature", "id": 368, "geometry": {"type": "Point", "coordinates": [5.322277086433505, 60.39875653818377]}, "properties": {"OBJECTID": 368, "Type": "552 Automat", "publikum_Gate": "Dreggsallmenningen", "publikum_PBetingelser": "08-23 (08-23) Maks 2 timer mot avgift", "Automatnummer": "Automat 23", "pubklikum_AntallPlasser": 6, "publikum_tilleggsinfo": null}}, {"type": "Feature", "id": 369, "geometry": {"type": "Point", "coordinates": [5.321969179879025, 60.39844203629447]}, "properties": {"OBJECTID": 369, "Type": "552 Automat", "publikum_Gate": "Dreggsallmenningen", "publikum_PBetingelser": "08-23 (08-23) Maks 2 timer mot avgif", "Automatnummer": "Automat 23", "pubklikum_AntallPlasser": 6, "publikum_tilleggsinfo": null}}, {"type": "Feature", "id": 389, "geometry": {"type": "Point", "coordinates": [5.327389128208126, 60.39638203013852]}, "properties": {"OBJECTID": 389, "Type": "552 Parkometer", "publikum_Gate": "Finnegårdsgaten", "publikum_PBetingelser": "08-23 (08-23) Maks. 2 timer mot avgift", "Automatnummer": "K124", "pubklikum_AntallPlasser": 1, "publikum_tilleggsinfo": null}}, {"type": "Feature", "id": 390, "geometry": {"type": "Point", "coordinates": [5.327381931001273, 60.39637840869088]}, "properties": {"OBJECTID": 390, "Type": "552 Parkometer", "publikum_Gate": "Finnegårdsgaten", "publikum_PBetingelser": "08-23 (08-23) Maks. 2 timer mot avgift", "Automatnummer": "K125", "pubklikum_AntallPlasser": 1, "publikum_tilleggsinfo": null}}, {"type": "Feature", "id": 391, "geometry": {"type": "Point", "coordinates": [5.3271481704678765, 60.396275642197395]}, "properties": {"OBJECTID": 391, "Type": "552 Parkometer", "publikum_Gate": "Finnegårdsgaten", "publikum_PBetingelser": "08-23 (08-23) Maks. 2 timer mot avgift", "Automatnummer": "K126", "pubklikum_AntallPlasser": 1, "publikum_tilleggsinfo": null}}, {"type": "Feature", "id": 392, "geometry": {"type": "Point", "coordinates": [5.327139997701388, 60.396271732238105]}, "properties": {"OBJECTID": 392, "Type": "552 Parkometer", "publikum_Gate": "Finnegårdsgaten", "publikum_PBetingelser": "08-23 (08-23) Maks. 2 timer mot avgift", "Automatnummer": "K127", "pubklikum_AntallPlasser": 1, "publikum_tilleggsinfo": null}}, {"type": "Feature", "id": 396, "geometry": {"type": "Point", "coordinates": [5.32576606787422, 60.39656754590325]}, "properties": {"OBJECTID": 396, "Type": "552 Parkometer", "publikum_Gate": "Lodin Lepps gate", "publikum_PBetingelser": "08-23 (08-23) Maks. 2 timer mot avgift", "Automatnummer": "K128", "pubklikum_AntallPlasser": 1, "publikum_tilleggsinfo": null}}, {"type": "Feature", "id": 397, "geometry": {"type": "Point", "coordinates": [5.325754462615009, 60.396561746985846]}, "properties": {"OBJECTID": 397, "Type": "552 Parkometer", "publikum_Gate": "Lodin Lepps gate", "publikum_PBetingelser": "08-23 (08-23) Maks. 2 timer mot avgift", "Automatnummer": "K129", "pubklikum_AntallPlasser": 1, "publikum_tilleggsinfo": null}}, {"type": "Feature", "id": 398, "geometry": {"type": "Point", "coordinates": [5.325570880634718, 60.39648288922023]}, "properties": {"OBJECTID": 398, "Type": "552 Parkometer", "publikum_Gate": "Lodin Lepps gate", "publikum_PBetingelser": "08-23 (08-23) Maks. 2 timer mot avgift", "Automatnummer": "K130", "pubklikum_AntallPlasser": 1, "publikum_tilleggsinfo": null}}, {"type": "Feature", "id": 399, "geometry": {"type": "Point", "coordinates": [5.32555932209211, 60.39647767490888]}, "properties": {"OBJECTID": 399, "Type": "552 Parkometer", "publikum_Gate": "Lodin Lepps gate", "publikum_PBetingelser": "08-23 (08-23) Maks. 2 timer mot avgift", "Automatnummer": "K131", "pubklikum_AntallPlasser": 1, "publikum_tilleggsinfo": null}}, {"type": "Feature", "id": 400, "geometry": {"type": "Point", "coordinates": [5.32520128864273, 60.396319251776866]}, "properties": {"OBJECTID": 400, "Type": "552 Parkometer", "publikum_Gate": "Lodin Lepps gate", "publikum_PBetingelser": "08-23 (08-23) Maks. 2 timer mot avgift", "Automatnummer": "K132", "pubklikum_AntallPlasser": 1, "publikum_tilleggsinfo": null}}, {"type": "Feature", "id": 401, "geometry": {"type": "Point", "coordinates": [5.325191126739399, 60.3963139762529]}, "properties": {"OBJECTID": 401, "Type": "552 Parkometer", "publikum_Gate": "Lodin Lepps gate", "publikum_PBetingelser": "08-23 (08-23) Maks. 2 timer mot avgift", "Automatnummer": "K133", "pubklikum_AntallPlasser": 1, "publikum_tilleggsinfo": null}}, {"type": "Feature", "id": 473, "geometry": {"type": "Point", "coordinates": [5.320806822989703, 60.39196091470489]}, "properties": {"OBJECTID": 473, "Type": "552 Parkometer", "publikum_Gate": "Engen", "publikum_PBetingelser": "08-23 (08-23) Maks. 1 time mot avgift", "Automatnummer": "G227", "pubklikum_AntallPlasser": 1, "publikum_tilleggsinfo": null}}, {"type": "Feature", "id": 474, "geometry": {"type": "Point", "coordinates": [5.3208141727302225, 60.391966772537174]}, "properties": {"OBJECTID": 474, "Type": "552 Parkometer", "publikum_Gate": "Engen", "publikum_PBetingelser": "08-23 (08-23) Maks. 1 time mot avgift", "Automatnummer": "G228", "pubklikum_AntallPlasser": 1, "publikum_tilleggsinfo": null}}, {"type": "Feature", "id": 480, "geometry": {"type": "Point", "coordinates": [5.310072365754265, 60.39885694293536]}, "properties": {"OBJECTID": 480, "Type": "552 Automat", "publikum_Gate": "Tollbodallmenningen", "publikum_PBetingelser": "08-23 (08-15) Maks. 2 timer mot avgift, parkering forbudt lørdag 15-20", "Automatnummer": "Automat 17", "pubklikum_AntallPlasser": 28, "publikum_tilleggsinfo": null}}, {"type": "Feature", "id": 481, "geometry": {"type": "Point", "coordinates": [5.309979558796561, 60.398552389160464]}, "properties": {"OBJECTID": 481, "Type": "552 Automat", "publikum_Gate": "Tollbodallmenningen", "publikum_PBetingelser": "08-23 (08-15) Maks. 2 timer mot avgift, parkering forbudt lørdag 15-20", "Automatnummer": "Automat 17", "pubklikum_AntallPlasser": null, "publikum_tilleggsinfo": null}}, {"type": "Feature", "id": 483, "geometry": {"type": "Point", "coordinates": [5.310337384013461, 60.39870715513709]}, "properties": {"OBJECTID": 483, "Type": "552 Automat", "publikum_Gate": "Tollbodallmenningen", "publikum_PBetingelser": "08-23 (08-15) Maks. 2 timer mot avgift, parkering forbudt lørdag 15-20", "Automatnummer": "Automat 17", "pubklikum_AntallPlasser": null, "publikum_tilleggsinfo": null}}, {"type": "Feature", "id": 484, "geometry": {"type": "Point", "coordinates": [5.307297097931727, 60.39936186333909]}, "properties": {"OBJECTID": 484, "Type": "552 Automat", "publikum_Gate": "Strandgaten", "publikum_PBetingelser": "08-23 (08-23) Maks. 2 timer mot avgift", "Automatnummer": "18", "pubklikum_AntallPlasser": 3, "publikum_tilleggsinfo": null}}, {"type": "Feature", "id": 485, "geometry": {"type": "Point", "coordinates": [5.30850402675701, 60.39894367312171]}, "properties": {"OBJECTID": 485, "Type": "552 Automat", "publikum_Gate": "Strandgaten", "publikum_PBetingelser": "08-23 (08-23) Maks. 2 timer mot avgift", "Automatnummer": "18", "pubklikum_AntallPlasser": 3, "publikum_tilleggsinfo": null}}, {"type": "Feature", "id": 499, "geometry": {"type": "Point", "coordinates": [5.313067821293016, 60.39739955190977]}, "properties": {"OBJECTID": 499, "Type": "552 Automat", "publikum_Gate": "C. Sundts gate", "publikum_PBetingelser": "08-23 (08-23) Maks. 2 timer mot avgift", "Automatnummer": "Automat 57", "pubklikum_AntallPlasser": 8, "publikum_tilleggsinfo": null}}, {"type": "Feature", "id": 501, "geometry": {"type": "Point", "coordinates": [5.313772803359197, 60.39717527995194]}, "properties": {"OBJECTID": 501, "Type": "552 Automat", "publikum_Gate": "C. Sundts gate", "publikum_PBetingelser": "08-23 (08-23) Maks. 2 timer mot avgift", "Automatnummer": "Automat 57", "pubklikum_AntallPlasser": 8, "publikum_tilleggsinfo": null}}, {"type": "Feature", "id": 503, "geometry": {"type": "Point", "coordinates": [5.313200215583431, 60.396857086677336]}, "properties": {"OBJECTID": 503, "Type": "552 Automat", "publikum_Gate": "Strandgaten", "publikum_PBetingelser": "08-23 (08-23) Maks. 2 timer mot avgift", "Automatnummer": "Automat 16", "pubklikum_AntallPlasser": 5, "publikum_tilleggsinfo": null}}, {"type": "Feature", "id": 506, "geometry": {"type": "Point", "coordinates": [5.310265232466767, 60.39808561185294]}, "properties": {"OBJECTID": 506, "Type": "552 Automat", "publikum_Gate": "Strandgaten", "publikum_PBetingelser": "08-23 (08-23) Maks. 2 timer mot avgift", "Automatnummer": "Automat 17", "pubklikum_AntallPlasser": 12, "publikum_tilleggsinfo": null}}, {"type": "Feature", "id": 507, "geometry": {"type": "Point", "coordinates": [5.310842680548068, 60.397741919187844]}, "properties": {"OBJECTID": 507, "Type": "552 Automat", "publikum_Gate": "Strandgaten", "publikum_PBetingelser": "08-23 (08-23) Maks. 2 timer mot avgift", "Automatnummer": "Automat 17", "pubklikum_AntallPlasser": 12, "publikum_tilleggsinfo": null}}, {"type": "Feature", "id": 508, "geometry": {"type": "Point", "coordinates": [5.311263877147905, 60.3975184356068]}, "properties": {"OBJECTID": 508, "Type": "552 Automat", "publikum_Gate": "Strandgaten", "publikum_PBetingelser": "08-23 (08-23) Maks. 2 timer mot avgift", "Automatnummer": "Automat 17", "pubklikum_AntallPlasser": 12, "publikum_tilleggsinfo": null}}, {"type": "Feature", "id": 511, "geometry": {"type": "Point", "coordinates": [5.315233742846987, 60.3966593551371]}, "properties": {"OBJECTID": 511, "Type": "552 Automat", "publikum_Gate": "C. Sundts gate", "publikum_PBetingelser": "08-23 (08-23) Maks. 2 timer mot avgift", "Automatnummer": "Automat 19", "pubklikum_AntallPlasser": 12, "publikum_tilleggsinfo": null}}, {"type": "Feature", "id": 517, "geometry": {"type": "Point", "coordinates": [5.321722512626297, 60.38416405967882]}, "properties": {"OBJECTID": 517, "Type": "552 Parkometer", "publikum_Gate": "Storms gate", "publikum_PBetingelser": "08-23 (08-17) Maks. 2 timer mot avgift", "Automatnummer": "B107", "pubklikum_AntallPlasser": 1, "publikum_tilleggsinfo": null}}, {"type": "Feature", "id": 524, "geometry": {"type": "Point", "coordinates": [5.329120876501414, 60.391627451723956]}, "properties": {"OBJECTID": 524, "Type": "552 Parkometer", "publikum_Gate": "Peter Motzfeldts gate", "publikum_PBetingelser": "08-23 (08-23) Maks. 2 timer mot avgift", "Automatnummer": "E135", "pubklikum_AntallPlasser": 1, "publikum_tilleggsinfo": null}}, {"type": "Feature", "id": 525, "geometry": {"type": "Point", "coordinates": [5.329233817388635, 60.39173206021823]}, "properties": {"OBJECTID": 525, "Type": "552 Parkometer", "publikum_Gate": "Peter Motzfeldts gate", "publikum_PBetingelser": "08-23 (08-23) Maks. 2 timer mot avgift", "Automatnummer": "E136", "pubklikum_AntallPlasser": 1, "publikum_tilleggsinfo": null}}, {"type": "Feature", "id": 540, "geometry": {"type": "Point", "coordinates": [5.329066864827817, 60.39519538579976]}, "properties": {"OBJECTID": 540, "Type": "552 Automat", "publikum_Gate": "Øvre Korskirkeallmenningen", "publikum_PBetingelser": "", "Automatnummer": "Automat 22", "pubklikum_AntallPlasser": null, "publikum_tilleggsinfo": null}}, {"type": "Feature", "id": 541, "geometry": {"type": "Point", "coordinates": [5.329538319065443, 60.395332743379086]}, "properties": {"OBJECTID": 541, "Type": "552 Automat", "publikum_Gate": "Øvre Korskirkeallmenningen", "publikum_PBetingelser": null, "Automatnummer": "Automat 22", "pubklikum_AntallPlasser": 12, "publikum_tilleggsinfo": null}}, {"type": "Feature", "id": 543, "geometry": {"type": "Point", "coordinates": [5.322558580387527, 60.394565850917296]}, "properties": {"OBJECTID": 543, "Type": "552 Parkometer", "publikum_Gate": "Fortunen", "publikum_PBetingelser": "08-23 (08-23) Maks. 1 timer mot avgift", "Automatnummer": "F390", "pubklikum_AntallPlasser": 1, "publikum_tilleggsinfo": "2 plasser"}}, {"type": "Feature", "id": 544, "geometry": {"type": "Point", "coordinates": [5.3225487150692885, 60.39455773231343]}, "properties": {"OBJECTID": 544, "Type": "552 Parkometer", "publikum_Gate": "Fortunen", "publikum_PBetingelser": "08-23 (08-23) Maks. 1 timer mot avgift", "Automatnummer": "F389", "pubklikum_AntallPlasser": 1, "publikum_tilleggsinfo": null}}, {"type": "Feature", "id": 545, "geometry": {"type": "Point", "coordinates": [5.322462723817084, 60.39448854868214]}, "properties": {"OBJECTID": 545, "Type": "552 Parkometer", "publikum_Gate": "Fortunen", "publikum_PBetingelser": "08-23 (08-23) Maks. 1 timer mot avgift", "Automatnummer": "F388", "pubklikum_AntallPlasser": 1, "publikum_tilleggsinfo": "2 plasser"}}, {"type": "Feature", "id": 546, "geometry": {"type": "Point", "coordinates": [5.322450775898526, 60.394478991891376]}, "properties": {"OBJECTID": 546, "Type": "552 Parkometer", "publikum_Gate": "Fortunen", "publikum_PBetingelser": "08-23 (08-23) Maks. 1 timer mot avgift", "Automatnummer": "F387", "pubklikum_AntallPlasser": 1, "publikum_tilleggsinfo": null}}, {"type": "Feature", "id": 547, "geometry": {"type": "Point", "coordinates": [5.3223817784403495, 60.39442330923308]}, "properties": {"OBJECTID": 547, "Type": "552 Parkometer", "publikum_Gate": "Fortunen", "publikum_PBetingelser": "08-23 (08-23) Maks. 1 timer mot avgift", "Automatnummer": "F386", "pubklikum_AntallPlasser": 1, "publikum_tilleggsinfo": "1 plass"}}, {"type": "Feature", "id": 549, "geometry": {"type": "Point", "coordinates": [5.322100430043562, 60.39408462947518]}, "properties": {"OBJECTID": 549, "Type": "552 Parkometer", "publikum_Gate": "Fortunen", "publikum_PBetingelser": "08-23 (08-23) Maks. 1 timer mot avgift", "Automatnummer": "F376", "pubklikum_AntallPlasser": 1, "publikum_tilleggsinfo": "2 plasser"}}, {"type": "Feature", "id": 550, "geometry": {"type": "Point", "coordinates": [5.322114174221864, 60.39409307560099]}, "properties": {"OBJECTID": 550, "Type": "552 Parkometer", "publikum_Gate": "Fortunen", "publikum_PBetingelser": "08-23 (08-23) Maks. 1 timer mot avgift", "Automatnummer": "F377", "pubklikum_AntallPlasser": 1, "publikum_tilleggsinfo": null}}, {"type": "Feature", "id": 551, "geometry": {"type": "Point", "coordinates": [5.322025560714246, 60.39403408545946]}, "properties": {"OBJECTID": 551, "Type": "552 Parkometer", "publikum_Gate": "Fortunen", "publikum_PBetingelser": "08-23 (08-23) Maks. 1 timer mot avgift", "Automatnummer": "F375", "pubklikum_AntallPlasser": 1, "publikum_tilleggsinfo": "Midlertidig utilgjengelig"}}, {"type": "Feature", "id": 557, "geometry": {"type": "Point", "coordinates": [5.318276886971814, 60.393676537350544]}, "properties": {"OBJECTID": 557, "Type": "552 Parkometer", "publikum_Gate": "Halvkannebakken", "publikum_PBetingelser": "08-23 (08-23) Maks. 1 timer mot avgift", "Automatnummer": "F212", "pubklikum_AntallPlasser": 1, "publikum_tilleggsinfo": null}}, {"type": "Feature", "id": 558, "geometry": {"type": "Point", "coordinates": [5.31829071812244, 60.39367086938476]}, "properties": {"OBJECTID": 558, "Type": "552 Parkometer", "publikum_Gate": "Halvkannebakken", "publikum_PBetingelser": "08-23 (08-23) Maks. 1 timer mot avgift", "Automatnummer": "F213", "pubklikum_AntallPlasser": 1, "publikum_tilleggsinfo": null}}, {"type": "Feature", "id": 559, "geometry": {"type": "Point", "coordinates": [5.3183333734595815, 60.39365446480275]}, "properties": {"OBJECTID": 559, "Type": "552 Parkometer", "publikum_Gate": "Halvkannebakken", "publikum_PBetingelser": "08-23 (08-23) Maks. 1 timer mot avgift", "Automatnummer": "F214", "pubklikum_AntallPlasser": 1, "publikum_tilleggsinfo": null}}, {"type": "Feature", "id": 560, "geometry": {"type": "Point", "coordinates": [5.3183486204955095, 60.39364890074445]}, "properties": {"OBJECTID": 560, "Type": "552 Parkometer", "publikum_Gate": "Halvkannebakken", "publikum_PBetingelser": "08-23 (08-23) Maks. 1 timer mot avgift", "Automatnummer": "F215", "pubklikum_AntallPlasser": 1, "publikum_tilleggsinfo": null}}, {"type": "Feature", "id": 564, "geometry": {"type": "Point", "coordinates": [5.323140146941338, 60.393580129896925]}, "properties": {"OBJECTID": 564, "Type": "552 Parkometer", "publikum_Gate": "Christian Michelsens gate", "publikum_PBetingelser": "08-23 (08-23) Maks. 1 timer mot avgift", "Automatnummer": "F197", "pubklikum_AntallPlasser": 2, "publikum_tilleggsinfo": "2 plasser"}}, {"type": "Feature", "id": 565, "geometry": {"type": "Point", "coordinates": [5.323123520285821, 60.39357523811423]}, "properties": {"OBJECTID": 565, "Type": "552 Parkometer", "publikum_Gate": "Christian Michelsens gate", "publikum_PBetingelser": "08-23 (08-23) Maks. 1 timer mot avgift", "Automatnummer": "F198", "pubklikum_AntallPlasser": 1, "publikum_tilleggsinfo": null}}, {"type": "Feature", "id": 566, "geometry": {"type": "Point", "coordinates": [5.322991995452413, 60.39353387810187]}, "properties": {"OBJECTID": 566, "Type": "552 Parkometer", "publikum_Gate": "Christian Michelsens gate", "publikum_PBetingelser": "08-23 (08-23) Maks. 1 timer mot avgift", "Automatnummer": "F202", "pubklikum_AntallPlasser": 1, "publikum_tilleggsinfo": "2 plasser"}}, {"type": "Feature", "id": 567, "geometry": {"type": "Point", "coordinates": [5.322973814568113, 60.393528788729]}, "properties": {"OBJECTID": 567, "Type": "552 Parkometer", "publikum_Gate": "Christian Michelsens gate", "publikum_PBetingelser": "08-23 (08-23) Maks. 1 timer mot avgift", "Automatnummer": "F201", "pubklikum_AntallPlasser": 1, "publikum_tilleggsinfo": null}}, {"type": "Feature", "id": 568, "geometry": {"type": "Point", "coordinates": [5.322782364967551, 60.39346952990569]}, "properties": {"OBJECTID": 568, "Type": "552 Parkometer", "publikum_Gate": "Christian Michelsens gate", "publikum_PBetingelser": "08-23 (08-23) Maks. 1 timer mot avgift", "Automatnummer": "F199", "pubklikum_AntallPlasser": 1, "publikum_tilleggsinfo": "2 plasser"}}, {"type": "Feature", "id": 569, "geometry": {"type": "Point", "coordinates": [5.322803148016374, 60.393475509184896]}, "properties": {"OBJECTID": 569, "Type": "552 Parkometer", "publikum_Gate": "Christian Michelsens gate", "publikum_PBetingelser": "08-23 (08-23) Maks. 1 timer mot avgift", "Automatnummer": "F200", "pubklikum_AntallPlasser": 1, "publikum_tilleggsinfo": null}}, {"type": "Feature", "id": 573, "geometry": {"type": "Point", "coordinates": [5.32071665610172, 60.39413041168244]}, "properties": {"OBJECTID": 573, "Type": "552 Automat", "publikum_Gate": "Valkendorfsgaten", "publikum_PBetingelser": "08-23 (08-23) Maks. 1 timer mot avgift", "Automatnummer": "Automat 60", "pubklikum_AntallPlasser": 10, "publikum_tilleggsinfo": null}}, {"type": "Feature", "id": 589, "geometry": {"type": "Point", "coordinates": [5.32741979157462, 60.38567579647364]}, "properties": {"OBJECTID": 589, "Type": "552 Automat", "publikum_Gate": "Allègaten", "publikum_PBetingelser": "08-23 (08-17) Maks. 2 timer mot avgift", "Automatnummer": "1", "pubklikum_AntallPlasser": 20, "publikum_tilleggsinfo": null}}, {"type": "Feature", "id": 590, "geometry": {"type": "Point", "coordinates": [5.327412044036768, 60.38720947651442]}, "properties": {"OBJECTID": 590, "Type": "552 Automat", "publikum_Gate": "Strømgaten", "publikum_PBetingelser": "08-23 (08-17) Maks. 2 timer mot avgift", "Automatnummer": "2", "pubklikum_AntallPlasser": 23, "publikum_tilleggsinfo": null}}, {"type": "Feature", "id": 599, "geometry": {"type": "Point", "coordinates": [5.323515716031438, 60.386839860529314]}, "properties": {"OBJECTID": 599, "Type": "552 Automat", "publikum_Gate": "Parkveien", "publikum_PBetingelser": "08-23 (08-17) Maks. 2 timer mot avgift", "Automatnummer": "34", "pubklikum_AntallPlasser": 4, "publikum_tilleggsinfo": null}}, {"type": "Feature", "id": 602, "geometry": {"type": "Point", "coordinates": [5.319924938060681, 60.387503878195936]}, "properties": {"OBJECTID": 602, "Type": "552 Automat", "publikum_Gate": "Haakon Sheteligs plass", "publikum_PBetingelser": "08-23 (08-17) Maks. 2 timer mot avgift", "Automatnummer": "5", "pubklikum_AntallPlasser": 7, "publikum_tilleggsinfo": null}}, {"type": "Feature", "id": 603, "geometry": {"type": "Point", "coordinates": [5.320378538364362, 60.387901392451965]}, "properties": {"OBJECTID": 603, "Type": "552 Automat", "publikum_Gate": "Haakon Sheteligs plass", "publikum_PBetingelser": "08-23 (08-17) Maks. 2 timer mot avgift", "Automatnummer": "5", "pubklikum_AntallPlasser": null, "publikum_tilleggsinfo": null}}, {"type": "Feature", "id": 608, "geometry": {"type": "Point", "coordinates": [5.318809953359856, 60.38827036147053]}, "properties": {"OBJECTID": 608, "Type": "552 Automat", "publikum_Gate": "Sydnesplassen", "publikum_PBetingelser": "08-23 (08-17) Maks. 2 timer mot avgift", "Automatnummer": "4", "pubklikum_AntallPlasser": 4, "publikum_tilleggsinfo": null}}, {"type": "Feature", "id": 609, "geometry": {"type": "Point", "coordinates": [5.317449466820352, 60.388642920479874]}, "properties": {"OBJECTID": 609, "Type": "552 Automat", "publikum_Gate": "Vinjes gate", "publikum_PBetingelser": "08-17 (08-15) Maks. 2 timer mot avgift", "Automatnummer": null, "pubklikum_AntallPlasser": 14, "publikum_tilleggsinfo": null}}, {"type": "Feature", "id": 610, "geometry": {"type": "Point", "coordinates": [5.317082289564726, 60.38835777858047]}, "properties": {"OBJECTID": 610, "Type": "552 Automat", "publikum_Gate": "Vinjes gate", "publikum_PBetingelser": "08-17 (08-15) Maks. 2 timer mot avgift", "Automatnummer": "4", "pubklikum_AntallPlasser": 14, "publikum_tilleggsinfo": null}}, {"type": "Feature", "id": 1430, "geometry": {"type": "Point", "coordinates": [5.33156583500528, 60.39309412580502]}, "properties": {"OBJECTID": 1430, "Type": "552 Automat", "publikum_Gate": "Heggebakken", "publikum_PBetingelser": "Maks 2 timer mot avgift", "Automatnummer": null, "pubklikum_AntallPlasser": 7, "publikum_tilleggsinfo": null}}, {"type": "Feature", "id": 6258, "geometry": {"type": "Point", "coordinates": [5.301089155233524, 60.38567283306245]}, "properties": {"OBJECTID": 6258, "Type": "552 Automat", "publikum_Gate": "Damsgårdsveien ved kirken", "publikum_PBetingelser": "Max 2 timer mot avgift", "Automatnummer": null, "pubklikum_AntallPlasser": null, "publikum_tilleggsinfo": null}}, {"type": "Feature", "id": 6259, "geometry": {"type": "Point", "coordinates": [5.301108230096706, 60.385584182419535]}, "properties": {"OBJECTID": 6259, "Type": "552 Automat", "publikum_Gate": "Damsgårdsveien ved kirken", "publikum_PBetingelser": "Max 2 timer mot avgift", "Automatnummer": null, "pubklikum_AntallPlasser": 3, "publikum_tilleggsinfo": "3 plasser"}}, {"type": "Feature", "id": 6260, "geometry": {"type": "Point", "coordinates": [5.301377610314613, 60.385486144984625]}, "properties": {"OBJECTID": 6260, "Type": "552 Automat", "publikum_Gate": "Damsgårdsveien 178", "publikum_PBetingelser": "Max 2 timer mot avgift", "Automatnummer": null, "pubklikum_AntallPlasser": 6, "publikum_tilleggsinfo": "6 plasser"}}, {"type": "Feature", "id": 8323, "geometry": {"type": "Point", "coordinates": [5.320222526079379, 60.4129471875899]}, "properties": {"OBJECTID": 8323, "Type": "552 Automat", "publikum_Gate": "Måseskjæret", "publikum_PBetingelser": "p mot avgift", "Automatnummer": null, "pubklikum_AntallPlasser": null, "publikum_tilleggsinfo": null}}, {"type": "Feature", "id": 8324, "geometry": {"type": "Point", "coordinates": [5.319578485385596, 60.41279560278805]}, "properties": {"OBJECTID": 8324, "Type": "552 Automat", "publikum_Gate": "Måseskjæret", "publikum_PBetingelser": "p mot avgift", "Automatnummer": null, "pubklikum_AntallPlasser": null, "publikum_tilleggsinfo": null}}, {"type": "Feature", "id": 8340, "geometry": {"type": "Point", "coordinates": [5.342353710331462, 60.37267808487273]}, "properties": {"OBJECTID": 8340, "Type": "552 Automat", "publikum_Gate": "Inger bang Lunds vei", "publikum_PBetingelser": "Maks 2 timer", "Automatnummer": null, "pubklikum_AntallPlasser": 5, "publikum_tilleggsinfo": null}}, {"type": "Feature", "id": 8342, "geometry": {"type": "Point", "coordinates": [5.342915284512124, 60.3722743933818]}, "properties": {"OBJECTID": 8342, "Type": "552 Automat", "publikum_Gate": "Inger Bang Lunds vei", "publikum_PBetingelser": "Maks 2 timer mot avgift", "Automatnummer": null, "pubklikum_AntallPlasser": 3, "publikum_tilleggsinfo": null}}, {"type": "Feature", "id": 8344, "geometry": {"type": "Point", "coordinates": [5.3289876348330525, 60.393008275656825]}, "properties": {"OBJECTID": 8344, "Type": "552 Automat", "publikum_Gate": "Domkirkegaten", "publikum_PBetingelser": null, "Automatnummer": "21", "pubklikum_AntallPlasser": 9, "publikum_tilleggsinfo": null}}, {"type": "Feature", "id": 8345, "geometry": {"type": "Point", "coordinates": [5.329207796587863, 60.39318676769653]}, "properties": {"OBJECTID": 8345, "Type": "552 Automat", "publikum_Gate": "Domkirkegaten", "publikum_PBetingelser": null, "Automatnummer": "21", "pubklikum_AntallPlasser": null, "publikum_tilleggsinfo": null}}, {"type": "Feature", "id": 8346, "geometry": {"type": "Point", "coordinates": [5.328970573255879, 60.393212918477055]}, "properties": {"OBJECTID": 8346, "Type": "552 Automat", "publikum_Gate": "Domkirkegaten", "publikum_PBetingelser": "08-23 (08-23)  Maks 1 time mot avgift", "Automatnummer": "21", "pubklikum_AntallPlasser": 4, "publikum_tilleggsinfo": null}}, {"type": "Feature", "id": 8350, "geometry": {"type": "Point", "coordinates": [5.320078212648042, 60.39873116326071]}, "properties": {"OBJECTID": 8350, "Type": "552 Automat", "publikum_Gate": "Bradbenken", "publikum_PBetingelser": "08-23 (08-23) Maks 2 timer mot avgift.", "Automatnummer": "26", "pubklikum_AntallPlasser": 8, "publikum_tilleggsinfo": null}}, {"type": "Feature", "id": 8353, "geometry": {"type": "Point", "coordinates": [5.32179968876021, 60.3997649543004]}, "properties": {"OBJECTID": 8353, "Type": "552 Automat", "publikum_Gate": "Sandbro gaten", "publikum_PBetingelser": "08-23 (08-23) maks 2 timer mot avgift.", "Automatnummer": "26", "pubklikum_AntallPlasser": 6, "publikum_tilleggsinfo": null}}, {"type": "Feature", "id": 8670, "geometry": {"type": "Point", "coordinates": [5.326905663325241, 60.38683453445678]}, "properties": {"OBJECTID": 8670, "Type": "552 Automat", "publikum_Gate": "Strømgaten 42", "publikum_PBetingelser": "Maks 2 timer mot avgift", "Automatnummer": "2", "pubklikum_AntallPlasser": 11, "publikum_tilleggsinfo": null}}, {"type": "Feature", "id": 8671, "geometry": {"type": "Point", "coordinates": [5.32220088859348, 60.388156637369754]}, "properties": {"OBJECTID": 8671, "Type": "552 Automat", "publikum_Gate": "Christies gate 20", "publikum_PBetingelser": "08-23 (08-17)", "Automatnummer": "08", "pubklikum_AntallPlasser": 4, "publikum_tilleggsinfo": null}}, {"type": "Feature", "id": 8672, "geometry": {"type": "Point", "coordinates": [5.322496610706813, 60.3884100623666]}, "properties": {"OBJECTID": 8672, "Type": "552 Automat", "publikum_Gate": "Christies gate 18", "publikum_PBetingelser": "Maks 2 timer mot avgift", "Automatnummer": "08", "pubklikum_AntallPlasser": 4, "publikum_tilleggsinfo": null}}, {"type": "Feature", "id": 8673, "geometry": {"type": "Point", "coordinates": [5.337788042102907, 60.38592929123799]}, "properties": {"OBJECTID": 8673, "Type": "552 Automat", "publikum_Gate": "Lungegårdskaien", "publikum_PBetingelser": "Maks 24 timer mot avgift", "Automatnummer": "10", "pubklikum_AntallPlasser": 9, "publikum_tilleggsinfo": null}}, {"type": "Feature", "id": 8674, "geometry": {"type": "Point", "coordinates": [5.320535200682962, 60.390221155170565]}, "properties": {"OBJECTID": 8674, "Type": "552 Automat", "publikum_Gate": "Neumanns gate 25", "publikum_PBetingelser": "15-23 (15-23) Parkering forbudt øvrig tid", "Automatnummer": "6", "pubklikum_AntallPlasser": 3, "publikum_tilleggsinfo": null}}, {"type": "Feature", "id": 8678, "geometry": {"type": "Point", "coordinates": [5.330572288039162, 60.38698001722002]}, "properties": {"OBJECTID": 8678, "Type": "552 Automat", "publikum_Gate": "Daniel Hansens Gate 9", "publikum_PBetingelser": "Maks 2 timer mot avgift", "Automatnummer": "85", "pubklikum_AntallPlasser": 3, "publikum_tilleggsinfo": null}}, {"type": "Feature", "id": 8700, "geometry": {"type": "Point", "coordinates": [5.330229340821798, 60.39357903771754]}, "properties": {"OBJECTID": 8700, "Type": "552 Automat", "publikum_Gate": "Kong Oscars gate  25", "publikum_PBetingelser": "08-23 (08-23) Maks 2 timer mot avgift", "Automatnummer": "46", "pubklikum_AntallPlasser": 5, "publikum_tilleggsinfo": null}}, {"type": "Feature", "id": 8701, "geometry": {"type": "Point", "coordinates": [5.330443702549026, 60.39332930409912]}, "properties": {"OBJECTID": 8701, "Type": "552 Automat", "publikum_Gate": "Kong Oscars gate 29", "publikum_PBetingelser": "08-23(08-23)", "Automatnummer": "46", "pubklikum_AntallPlasser": 5, "publikum_tilleggsinfo": null}}, {"type": "Feature", "id": 9098, "geometry": {"type": "Point", "coordinates": [5.348428465636647, 60.38617763469641]}, "properties": {"OBJECTID": 9098, "Type": "552 Automat", "publikum_Gate": "Kalfarveien", "publikum_PBetingelser": null, "Automatnummer": null, "pubklikum_AntallPlasser": null, "publikum_tilleggsinfo": null}}, {"type": "Feature", "id": 9109, "geometry": {"type": "Point", "coordinates": [5.375065754693568, 60.36361814277742]}, "properties": {"OBJECTID": 9109, "Type": "552 Automat", "publikum_Gate": "Landåslien", "publikum_PBetingelser": null, "Automatnummer": null, "pubklikum_AntallPlasser": null, "publikum_tilleggsinfo": null}}, {"type": "Feature", "id": 9111, "geometry": {"type": "Point", "coordinates": [5.3750465591196255, 60.36372724814488]}, "properties": {"OBJECTID": 9111, "Type": "552 Automat", "publikum_Gate": "Landåslien", "publikum_PBetingelser": null, "Automatnummer": null, "pubklikum_AntallPlasser": null, "publikum_tilleggsinfo": null}}, {"type": "Feature", "id": 9112, "geometry": {"type": "Point", "coordinates": [5.375113160489496, 60.36319483256342]}, "properties": {"OBJECTID": 9112, "Type": "552 Automat", "publikum_Gate": "Landåslien", "publikum_PBetingelser": null, "Automatnummer": null, "pubklikum_AntallPlasser": null, "publikum_tilleggsinfo": null}}]}