{"type": "FeatureCollection", "features": [{"type": "Feature", "id": 1, "geometry": {"type": "Polygon", "coordinates": [[[5.3230020465052545, 60.4005754697683], [5.322738570553335, 60.40063865407781], [5.322670789671964, 60.40061305035719], [5.322776584664388, 60.400496701843494], [5.322830025410692, 60.4004514406501], [5.322966285576257, 60.400325956456285], [5.323004403865909, 60.40032296556267], [5.323013423093813, 60.40032519230618], [5.323004872980214, 60.400285048318516], [5.323456845908282, 60.399953924502505], [5.323558205118771, 60.399879966123194], [5.32373849577118, 60.39974904971781], [5.323775572403462, 60.39972149024557], [5.323810682904166, 60.399695318128046], [5.32379061665696, 60.39968802235469], [5.323801812440911, 60.399678984076424], [5.32394217719613, 60.39957976900863], [5.323962167176307, 60.39956683920694], [5.324063654661026, 60.39948380684862], [5.324095175528377, 60.39946688138223], [5.324111508467487, 60.39943164964171], [5.324146682903122, 60.39940970096878], [5.324174589036497, 60.39938943983344], [5.32417076330965, 60.39938465934049], [5.324090699919688, 60.39934074226316], [5.324106340184747, 60.39933254675249], [5.32400686285492, 60.39928521414455], [5.32403237181209, 60.39927171961302], [5.324027805919802, 60.39926871629796], [5.324040349030341, 60.3992606149595], [5.323980405726375, 60.399072272454916], [5.323976330589836, 60.39901346688981], [5.323976354983704, 60.39901111085848], [5.323976797818229, 60.3990087654935], [5.323977651637027, 60.399006448565174], [5.323978912706863, 60.39900417704789], [5.323980568138389, 60.39900196856183], [5.323982610576431, 60.398999839981215], [5.323985018076679, 60.39899780867592], [5.3239877781545335, 60.39899588868201], [5.323990865446032, 60.3989940954772], [5.32409634983374, 60.39893831705144], [5.324081669915788, 60.398934854442814], [5.3240059505243496, 60.39890714712252], [5.32408711610346, 60.398849527204646], [5.324093039875564, 60.39882928771702], [5.324162392734973, 60.398755614629884], [5.324184013337317, 60.3987331116014], [5.324118919887373, 60.39871594275791], [5.324231202101512, 60.39861118848139], [5.324335418617972, 60.398516725609], [5.324317266747831, 60.3985118197405], [5.3244223668550426, 60.39841118207013], [5.32444225211535, 60.39839753026218], [5.32456008571829, 60.398316027925055], [5.324568129317791, 60.39831400315867], [5.324643292168486, 60.398262868325176], [5.32471776853308, 60.398214594300896], [5.324756792442387, 60.39821171606334], [5.325001057495217, 60.398060992541076], [5.325150820065698, 60.39796212594012], [5.3253376661405065, 60.39784055674775], [5.325428526493168, 60.39778392391167], [5.325439070301544, 60.39777262045374], [5.32553385640731, 60.397711781682894], [5.325538161186, 60.39771064316622], [5.325634796245559, 60.3976559691796], [5.325636167729687, 60.39765349037621], [5.3257788475904695, 60.3975835491961], [5.325977624983391, 60.397521986778884], [5.326119203323961, 60.39745857620555], [5.326126082742396, 60.39745553228871], [5.326314955030932, 60.39736745027249], [5.3264934216334625, 60.39729427332543], [5.326643340059828, 60.39722776606175], [5.326665305750433, 60.39721821699388], [5.326790895211347, 60.397158048403774], [5.326987436574365, 60.39707278747343], [5.326993001593875, 60.39707015392744], [5.327176173324516, 60.39699386941807], [5.327303175472827, 60.39693571858688], [5.327851905939265, 60.396652551074546], [5.32791973239685, 60.3966148767138], [5.3282435767957, 60.396442884865294], [5.328569634139782, 60.39627374151135], [5.328544369563156, 60.396262616879035], [5.328566973278647, 60.39624904135128], [5.328481367898503, 60.39621557903232], [5.328564060370529, 60.396160426499115], [5.3285664861322815, 60.39616148306245], [5.328663722420405, 60.39610304771181], [5.328774381680311, 60.39603338628401], [5.328827194394965, 60.396006442395006], [5.328907006804325, 60.395951030403715], [5.328913711371541, 60.39595283514111], [5.329010586552253, 60.39588782732484], [5.329041320438875, 60.39586656474687], [5.329180817387738, 60.39577154610643], [5.329352380860297, 60.39564028942583], [5.329380684091622, 60.395619588863035], [5.329483361108023, 60.395541799695984], [5.329501482416892, 60.39552935506291], [5.329567977876958, 60.39547276714219], [5.329631986616124, 60.39541736980614], [5.3297688417088, 60.39525234883157], [5.329832790555318, 60.395186162156605], [5.329837378131205, 60.395185749468645], [5.32991234024332, 60.395113755633226], [5.329924421960746, 60.39508712453095], [5.330003556623449, 60.395021539314534], [5.3300208934796975, 60.395009523279086], [5.3300925850173915, 60.39494238259619], [5.330087455033396, 60.39494116155513], [5.330163095084957, 60.39486792886043], [5.330216941274104, 60.39481242881554], [5.33024227895378, 60.39478742361775], [5.330303425080531, 60.39472034957642], [5.330317110411015, 60.39470688542204], [5.330376050182824, 60.394628697720584], [5.330377214872127, 60.394623246176224], [5.330420574074643, 60.39455918847755], [5.33042070677219, 60.39455164387522], [5.330421563582106, 60.39455040737571], [5.33046736612633, 60.39446152165489], [5.330435995428651, 60.39445625005732], [5.330451157009215, 60.39435555151042], [5.330460558054173, 60.39432525203574], [5.3304967598230535, 60.39426513048725], [5.330483838856725, 60.394245990492955], [5.330452041141704, 60.39424286607087], [5.330406594893861, 60.3941111146545], [5.331972719986917, 60.39407026862653], [5.332076427945719, 60.394095884311795], [5.331987382723554, 60.394177093764554], [5.331417584839319, 60.394838185567366], [5.331381633106033, 60.39483162027227], [5.331231058845708, 60.39501702782406], [5.330972770469043, 60.395287815505085], [5.330968732606221, 60.39528815351616], [5.330930744075231, 60.39530130587886], [5.330876849703134, 60.395368489488625], [5.330837053537524, 60.3954186240975], [5.330833218353116, 60.39542849605083], [5.330858073149844, 60.39543358597131], [5.3308060065453295, 60.39548778534661], [5.33075041242402, 60.39554108024422], [5.33074101264554, 60.39555034656541], [5.3307114596629015, 60.395578922506324], [5.330701083859687, 60.395608118321896], [5.330719159589685, 60.3956476265695], [5.330804105855731, 60.39567396769973], [5.330826926181388, 60.39568097799068], [5.3309782965844, 60.39574169051837], [5.331021099408368, 60.39576003784388], [5.331064337767109, 60.39577767991437], [5.331258135857293, 60.39585529094396], [5.331301650134027, 60.395872130710224], [5.331457826678855, 60.39593531125956], [5.331618555943791, 60.39600005529662], [5.331628847846457, 60.39602640394448], [5.331568938976452, 60.39607769264739], [5.331464106574326, 60.39616495315536], [5.331441341344705, 60.396183198541216], [5.331356076477963, 60.3962564388022], [5.331197323199563, 60.39637079228135], [5.331169324583027, 60.3963855694357], [5.331079371909739, 60.39643261274954], [5.330944654172531, 60.39650295873933], [5.330932106239144, 60.3965046798485], [5.330859273823927, 60.39651588314834], [5.3308195027181045, 60.396525480942955], [5.330784405837668, 60.396535478226404], [5.330753608162018, 60.39654604352036], [5.330634014648709, 60.39660952786172], [5.330615506305207, 60.39661099461297], [5.330594411482059, 60.39661274952675], [5.330413256190541, 60.39653422628449], [5.330317196703481, 60.39656089611163], [5.330162407138175, 60.39662939591907], [5.330095720859662, 60.39660314572819], [5.330038548408461, 60.39663866586721], [5.3299506023111345, 60.396694332251535], [5.3300656583073245, 60.39673302841781], [5.329927549890934, 60.39681982350032], [5.329906298142621, 60.396842067003625], [5.329870340552061, 60.396892443025806], [5.3298117804020295, 60.396951468397795], [5.329586166180581, 60.3971662819613], [5.32943601300651, 60.39731385745587], [5.32939253910672, 60.39735786813445], [5.329325636727565, 60.39742118593369], [5.32918645527077, 60.39756331246622], [5.32897388960212, 60.3977310978294], [5.328894441257995, 60.39779128191499], [5.328870170909799, 60.39781002824685], [5.328872962151901, 60.39781100231193], [5.328812865366585, 60.397860665949835], [5.328778609040488, 60.397887404845555], [5.32879736078627, 60.3978951129914], [5.328635221845815, 60.398026449586496], [5.3286264370722485, 60.398035695007096], [5.328763854780016, 60.39808093271889], [5.328692367935633, 60.398133458332374], [5.3285844924543575, 60.39821218123999], [5.328469438301916, 60.398309404900516], [5.328375814770604, 60.398387354420855], [5.328373877999343, 60.39838676076508], [5.3283112781900615, 60.39843932120762], [5.328253266021194, 60.39848652548672], [5.328193474704042, 60.398535119633195], [5.328076481744024, 60.39863174658303], [5.327999277854908, 60.398692982662965], [5.327741034622379, 60.39874382553364], [5.327685402753171, 60.39875065030185], [5.327686350821015, 60.39875184404337], [5.327584298581021, 60.39882560553861], [5.32750256944178, 60.39886891980894], [5.3274432332124455, 60.3988989197843], [5.327382856818237, 60.39893976671149], [5.327397385596768, 60.398944572103744], [5.327347817185658, 60.39900396346438], [5.327280920094124, 60.39899150834499], [5.327209716279559, 60.39896887109557], [5.327197565968125, 60.39896547869106], [5.3271813822751835, 60.398972042567436], [5.327097348289871, 60.39902445910557], [5.327038055986525, 60.39904924877689], [5.326857820718125, 60.399109075244695], [5.326844196132541, 60.39911552999361], [5.326784660007203, 60.39916017401388], [5.326752219770718, 60.39917716457775], [5.326717345577725, 60.39918357263712], [5.326640057580021, 60.39917784370163], [5.326613196251056, 60.39918563970399], [5.326404541911593, 60.399238120207], [5.3263593969854455, 60.39923085209722], [5.326212418055898, 60.3992551042508], [5.326160671956441, 60.39926293275555], [5.326094723621505, 60.39931926467548], [5.326085986851863, 60.399329089213566], [5.326018992606285, 60.399378652866915], [5.326012650450271, 60.399384949171434], [5.325937029910344, 60.39944649484175], [5.325938537781816, 60.39946693968065], [5.325876043872428, 60.399507189989194], [5.325875560430105, 60.399508254318256], [5.325804214364788, 60.39955381116763], [5.325626662800746, 60.3995147987679], [5.325582631221155, 60.39955894483699], [5.325517823992015, 60.39961962235467], [5.325478540150759, 60.39965385975067], [5.325480747302852, 60.39966165146983], [5.325415511126312, 60.39972132929186], [5.325360048989771, 60.3997685120943], [5.325336541190637, 60.39979006345226], [5.325283577305139, 60.39983444082511], [5.325199011975952, 60.39990598642478], [5.325195431926615, 60.39992323472039], [5.325148002705497, 60.39998295410792], [5.325130821211316, 60.400011241605775], [5.325045262559509, 60.40011412846561], [5.32487840863572, 60.40016156071292], [5.32486593170107, 60.400167416912815], [5.324682695556976, 60.40022473358182], [5.324629594135302, 60.40021077174658], [5.324565512630038, 60.40021673170475], [5.3231383853709815, 60.400549037555905], [5.3230020465052545, 60.4005754697683]]]}, "properties": {"OBJECTID": 1, "sone_navn": "Parkeringsforbudssone", "Shape.STArea()": 92250.52439599, "Shape.STLength()": 2061.0487264949775}}, {"type": "Feature", "id": 2, "geometry": {"type": "Polygon", "coordinates": [[[5.3605162988187685, 60.3775714894457], [5.360531933169783, 60.37721515745877], [5.360642650131844, 60.37668180444899], [5.360654154810822, 60.376359572329584], [5.359945274289702, 60.376325699364145], [5.3596434200390295, 60.37611217976638], [5.359871089065164, 60.37603758624251], [5.359912300441347, 60.375970301351614], [5.360616609930936, 60.37603973826731], [5.361140869200417, 60.37584173986395], [5.361641075881468, 60.37568386079497], [5.36242518091566, 60.376255694808464], [5.362637064588526, 60.37637587997974], [5.362867869477381, 60.37637180899558], [5.363015608358792, 60.37630183810798], [5.363066426862202, 60.37611111042385], [5.363178669614687, 60.37541035109487], [5.363362687789535, 60.37507679668258], [5.363600240839713, 60.37444203149654], [5.363346235925832, 60.37403757740266], [5.362832651018382, 60.37373380687902], [5.361641480606564, 60.3733117021503], [5.361435004052687, 60.372889777575985], [5.3621528909695275, 60.37281212705706], [5.363399437211392, 60.372420126540554], [5.363650298947474, 60.37266281571344], [5.36253782760675, 60.372817827774526], [5.362522165782719, 60.37322500956963], [5.3630457210399305, 60.373545964343464], [5.363590505024437, 60.37394773895718], [5.364643520104727, 60.37414434730073], [5.364402605940909, 60.37468912575485], [5.3642938509689975, 60.375743124419415], [5.364102935006366, 60.37627211269494], [5.3640678549967475, 60.37712957655884], [5.363788303358471, 60.37782409399855], [5.362449962037647, 60.37775321044752], [5.362247447366823, 60.37780422013741], [5.362085761761045, 60.37773855787051], [5.361292474770075, 60.37764318247142], [5.3605812255272625, 60.377677943195], [5.3605162988187685, 60.3775714894457]]]}, "properties": {"OBJECTID": 2, "sone_navn": "Parkeringsforbudssone", "Shape.STArea()": 58166.639292025, "Shape.STLength()": 1917.7201911454542}}]}