{"type": "FeatureCollection", "features": [{"type": "Feature", "id": 2, "geometry": {"type": "Polygon", "coordinates": [[[5.324072533857212, 60.389214581851036], [5.323621933162946, 60.38934027267997], [5.323196225978515, 60.38898650287204], [5.322969697669165, 60.3887891497002], [5.322838062600582, 60.388671447418886], [5.3226500128183405, 60.38850976319257], [5.32262518347244, 60.38848840274936], [5.32246230215599, 60.388349884785654], [5.322418443239662, 60.38831047188946], [5.322302902419057, 60.38821110335822], [5.322176497222708, 60.388103432909254], [5.322393455503509, 60.388036360206755], [5.322749168107496, 60.387939466240056], [5.322642305275836, 60.3878398337408], [5.32300196948486, 60.387740758236056], [5.3230297360454255, 60.387729660711926], [5.323052731568521, 60.387715734789], [5.323065153321492, 60.38769900157373], [5.323070035946226, 60.38768151969328], [5.323074970199791, 60.387663499947706], [5.323076463699669, 60.3876454749401], [5.323073940442415, 60.38762760850707], [5.323057596751958, 60.387611517079364], [5.321972354538373, 60.386631986979], [5.321962480128455, 60.38662614204586], [5.3219276804120605, 60.3866207752163], [5.321892685330487, 60.38662349147146], [5.32186269108396, 60.38663344764176], [5.320994433256928, 60.38698441766957], [5.3209164234526245, 60.38701587521398], [5.320812553317499, 60.38695951948539], [5.3203197509739075, 60.38668900121709], [5.320292409721103, 60.38669633309347], [5.320265195257345, 60.38670411788454], [5.320247013102555, 60.38670918831307], [5.320227981090431, 60.38671369592654], [5.320208340022484, 60.3867187241782], [5.320188229159862, 60.38672320103095], [5.320172228185305, 60.386726533268124], [5.3201539829182085, 60.38673052245167], [5.320122237197391, 60.38673665471364], [5.320089588920802, 60.386713819895306], [5.320088758245237, 60.38671316773028], [5.320021468056855, 60.38661432156168], [5.320083804116119, 60.386572095205366], [5.320154299968192, 60.386507532393594], [5.320207504220143, 60.38648986077306], [5.320228821398365, 60.3864844294977], [5.320213781625137, 60.38647124820163], [5.320419879742364, 60.386419878232964], [5.320523544403312, 60.386394432177404], [5.320520390054361, 60.386391828186696], [5.320477670434925, 60.386355233325325], [5.3206385868079, 60.38631645191164], [5.320843187059271, 60.386267106261585], [5.32082757772253, 60.38625732660087], [5.321058954352057, 60.386204047650864], [5.321251847000518, 60.38615707213702], [5.321381333360377, 60.38612640941007], [5.321495039865226, 60.38609557876183], [5.3217377688593785, 60.38604791488419], [5.321890244550361, 60.38599056434437], [5.321962434538933, 60.385963979606], [5.321998798465309, 60.38595069331366], [5.322044088897692, 60.38593396965627], [5.322206419312627, 60.38587455262904], [5.322212497439862, 60.38587858747923], [5.322308475527089, 60.38594209239381], [5.3222414748077815, 60.38599578819521], [5.322217831035433, 60.38601776385758], [5.322348848250692, 60.38605250487163], [5.322392856127828, 60.386021453459186], [5.32243353902487, 60.385992380058], [5.322464459583774, 60.38597265133751], [5.322480842159723, 60.3859610593317], [5.322510203842354, 60.38594389496841], [5.322544572013875, 60.3859241725994], [5.322588735202866, 60.385899688619176], [5.3226361025094295, 60.385877448614075], [5.322663737864981, 60.385864282970196], [5.322710341569845, 60.38584229146858], [5.322983293233246, 60.385702164453704], [5.322991848920644, 60.385706805276534], [5.323205903267333, 60.385594527733396], [5.323363088148949, 60.38552274490573], [5.324159857581703, 60.385128888811536], [5.324254574786927, 60.3851890335982], [5.32437987438323, 60.385295231708106], [5.324403505280804, 60.38531431167266], [5.324412704297526, 60.385322924098304], [5.32441829180502, 60.38533296648202], [5.324424595312827, 60.38534311674244], [5.3244256198599, 60.3853500659835], [5.324443366926588, 60.38552753345885], [5.324441927449051, 60.38554996418377], [5.324433964475418, 60.38556907050485], [5.324424846966711, 60.38557906412546], [5.324412000406893, 60.385588326387065], [5.32439718202875, 60.385595735599786], [5.324410693669071, 60.38559826627523], [5.324420337489144, 60.38559970222673], [5.324430773518138, 60.38560214788051], [5.324442888270842, 60.38560580930402], [5.324452033089611, 60.385610106786515], [5.324468604751312, 60.385622517391006], [5.324474081016387, 60.38563354629728], [5.324474454830655, 60.38564470200637], [5.3244667853243675, 60.38565797230979], [5.324447621109967, 60.38568135028702], [5.324414622327756, 60.38570991941891], [5.3243677864629975, 60.38574035399011], [5.324320837485151, 60.38577500897795], [5.3242837183064635, 60.38580301386843], [5.3242566584327395, 60.38582563426128], [5.324240586229303, 60.385840919319314], [5.324212780797291, 60.385866847427074], [5.324189543759309, 60.385889302943454], [5.324167678400418, 60.385910899353114], [5.324145668584511, 60.385935368891445], [5.324129349623007, 60.3859625115506], [5.324115412406851, 60.38598945130467], [5.324105994913511, 60.38601013168258], [5.3241020639348, 60.386027282166445], [5.32410033749851, 60.38604745790646], [5.324099661715489, 60.386061460828586], [5.324100363248739, 60.3860793667564], [5.324105575043999, 60.38609595746057], [5.324112381812737, 60.38611609945644], [5.324121103723054, 60.38613215982045], [5.324134567156446, 60.38615122838835], [5.324145635240607, 60.386162589860184], [5.324158664309361, 60.386174275188125], [5.324172005111482, 60.38618318188927], [5.324195989556049, 60.3861942730474], [5.324214315530388, 60.38620089074041], [5.32423523487201, 60.386205333969336], [5.324253995512641, 60.38620809964238], [5.32427420459243, 60.386209197593914], [5.324294311517652, 60.386208046565535], [5.324314101708591, 60.38620490667651], [5.324337579313213, 60.38619800738385], [5.324360300204683, 60.38618650048747], [5.324375024451192, 60.386175132063485], [5.32438676944492, 60.38616440123778], [5.324395331176725, 60.38615610001285], [5.3245303831104005, 60.38618877520746], [5.32452333495253, 60.38619325424926], [5.324518740961654, 60.38619861096625], [5.324517112693779, 60.38620494668475], [5.324519319023541, 60.38621273663027], [5.324524338909351, 60.38621979630836], [5.324535335606154, 60.38622693131475], [5.324545759738679, 60.386232703161475], [5.324558362695856, 60.386236916457946], [5.324572598727607, 60.38623946713502], [5.324589985769985, 60.386239857857866], [5.324610092805845, 60.38623870588581], [5.324633570501769, 60.38623504050026], [5.32469479506234, 60.38622513802017], [5.324780550307044, 60.386210251874715], [5.32486240299268, 60.38619615483351], [5.324888360837255, 60.386191478470764], [5.3249231457623, 60.38618731841766], [5.324964835706861, 60.38618316674103], [5.325009459693091, 60.38618035539087], [5.325044125135475, 60.38617897654958], [5.325071808741904, 60.386179831551026], [5.325105179599156, 60.38618183153243], [5.325136999241415, 60.38618468835293], [5.325167289798163, 60.386188221962286], [5.325203517530175, 60.38619380807108], [5.325232987545156, 60.38619659903299], [5.325254160275146, 60.38619889373094], [5.3252755245032315, 60.38619939427981], [5.32529849124043, 60.38619867986538], [5.325321922165895, 60.38619698957316], [5.325347306487424, 60.38619409670999], [5.325365157305425, 60.386190456356765], [5.3253906143819565, 60.38618369877198], [5.325416099959765, 60.38617667232415], [5.325438491248512, 60.3861697419222], [5.325462130514009, 60.3861614069935], [5.325510023741899, 60.38614250706095], [5.325543300582571, 60.386129225292564], [5.325587337710941, 60.38610914108768], [5.3256432179916855, 60.3860838105563], [5.325672057352487, 60.38606797842119], [5.325710004758526, 60.3860438600738], [5.325727534710231, 60.386028525249344], [5.325739566694637, 60.38601366767192], [5.325749751756625, 60.386000646579674], [5.325759893612658, 60.38598313019321], [5.325768814760792, 60.38595560317329], [5.325772851213717, 60.38593908744156], [5.325773461292832, 60.38592400232712], [5.3257723691411405, 60.385911209803645], [5.325770174568878, 60.38589685702563], [5.325766292821396, 60.38588614458555], [5.325760010817279, 60.38587581522928], [5.325749501901337, 60.38586599644695], [5.325739416673215, 60.38585879684813], [5.3257267777864365, 60.38585332432284], [5.325710197665566, 60.385849001235066], [5.325683473808924, 60.38584277906411], [5.325759044001228, 60.38582644329803], [5.325766372638867, 60.385829070825665], [5.325775231745744, 60.385831025183315], [5.325789069930595, 60.38583230459251], [5.325800522269451, 60.38583226152291], [5.325813613053017, 60.38582884910972], [5.325828320157254, 60.3858224244716], [5.325866372714557, 60.3858022646985], [5.325899055444465, 60.38577647103927], [5.325940390799864, 60.38573842555931], [5.325968428693579, 60.385710438951584], [5.325993566645495, 60.38567913466079], [5.326010606268348, 60.385655247467845], [5.326022538570063, 60.38563805108219], [5.326031206234187, 60.385619144817255], [5.327210766709852, 60.38505257996333], [5.327549994145383, 60.38489611678592], [5.3282388301760095, 60.38457799368784], [5.328760882541143, 60.38438460225845], [5.328833982368687, 60.384357948295744], [5.329448231564591, 60.38406175838703], [5.329547307463857, 60.38400921613423], [5.32949302313986, 60.383978505992424], [5.329689653276921, 60.38387230077699], [5.329689277675233, 60.38386114506451], [5.329694890371958, 60.38384997489174], [5.329700328602471, 60.38384041777529], [5.329710869108323, 60.38382902410354], [5.3297243567775725, 60.38382049812113], [5.329739395323961, 60.383811116129955], [5.329873610634949, 60.383738331537614], [5.329921872476098, 60.38371287982781], [5.329960015069472, 60.383693438714076], [5.33000699480967, 60.3836729840682], [5.330046783381506, 60.383656645243555], [5.33012313337208, 60.38363008033054], [5.330261723744459, 60.38358132468612], [5.330410081951932, 60.383526367900174], [5.33088845116388, 60.383348210481174], [5.331153244434826, 60.38338158306447], [5.331165030688985, 60.38338369423973], [5.33117657366405, 60.38338611148945], [5.331187839472111, 60.38338882938449], [5.331216924517034, 60.383397890269535], [5.331244144715051, 60.383408273983015], [5.331269256435032, 60.383419886618256], [5.33129203535697, 60.38343262401585], [5.331312276472006, 60.38344637176337], [5.3313143503825, 60.38340858878004], [5.331309894064241, 60.38337556910676], [5.331301997451142, 60.38334254438836], [5.331288360511548, 60.38330720411676], [5.331275858297161, 60.38328115297167], [5.3312683905469065, 60.38327007122599], [5.331259252712634, 60.38326092079539], [5.331249311209739, 60.38325408601233], [5.331236765095349, 60.3832478067337], [5.331220713050939, 60.383243588774405], [5.3312114920737175, 60.38324162658473], [5.331197715495156, 60.38323980833522], [5.331191117401608, 60.38321131352445], [5.3311795228871, 60.38318366864442], [5.3311638124970395, 60.383155552461496], [5.331141468220946, 60.383116915922805], [5.33124521886372, 60.38303888520432], [5.33149481666288, 60.38291373500845], [5.331594731887084, 60.38286975417073], [5.331699863495212, 60.38281809657419], [5.3317943264200105, 60.382772527060965], [5.33184901582028, 60.38273996981883], [5.331880492437701, 60.3827152219303], [5.331891911368991, 60.38270088624371], [5.3318981908083956, 60.38268865580851], [5.33190582664418, 60.382651475680255], [5.331907784216037, 60.38262762115328], [5.331903373384416, 60.38261680354268], [5.331890837203328, 60.38260072839025], [5.331939675693525, 60.38261366960412], [5.332255580216537, 60.38270426756388], [5.332460414998685, 60.38275737544413], [5.3324891499767855, 60.382764995482646], [5.332517690218195, 60.38277279709697], [5.3326574801804645, 60.382814409538376], [5.332791581438724, 60.382860380576965], [5.332919441488952, 60.38291052151933], [5.332995493231673, 60.382954324133074], [5.333071252713189, 60.38300072520648], [5.333048479629014, 60.38302400475454], [5.333121058426809, 60.38306312754207], [5.333134046493868, 60.38305746456825], [5.333141069273602, 60.38306116363238], [5.333224897045361, 60.38310526953828], [5.333231566769582, 60.38310895975942], [5.333218900284814, 60.383114992036816], [5.333269087670928, 60.38315951928813], [5.333305472018759, 60.38319078313134], [5.333336075253642, 60.38322352967331], [5.3333606488486955, 60.38325749859845], [5.333381662390399, 60.38330127160117], [5.333395219822112, 60.38334576027084], [5.333401227182707, 60.38339065372526], [5.33339708529603, 60.383445187531066], [5.333386439921265, 60.38348659903861], [5.333361632489563, 60.383539214729915], [5.333327368708455, 60.38359031129653], [5.333273193108306, 60.383649037967196], [5.333208739458106, 60.3837054138945], [5.333127496558713, 60.38376743872358], [5.333078172088845, 60.383803918585954], [5.332682132323348, 60.38406704482083], [5.3326419656322015, 60.38409802559784], [5.332629970038408, 60.38410614271152], [5.332569707376923, 60.38415598271758], [5.332523275030926, 60.38416024409179], [5.332476236094684, 60.38416231268324], [5.332429012261201, 60.384162168664346], [5.3323612287834425, 60.384161905122035], [5.3322936597037955, 60.384164591982746], [5.332226830372716, 60.38417020778637], [5.332161255891267, 60.38417870921941], [5.332097444732128, 60.38419003121489], [5.332035889891062, 60.38420408491055], [5.331738522720634, 60.38427929147075], [5.331669146869745, 60.38429715053809], [5.33174511442137, 60.38430949381452], [5.331788243385761, 60.384427979290365], [5.332133455972294, 60.384340700083996], [5.332187826587767, 60.38441581391505], [5.332274818632438, 60.38454791193415], [5.332083275900058, 60.384687966857385], [5.332094626963882, 60.38469196423587], [5.331927557777801, 60.38481786450182], [5.331770342249122, 60.384938552742256], [5.3312934159592125, 60.385303706537336], [5.331158329049735, 60.38541161141904], [5.331153968920256, 60.385411580994095], [5.331021171615093, 60.38551370751458], [5.331011198982876, 60.38551999370134], [5.330812625603962, 60.38567243733129], [5.3307090585547545, 60.385751911942776], [5.330534344979288, 60.38588757477179], [5.330482191317313, 60.385995881101444], [5.330458815853678, 60.38600188725173], [5.330376457287923, 60.38606891228094], [5.330246121325171, 60.38617164623375], [5.3301656730255065, 60.38623611729746], [5.330074181993407, 60.38631161133729], [5.329982105099113, 60.38638421023815], [5.329872071014635, 60.38647114482986], [5.329751884249579, 60.38656759711621], [5.329629449248424, 60.386664704504376], [5.329621514303332, 60.38667059653679], [5.329504917162881, 60.38675941697776], [5.3294103821150705, 60.386831229516275], [5.329318266091553, 60.386902569482345], [5.329193816804129, 60.38699809381686], [5.329041845942641, 60.38711712634089], [5.329037545388478, 60.38711988473056], [5.3289186795955645, 60.38721259598315], [5.3288148850401065, 60.38729242343041], [5.32870753271637, 60.387378081181915], [5.328692540999656, 60.38739025251705], [5.328630712262734, 60.38743932775566], [5.328592222844875, 60.387469903450935], [5.328587822463341, 60.38747346621016], [5.328586220673819, 60.38747477200892], [5.3284944274507, 60.38754809688193], [5.328342774335756, 60.38767064376067], [5.328065434218078, 60.387875555155304], [5.327924059077074, 60.3879504774961], [5.327673165770195, 60.3880834058516], [5.3276219378785274, 60.38811416698774], [5.327455142588397, 60.388201869106354], [5.32740996551285, 60.38821922781447], [5.327256826933859, 60.388292117746616], [5.327120445327127, 60.388346863909945], [5.326956883822221, 60.38841074528216], [5.326771266601345, 60.38846880495227], [5.326521323093366, 60.38853695265227], [5.326411713354193, 60.388566820463204], [5.326254223102612, 60.38861064710205], [5.32609108819349, 60.38865458545542], [5.326093222085361, 60.38865500394003], [5.325585308715568, 60.388793050260695], [5.325386289471211, 60.38884921065399], [5.3243886077635345, 60.38912543827594], [5.324387097130717, 60.38912593401459], [5.324072533857212, 60.389214581851036]]]}, "properties": {"OBJECTID": 2, "sone": "2", "sone_navn": "Nygård", "Status": "Innført", "Sonekort": "", "Elbil": null, "Besøkende": null, "Pris": "Bil 1: Kroner 582 per måned. Bil 2: Kroner 873 per måned. For firmabil koster det kroner 1590 per måned. ", "Shape.STArea()": 189674.68950319, "Shape.STLength()": 2738.5253278862438}}, {"type": "Feature", "id": 3, "geometry": {"type": "Polygon", "coordinates": [[[5.315373009186243, 60.39218800796017], [5.315359908643667, 60.392188182472744], [5.315350129608455, 60.39218791151825], [5.3153396960097155, 60.39218708492926], [5.315327720068716, 60.39218531408308], [5.3153215117708354, 60.392184064373055], [5.315312446646894, 60.39218228339691], [5.315295644823899, 60.39218146011836], [5.315287167522691, 60.39217133725549], [5.31526720905512, 60.392142292390865], [5.315021325031692, 60.39177756609398], [5.315010128625092, 60.3917608972204], [5.315008446483955, 60.39175006470689], [5.314985364935101, 60.39172291066204], [5.314911289019219, 60.39164562448406], [5.314855862451146, 60.391592946276305], [5.314871870630546, 60.3915654355306], [5.3148059514484345, 60.39151237574766], [5.314790313578218, 60.391517336236426], [5.3147075277256794, 60.39145284421482], [5.314698335383967, 60.391455463910184], [5.3144231848937995, 60.39124515323778], [5.31433701729407, 60.39117841004989], [5.314122111283708, 60.39103439484473], [5.31414756421506, 60.39097640702978], [5.31407690512478, 60.390915484660326], [5.314064020934081, 60.39092339673035], [5.314031307289658, 60.390917187792006], [5.314002945244933, 60.390893390803306], [5.313907614240635, 60.39081776277922], [5.3136567312984395, 60.39060497800198], [5.3134205803478425, 60.390404824240406], [5.313402172055152, 60.39038930440525], [5.313321970247246, 60.39032128594545], [5.313289089508637, 60.39029095218054], [5.31326176709707, 60.390259295737515], [5.31324021630776, 60.390226566115466], [5.313224611398842, 60.39019302071888], [5.3132166886185965, 60.39015869150878], [5.3132149665985455, 60.390124150415446], [5.313219456329736, 60.390089669189635], [5.3132301230343835, 60.39005552280655], [5.313246881648036, 60.390021981250904], [5.313269600441215, 60.389989309617626], [5.313298097500628, 60.38995776711537], [5.313800565328814, 60.38946403999967], [5.314602506105417, 60.388674898416085], [5.314727639068492, 60.388551273449174], [5.314848133621594, 60.388431654430306], [5.3149691833691435, 60.388312048007066], [5.315091689232062, 60.388190686886766], [5.315592635583622, 60.38769870942616], [5.315675279875144, 60.38762622789369], [5.315771136387266, 60.387557847008786], [5.315879379340851, 60.38749415596425], [5.3159990769086924, 60.38743570236379], [5.316129200876089, 60.38738298709816], [5.31643671459909, 60.38726836821749], [5.316232549811095, 60.38700016099772], [5.317099279682004, 60.386588849701944], [5.317951106850765, 60.38630918467386], [5.318648009597622, 60.38646853402593], [5.318721642958851, 60.38647102294172], [5.318989207261027, 60.386497664274636], [5.319221544678551, 60.386496997095634], [5.319584013559025, 60.38650172644501], [5.319588944323533, 60.386514355666115], [5.319666817271099, 60.38650985980157], [5.3198864670670245, 60.386492841235956], [5.319999868607394, 60.38648402453771], [5.320045935860772, 60.38649419783166], [5.320213781625137, 60.38647124820163], [5.320228821398365, 60.3864844294977], [5.320207504220143, 60.38648986077306], [5.320154299968192, 60.386507532393594], [5.320083804116119, 60.386572095205366], [5.320021468056855, 60.38661432156168], [5.320088758245237, 60.38671316773028], [5.320089588920802, 60.386713819895306], [5.320122237197391, 60.38673665471364], [5.3201539829182085, 60.38673052245167], [5.320172228185305, 60.386726533268124], [5.320188229159862, 60.38672320103095], [5.320208340022484, 60.3867187241782], [5.320227981090431, 60.38671369592654], [5.320247013102555, 60.38670918831307], [5.320265195257345, 60.38670411788454], [5.320292409721103, 60.38669633309347], [5.3203197509739075, 60.38668900121709], [5.320812553317499, 60.38695951948539], [5.3209164234526245, 60.38701587521398], [5.320994433256928, 60.38698441766957], [5.32186269108396, 60.38663344764176], [5.321892685330487, 60.38662349147146], [5.3219276804120605, 60.3866207752163], [5.321962480128455, 60.38662614204586], [5.321972354538373, 60.386631986979], [5.323057596751958, 60.387611517079364], [5.323073940442415, 60.38762760850707], [5.323076463699669, 60.3876454749401], [5.323074970199791, 60.387663499947706], [5.323070035946226, 60.38768151969328], [5.323065153321492, 60.38769900157373], [5.323052731568521, 60.387715734789], [5.3230297360454255, 60.387729660711926], [5.32300196948486, 60.387740758236056], [5.322642305275836, 60.3878398337408], [5.322749168107496, 60.387939466240056], [5.322393455503509, 60.388036360206755], [5.322176497222708, 60.388103432909254], [5.322302902419057, 60.38821110335822], [5.322418443239662, 60.38831047188946], [5.32246230215599, 60.388349884785654], [5.32262518347244, 60.38848840274936], [5.3226500128183405, 60.38850976319257], [5.322838062600582, 60.388671447418886], [5.322969697669165, 60.3887891497002], [5.323196225978515, 60.38898650287204], [5.323621933162946, 60.38934027267997], [5.323404367870666, 60.38939978151606], [5.322927903113718, 60.389529340765165], [5.32276819018407, 60.38956707898125], [5.322755883148589, 60.389573120280986], [5.322739984378258, 60.38958041138629], [5.322730175520848, 60.38958364464051], [5.322719539502573, 60.38958775384122], [5.322629111952878, 60.38961338806074], [5.322381757635185, 60.38968411479916], [5.322183469420214, 60.3897384931713], [5.321559793258839, 60.38991071214352], [5.321419204220572, 60.389951136779516], [5.321241356449794, 60.39000140358052], [5.3209791163524365, 60.39007684019317], [5.320822910504307, 60.39011880867147], [5.3205702778259365, 60.3901895659051], [5.3203855635764254, 60.39024117141222], [5.320060732520943, 60.39033204003765], [5.319864324007331, 60.39038745581517], [5.319667254874881, 60.39044384173627], [5.319385181417825, 60.39052277022742], [5.3191233929140465, 60.3905957881123], [5.3189237097436015, 60.39065111101617], [5.3187254427609725, 60.3907068332651], [5.318506958437494, 60.39076945395596], [5.31850379356785, 60.39077179316027], [5.318329217082329, 60.39082035184307], [5.317975744992745, 60.3909186935989], [5.317973517432838, 60.39092231619852], [5.31781240108848, 60.39100279383668], [5.317807464320136, 60.391004724432634], [5.31744125346768, 60.3911209582212], [5.317468567238329, 60.3911428378656], [5.317300846206677, 60.39119652683926], [5.317073294022999, 60.39126869224231], [5.317072769896925, 60.39127011494613], [5.317028572588621, 60.39126421699737], [5.317029253885406, 60.39126297841147], [5.316754779942559, 60.391354964326084], [5.315769914379292, 60.391612789414765], [5.315627232352256, 60.39164346986154], [5.315776002605258, 60.39182544113307], [5.315925443341081, 60.392016897198715], [5.316020699469848, 60.39214617956322], [5.315946874426187, 60.39215177529712], [5.315746945394213, 60.39216421295467], [5.315394974217046, 60.39218645937615], [5.315373009186243, 60.39218800796017]]]}, "properties": {"OBJECTID": 3, "sone": "3", "sone_navn": "Sydnes", "Status": "Innført", "Sonekort": "", "Elbil": null, "Besøkende": null, "Pris": "Bil 1: Kroner 582 per måned. Bil 2: Kroner 873 per måned. For firmabil koster det kroner 1590 per måned. ", "Shape.STArea()": 207380.212487635, "Shape.STLength()": 2076.5500824001465}}, {"type": "Feature", "id": 7, "geometry": {"type": "Polygon", "coordinates": [[[5.304835324500647, 60.40134413491083], [5.302455637499075, 60.40136639908125], [5.301110717238875, 60.40103306638972], [5.300130938265814, 60.40049465116], [5.300655512169817, 60.39943310803346], [5.303801997185386, 60.39824383102028], [5.304094000297964, 60.39848806852888], [5.304247882345429, 60.398612786991634], [5.30463356423049, 60.3989264093118], [5.304866218942629, 60.398974937663645], [5.304864945432272, 60.398979755962436], [5.304867161766909, 60.398984221804156], [5.3048726599673595, 60.398988599059294], [5.304896729807501, 60.39900544671907], [5.305177077760311, 60.39923722533784], [5.305289237753896, 60.39933265092153], [5.305348284421102, 60.399379052898354], [5.305333722674191, 60.399385657459256], [5.305355582830925, 60.399401186179944], [5.305438856182081, 60.39946938448953], [5.30547669178406, 60.39947537725435], [5.3055368724678855, 60.399524597907316], [5.305597669813387, 60.399571587686296], [5.305703503428535, 60.3996571288906], [5.3057044900628485, 60.399658056023554], [5.30579161330193, 60.399729145592], [5.305896950437355, 60.39981593299035], [5.306084008991362, 60.39975884037867], [5.306233156242386, 60.39971399461621], [5.306420191491167, 60.39965708067159], [5.306571169413068, 60.39956410906169], [5.307244718429293, 60.399353430544885], [5.307908774759687, 60.39913026209642], [5.307980018081935, 60.399105230893085], [5.308051055801373, 60.39908005732437], [5.3081218912346335, 60.399054744179246], [5.308203325292173, 60.39902545485996], [5.308692824513876, 60.398850017830405], [5.308739131227748, 60.39883328691888], [5.308785081788534, 60.39881631600776], [5.308830666937814, 60.39879910663814], [5.309036471208458, 60.39871622793161], [5.3092338627321976, 60.39862848291424], [5.309422374530754, 60.39853608067619], [5.309545190501114, 60.39847504358741], [5.30965700055886, 60.39840695711124], [5.309934681156158, 60.39824262702112], [5.30999681234155, 60.39820408338454], [5.3102442880042435, 60.39805617125891], [5.3105242962048855, 60.397888848606925], [5.31080393038685, 60.39772151414303], [5.310821464303181, 60.39771112291055], [5.310910209915882, 60.39765936823946], [5.3110016434186305, 60.39760877115532], [5.3110957025971, 60.39755936767778], [5.311298336355765, 60.39746123367388], [5.311511329526438, 60.397368625048465], [5.311734063337592, 60.39728180862072], [5.3117751040853145, 60.39726685327373], [5.31181644219546, 60.39725209491454], [5.312080449043326, 60.39715856765041], [5.312395928424755, 60.397046783697775], [5.312796014985301, 60.39690004166519], [5.3129564064357515, 60.396853613868856], [5.313070230612142, 60.3968157847247], [5.313125092235438, 60.39679806893465], [5.313129106992381, 60.39680114725436], [5.313448892470396, 60.396699366485656], [5.313902364998596, 60.39664101930755], [5.313900018034817, 60.396639334575866], [5.314718984712085, 60.39637863292764], [5.314742211185546, 60.396396443187555], [5.3148520990738515, 60.396359671084014], [5.314872211440993, 60.39637451789317], [5.315451494524396, 60.39618509845621], [5.315510504111312, 60.39619661855399], [5.3155587616452715, 60.39617791169738], [5.31558251454051, 60.39615735928388], [5.315712770462534, 60.39611395927581], [5.315724543220368, 60.39608210660324], [5.315698091874066, 60.39606222797101], [5.315712807641197, 60.3960574242556], [5.316426581282288, 60.395982909192405], [5.316476338491261, 60.395963703362035], [5.316478537713183, 60.39596520149346], [5.316528537005394, 60.39594708273596], [5.316635462488208, 60.39590752980357], [5.316732994155231, 60.395872301527206], [5.316823785666844, 60.395838863031464], [5.31694659501769, 60.395800197371244], [5.31704135056327, 60.39577343172335], [5.3171452664427115, 60.39574440117648], [5.317288044288195, 60.39570584056926], [5.317445922006248, 60.395657450443586], [5.317549468721457, 60.3956171731805], [5.317570217081348, 60.39560892663066], [5.317537277809166, 60.3955820502586], [5.317467024799907, 60.39554793070069], [5.317341046398738, 60.39549258020367], [5.3171457851164465, 60.39541220853014], [5.3168972957763305, 60.395320657850704], [5.316660769504541, 60.39523096601107], [5.316566613187402, 60.39519779910062], [5.316894307062698, 60.39521703058101], [5.31692833625269, 60.39520521059362], [5.317029369228076, 60.39517115589935], [5.317103334286169, 60.39521095661025], [5.317117469245108, 60.395204874717436], [5.317181102682707, 60.39524285947354], [5.317187203962936, 60.39524671540553], [5.317190107211785, 60.39524841278627], [5.317307804629575, 60.39519702264874], [5.317327311965623, 60.395190014509076], [5.317255410929013, 60.39514317217429], [5.317264910827173, 60.39513947862035], [5.317239176618703, 60.39512123983526], [5.317291381082037, 60.39509976455954], [5.317322609520778, 60.39508705707927], [5.3173839241129, 60.39503473564332], [5.317576508943094, 60.39514675956195], [5.3176623714392885, 60.39518419021378], [5.317650104058074, 60.39519149144477], [5.317882601386191, 60.39531207933234], [5.318192737819758, 60.395179730198464], [5.317960850617053, 60.395050531943674], [5.3179646785929195, 60.395048838482325], [5.317955934720036, 60.395044192162096], [5.318092551280075, 60.394974990972564], [5.318046519111572, 60.394946751847606], [5.318212169174461, 60.39487287153837], [5.318312886288811, 60.3948175059592], [5.318397946780421, 60.39478489562012], [5.318122570159991, 60.39464038124375], [5.31811180333553, 60.3946183325368], [5.318108302373048, 60.39461392125948], [5.318177778458023, 60.39457944148607], [5.318310153360361, 60.394512278062585], [5.3184127862522255, 60.394526714135694], [5.318508848572509, 60.39447391694046], [5.318582365299997, 60.3944357746665], [5.318705337785111, 60.39437149737526], [5.318464359957562, 60.39423440738494], [5.318487081564649, 60.39416358085368], [5.318327743052456, 60.39409804892903], [5.317954857555423, 60.394054559696016], [5.317803726739814, 60.39397747977233], [5.317638344917148, 60.39389317579955], [5.317581279758942, 60.39392080744711], [5.3174980349715035, 60.393876255875156], [5.317483502315521, 60.393868304237735], [5.317431848829131, 60.39383999998076], [5.317364636888463, 60.39380308287266], [5.317392583903269, 60.39376637672034], [5.3172412683193, 60.39368452902037], [5.317178292054337, 60.393651953576075], [5.317012598563883, 60.39356566361604], [5.316860523415197, 60.393482534258794], [5.316494815042374, 60.39328895433872], [5.3162454006886986, 60.393163941098585], [5.316178403185908, 60.39312837931108], [5.316066929271187, 60.39306857461463], [5.315981790606911, 60.393106663191084], [5.315913051465099, 60.39307527748932], [5.315813790902895, 60.3931451535592], [5.315729978006128, 60.39309609273022], [5.315706566979669, 60.393078275693014], [5.315641527925111, 60.39304303752554], [5.315621934029589, 60.39305247252658], [5.31558326519262, 60.39302983030142], [5.315571862045808, 60.393013425410054], [5.3155219432337315, 60.39298588477542], [5.315660320140038, 60.39288815318674], [5.315607268648732, 60.39284659400878], [5.315616202020473, 60.39281097840812], [5.3156218530728285, 60.39278830482664], [5.315578718892346, 60.392764998686154], [5.315598750760763, 60.39270991733368], [5.315556777550688, 60.39269563159575], [5.31554288876413, 60.39262900251556], [5.315531416043031, 60.39256342997837], [5.315507810147462, 60.392486285964296], [5.315491684840635, 60.39243298919422], [5.315448361131529, 60.392369591063414], [5.315295644823899, 60.39218146011836], [5.315312446646894, 60.39218228339691], [5.3153215117708354, 60.392184064373055], [5.315327720068716, 60.39218531408308], [5.3153396960097155, 60.39218708492926], [5.315350129608455, 60.39218791151825], [5.315359908643667, 60.392188182472744], [5.315373009186243, 60.39218800796017], [5.315394974217046, 60.39218645937615], [5.315746945394213, 60.39216421295467], [5.315946874426187, 60.39215177529712], [5.316020699469848, 60.39214617956322], [5.315925443341081, 60.392016897198715], [5.315776002605258, 60.39182544113307], [5.315627232352256, 60.39164346986154], [5.315769914379292, 60.391612789414765], [5.316754779942559, 60.391354964326084], [5.317029253885406, 60.39126297841147], [5.317028572588621, 60.39126421699737], [5.317072769896925, 60.39127011494613], [5.317073294022999, 60.39126869224231], [5.317300846206677, 60.39119652683926], [5.317468567238329, 60.3911428378656], [5.31744125346768, 60.3911209582212], [5.317807464320136, 60.391004724432634], [5.31781240108848, 60.39100279383668], [5.317973517432838, 60.39092231619852], [5.317975744992745, 60.3909186935989], [5.318329217082329, 60.39082035184307], [5.31850379356785, 60.39077179316027], [5.318506958437494, 60.39076945395596], [5.3187254427609725, 60.3907068332651], [5.3189237097436015, 60.39065111101617], [5.3191233929140465, 60.3905957881123], [5.319385181417825, 60.39052277022742], [5.319667254874881, 60.39044384173627], [5.319864324007331, 60.39038745581517], [5.320060732520943, 60.39033204003765], [5.3203855635764254, 60.39024117141222], [5.3205702778259365, 60.3901895659051], [5.320822910504307, 60.39011880867147], [5.3209791163524365, 60.39007684019317], [5.321241356449794, 60.39000140358052], [5.321419204220572, 60.389951136779516], [5.321559793258839, 60.38991071214352], [5.322183469420214, 60.3897384931713], [5.322381757635185, 60.38968411479916], [5.322629111952878, 60.38961338806074], [5.322719539502573, 60.38958775384122], [5.322730175520848, 60.38958364464051], [5.322739984378258, 60.38958041138629], [5.322755883148589, 60.389573120280986], [5.32276819018407, 60.38956707898125], [5.322927903113718, 60.389529340765165], [5.323404367870666, 60.38939978151606], [5.323621933162946, 60.38934027267997], [5.324072533857212, 60.389214581851036], [5.324387097130717, 60.38912593401459], [5.3243886077635345, 60.38912543827594], [5.325386289471211, 60.38884921065399], [5.325585308715568, 60.388793050260695], [5.326093222085361, 60.38865500394003], [5.32609108819349, 60.38865458545542], [5.326254223102612, 60.38861064710205], [5.326411713354193, 60.388566820463204], [5.326521323093366, 60.38853695265227], [5.326771266601345, 60.38846880495227], [5.326956883822221, 60.38841074528216], [5.327120445327127, 60.388346863909945], [5.327256826933859, 60.388292117746616], [5.32740996551285, 60.38821922781447], [5.327455142588397, 60.388201869106354], [5.3276219378785274, 60.38811416698774], [5.327673165770195, 60.3880834058516], [5.327924059077074, 60.3879504774961], [5.328065434218078, 60.387875555155304], [5.328342774335756, 60.38767064376067], [5.3284944274507, 60.38754809688193], [5.328586220673819, 60.38747477200892], [5.328587822463341, 60.38747346621016], [5.328592222844875, 60.387469903450935], [5.328630712262734, 60.38743932775566], [5.328692540999656, 60.38739025251705], [5.32870753271637, 60.387378081181915], [5.3288148850401065, 60.38729242343041], [5.3289186795955645, 60.38721259598315], [5.329037545388478, 60.38711988473056], [5.329041845942641, 60.38711712634089], [5.329193816804129, 60.38699809381686], [5.329318266091553, 60.386902569482345], [5.3294103821150705, 60.386831229516275], [5.329504917162881, 60.38675941697776], [5.329621514303332, 60.38667059653679], [5.329629449248424, 60.386664704504376], [5.329751884249579, 60.38656759711621], [5.329872071014635, 60.38647114482986], [5.329982105099113, 60.38638421023815], [5.330074181993407, 60.38631161133729], [5.3301656730255065, 60.38623611729746], [5.330246121325171, 60.38617164623375], [5.330376457287923, 60.38606891228094], [5.330458815853678, 60.38600188725173], [5.330482191317313, 60.385995881101444], [5.330534344979288, 60.38588757477179], [5.3307090585547545, 60.385751911942776], [5.330812625603962, 60.38567243733129], [5.331011198982876, 60.38551999370134], [5.331021171615093, 60.38551370751458], [5.331153968920256, 60.385411580994095], [5.331158329049735, 60.38541161141904], [5.3312934159592125, 60.385303706537336], [5.331770342249122, 60.384938552742256], [5.331927557777801, 60.38481786450182], [5.332094626963882, 60.38469196423587], [5.332083275900058, 60.384687966857385], [5.332274818632438, 60.38454791193415], [5.334947610483374, 60.38495075875959], [5.3352489414161, 60.385005157376646], [5.336336444943217, 60.38564154676488], [5.336905489144874, 60.3859752969306], [5.3373175539119435, 60.386263104467545], [5.337464790689653, 60.386410403164135], [5.337302478311036, 60.38645051525337], [5.337188888809964, 60.38648037190017], [5.337142481474136, 60.3864925757502], [5.337070866611192, 60.386514151008555], [5.336938868209446, 60.38657217430304], [5.336836198228506, 60.386580850714296], [5.33676866988222, 60.38660164137954], [5.336582402226738, 60.38665771713559], [5.336392985520867, 60.38671433774549], [5.336260276109717, 60.38675436452343], [5.336241477359979, 60.3867600483765], [5.336215211669109, 60.386766375866436], [5.336190061814667, 60.38677372908446], [5.336166187418335, 60.38678206119697], [5.336164823946525, 60.3867828334599], [5.3361633236759785, 60.386783239731216], [5.33616105762867, 60.386784077006105], [5.336136627425598, 60.38679465431744], [5.336114206759107, 60.386806271197806], [5.3360939750769685, 60.38681883372317], [5.336076094429864, 60.38683224119846], [5.336060705850758, 60.38684638605769], [5.33596848244425, 60.38694136712607], [5.335955784062599, 60.386954228893885], [5.335973857483063, 60.38695341284544], [5.33599192951072, 60.38695252844629], [5.335986177239329, 60.38699554809566], [5.335972862550356, 60.38703815443154], [5.335952085363105, 60.38708002393582], [5.335924007050593, 60.38712083568134], [5.335888838671273, 60.387160279097095], [5.335880204034697, 60.387174063569866], [5.335846235778714, 60.38722417931541], [5.335813732438248, 60.38727586520411], [5.335770668919134, 60.38734550422506], [5.33575301753, 60.38739427465448], [5.335725391129879, 60.387468743250935], [5.335704807783648, 60.38749028687937], [5.335612917517453, 60.387583926909514], [5.3356080239426324, 60.3875935918313], [5.335604958417203, 60.38760344015429], [5.335603743292155, 60.38761338620828], [5.335604389955524, 60.3876233449197], [5.335606895211422, 60.38763323171186], [5.335611236050534, 60.38764296056315], [5.335617374375523, 60.387652450428995], [5.335616187317517, 60.38768720094747], [5.335537479543651, 60.38775729664057], [5.335434891781851, 60.38784749771214], [5.335251373757066, 60.38787911259835], [5.3352037853322205, 60.3879292132589], [5.335184345095763, 60.38795510173517], [5.335174666255887, 60.38796687999888], [5.335178387653992, 60.38796769981737], [5.3350877530393515, 60.388093733276435], [5.335070254936224, 60.38811527107343], [5.335010555667864, 60.388187508258405], [5.334993727962284, 60.388224730869794], [5.334981849311924, 60.388262417952845], [5.3349749740892385, 60.388300409220484], [5.334994747126895, 60.38832800853438], [5.335087067001259, 60.388458183828064], [5.335080255698336, 60.38846545716397], [5.335470644852925, 60.38879529536687], [5.335495406871006, 60.38882033203824], [5.335515839063631, 60.388846308188405], [5.335531798541696, 60.38887304101774], [5.33554317027709, 60.38890034220235], [5.335549874244086, 60.388928018989624], [5.335551865117341, 60.388955876886264], [5.335549126941707, 60.38898371861265], [5.335541681680985, 60.38901134883234], [5.33553489806172, 60.38902806140702], [5.3355339582973125, 60.38905299289602], [5.33552865138976, 60.38907779055591], [5.335519016603455, 60.38910226671724], [5.335505129110349, 60.38912623739622], [5.335487092849186, 60.389149521198945], [5.3354714024947265, 60.38916625527038], [5.335330182519868, 60.38922051860242], [5.335259940178955, 60.38924923147566], [5.335079606528721, 60.38932182830908], [5.335074626346518, 60.38931926604962], [5.335072904897743, 60.38931840877314], [5.335065529577349, 60.38932099272912], [5.334363682021233, 60.389609222014485], [5.334191441255583, 60.38962604460863], [5.333257368800742, 60.390020037674965], [5.333103231692284, 60.39006962648416], [5.33249480903167, 60.39027296784964], [5.33249720422342, 60.39027429314932], [5.333203117917157, 60.39069876730736], [5.333208063834622, 60.39069674652813], [5.3337551084368835, 60.39047400120402], [5.333807143915838, 60.39050545714256], [5.333933196090954, 60.39045374591668], [5.333944206357226, 60.39046079056909], [5.33402741342813, 60.390426681519386], [5.33401559918847, 60.390420244779584], [5.334142698697852, 60.390368919968395], [5.334157041206448, 60.390378663027235], [5.33423056698102, 60.39036918505408], [5.335373825665257, 60.3900028802936], [5.335524777800275, 60.39009782131734], [5.335689293337063, 60.39020140229628], [5.33587045845302, 60.390316768674765], [5.336103920580359, 60.39046287793473], [5.336148843027835, 60.39049143959299], [5.336203605682147, 60.390469578327696], [5.336234802242254, 60.39045704550403], [5.3362983038403, 60.39049474760265], [5.33640954446737, 60.39055039384068], [5.336439823028115, 60.390578282311026], [5.336509772999216, 60.39061517235513], [5.336477497923237, 60.3906244406999], [5.336443643506362, 60.390631506575694], [5.33629928438441, 60.39066033797832], [5.336215033180653, 60.39067473292257], [5.335863137701014, 60.390756358622575], [5.33562108306372, 60.39078348428156], [5.335598244594979, 60.39078950617703], [5.335585702417823, 60.390792844806604], [5.334517090592068, 60.391104043875494], [5.334420292850634, 60.39113786851412], [5.334351086481908, 60.391162205356366], [5.334233094632335, 60.39122942085962], [5.333967816585316, 60.391335269709145], [5.333802572770905, 60.391412504591536], [5.333776644161216, 60.3914282389822], [5.333729200346409, 60.39145281776661], [5.333726772948266, 60.391451761248504], [5.333675401848067, 60.39147892638997], [5.3336776427552115, 60.39147997776743], [5.333623775542495, 60.391508422295935], [5.333557026280682, 60.39154307388805], [5.333555127015926, 60.391542214387485], [5.333503390664817, 60.39156945927884], [5.333505455369713, 60.39157041412193], [5.333460739355582, 60.39159336117581], [5.333433979470066, 60.39160844251593], [5.333280977916036, 60.39168979115946], [5.333256037478051, 60.39170321308666], [5.333257240652239, 60.39170378644994], [5.333222641767015, 60.391722335851334], [5.333221241709388, 60.39172184963701], [5.333207705404336, 60.39172920531213], [5.33320927080107, 60.39172978776473], [5.333174132198501, 60.39174832317149], [5.333173104653252, 60.39174775465019], [5.333159186861512, 60.391755191480996], [5.3331602244951, 60.39175567039902], [5.333123937230064, 60.39177471251124], [5.333123046669984, 60.391774508191865], [5.333111826002141, 60.39178067026612], [5.333112325210156, 60.39178104355756], [5.333078862970011, 60.391799174858484], [5.333078011526631, 60.391798703770334], [5.333066214806809, 60.39180502971996], [5.333067095278723, 60.39180532364314], [5.33303246399945, 60.391824142649156], [5.333031603805688, 60.391823668622976], [5.333017912797348, 60.391830752167344], [5.333018938834479, 60.391831317951805], [5.332985114165966, 60.39184944103477], [5.332984420186889, 60.39184915225364], [5.3329711198374365, 60.391855976022406], [5.3329719699422435, 60.391856539652316], [5.332936389268394, 60.39187569198198], [5.332934989511307, 60.391875203076566], [5.332913533377559, 60.391886744529366], [5.332762673399109, 60.39196842222127], [5.33254145753936, 60.39209255919737], [5.332329857938876, 60.39221193037564], [5.332306970292941, 60.3922023109791], [5.332139779865147, 60.39230636575789], [5.332166191416796, 60.39231698209], [5.332090969099992, 60.392367216675765], [5.332054403542893, 60.392390298212895], [5.331953543276672, 60.39245052329878], [5.331864113351462, 60.39250917608446], [5.331839664827588, 60.39252144467241], [5.331685603032739, 60.39260401982644], [5.3316932036188645, 60.39260755600247], [5.331603321180721, 60.39264920761789], [5.3316103347799935, 60.392653085335546], [5.331319614721913, 60.39280406798785], [5.331295484356369, 60.392794144492], [5.331185704010013, 60.39285771733061], [5.331081247343287, 60.39295622206206], [5.330827105369986, 60.3931952156265], [5.330523436047383, 60.393481919389856], [5.330456440159229, 60.393546224607526], [5.3302561574538965, 60.39372621297836], [5.330313601113392, 60.39387888922254], [5.3303197099741615, 60.39389236028067], [5.330323023380603, 60.39389200230186], [5.330362164232334, 60.39397667231653], [5.330359370119411, 60.39397722528779], [5.330365242793927, 60.39399122911596], [5.330452041141704, 60.39424286607087], [5.330483838856725, 60.394245990492955], [5.3304967598230535, 60.39426513048725], [5.330460558054173, 60.39432525203574], [5.330451157009215, 60.39435555151042], [5.330435995428651, 60.39445625005732], [5.33046736612633, 60.39446152165489], [5.330421563582106, 60.39455040737571], [5.330420705062406, 60.39455164292921], [5.330420574074643, 60.39455918847755], [5.330377213061369, 60.39462324612625], [5.330376050182824, 60.394628697720584], [5.330317110411015, 60.39470688542204], [5.330303425080531, 60.39472034957642], [5.33024227895378, 60.39478742361775], [5.330216941274104, 60.39481242881554], [5.330163095084957, 60.39486792886043], [5.330087455033396, 60.39494116155513], [5.3300925850173915, 60.39494238259619], [5.3300208934796975, 60.395009523279086], [5.330003556623449, 60.395021539314534], [5.329924421960746, 60.39508712453095], [5.329912338432533, 60.39511375558325], [5.329837378131205, 60.395185749468645], [5.329832790555318, 60.395186162156605], [5.3297688417088, 60.39525234883157], [5.329631986616124, 60.39541736980614], [5.329567977876958, 60.39547276714219], [5.329501482416892, 60.39552935506291], [5.329483361108023, 60.395541799695984], [5.329380684091622, 60.395619588863035], [5.329352380961301, 60.39564028852981], [5.329180817387738, 60.39577154610643], [5.3290413221486865, 60.39586656569288], [5.329010586552253, 60.39588782732484], [5.328913711371541, 60.39595283514111], [5.328907004993496, 60.39595103035373], [5.328827194394965, 60.396006442395006], [5.328774381579289, 60.39603338718006], [5.328663720710596, 60.39610304676576], [5.3285664861322815, 60.39616148306245], [5.328564060370529, 60.396160426499115], [5.328481367898503, 60.39621557903232], [5.328566973278647, 60.39624904135128], [5.328544369563156, 60.396262616879035], [5.328569634038756, 60.396273742407395], [5.3282435767957, 60.396442884865294], [5.32791973239685, 60.3966148767138], [5.327851905939265, 60.396652551074546], [5.327303175472827, 60.39693571858688], [5.327176173324516, 60.39699386941807], [5.326993001593875, 60.39707015392744], [5.326987436574365, 60.39707278747343], [5.326790895211347, 60.397158048403774], [5.326665305750433, 60.39721821699388], [5.326643340059828, 60.39722776606175], [5.326493423444379, 60.39729427337542], [5.32631495322001, 60.39736745022248], [5.326126082742396, 60.39745553228871], [5.326119203323961, 60.39745857620555], [5.325977624983391, 60.397521986778884], [5.3257788475904695, 60.3975835491961], [5.325636167729687, 60.39765349037621], [5.325634796245559, 60.3976559691796], [5.325538162996938, 60.39771064321626], [5.32553385640731, 60.397711781682894], [5.325439070301544, 60.39777262045374], [5.325428526493168, 60.39778392391167], [5.3253376661405065, 60.39784055674775], [5.325150820065698, 60.39796212594012], [5.325001057495217, 60.398060992541076], [5.324756794253333, 60.39821171611338], [5.32471776853308, 60.398214594300896], [5.324643292168486, 60.398262868325176], [5.324568129317791, 60.39831400315867], [5.32456008571829, 60.398316027925055], [5.324442252216504, 60.39839752936613], [5.3244223668550426, 60.39841118207013], [5.324317266747831, 60.3985118197405], [5.324335420428936, 60.398516725659064], [5.324231202101512, 60.39861118848139], [5.324118919786215, 60.39871594365393], [5.324184013337317, 60.3987331116014], [5.324162392734973, 60.398755614629884], [5.324093039875564, 60.39882928771702], [5.324087117914442, 60.3988495272547], [5.3240059505243496, 60.39890714712252], [5.324081669915788, 60.398934854442814], [5.32409634983374, 60.39893831705144], [5.323990865547198, 60.398994094581155], [5.3239877781545335, 60.39899588868201], [5.323985018177846, 60.3989978077799], [5.323982610576431, 60.398999839981215], [5.323980568138389, 60.39900196856183], [5.323978912706863, 60.39900417704789], [5.323977651637027, 60.399006448565174], [5.323976797818229, 60.3990087654935], [5.323976354983704, 60.39901111085848], [5.323976330589836, 60.39901346688981], [5.323980405726375, 60.399072272454916], [5.324040349131507, 60.399260614063465], [5.324027805919802, 60.39926871629796], [5.32403237181209, 60.39927171961302], [5.32400686285492, 60.39928521414455], [5.324106340184747, 60.39933254675249], [5.324090699818525, 60.399340743159186], [5.324170763208486, 60.399384660236514], [5.324174589036497, 60.39938943983344], [5.3241466828019615, 60.39940970186479], [5.324111508467487, 60.39943164964171], [5.324095173717361, 60.39946688133217], [5.324063654661026, 60.39948380684862], [5.323962167176307, 60.39956683920694], [5.32394217719613, 60.39957976900863], [5.323801812440911, 60.399678984076424], [5.32379061665696, 60.39968802235469], [5.323810682904166, 60.399695318128046], [5.323775572403462, 60.39972149024557], [5.32373849577118, 60.39974904971781], [5.323558205118771, 60.399879966123194], [5.323456845908282, 60.399953924502505], [5.323004872879016, 60.40028504921456], [5.323013423093813, 60.40032519230618], [5.323004403865909, 60.40032296556267], [5.322966285576257, 60.400325956456285], [5.322830025410692, 60.4004514406501], [5.32277658647546, 60.40049670189356], [5.322670789671964, 60.40061305035719], [5.322652252921272, 60.400635637541654], [5.3226380008473, 60.40066050125394], [5.322618576691711, 60.400695737267064], [5.322604018894768, 60.40072652383969], [5.322592165641185, 60.40076070902462], [5.322584667824746, 60.40079654442125], [5.322624455548726, 60.40093804111386], [5.3223924244867185, 60.400979814219895], [5.322381545608291, 60.400952876878485], [5.322375331050448, 60.40092557954454], [5.322358172455972, 60.400870008315586], [5.322356787907967, 60.4008517239768], [5.3223544852039355, 60.4008462476102], [5.3223513294909415, 60.400840876189235], [5.322347336946355, 60.40083564341749], [5.322342098817024, 60.40083061349379], [5.32233607632436, 60.40082580456371], [5.322329308188332, 60.400821243763524], [5.322321832724014, 60.40081696181365], [5.322296134043837, 60.40080321834045], [5.3223142304845865, 60.400782955958285], [5.322326079461933, 60.40076656642198], [5.3223376933737, 60.4007425277143], [5.322345316077215, 60.40071847122735], [5.322354556912692, 60.400694548464685], [5.322357843084551, 60.400652575425894], [5.322351318189751, 60.40061068884129], [5.322348773210605, 60.40056882331784], [5.3223506781891325, 60.4005563500278], [5.322354583258545, 60.40054399046375], [5.322360464919767, 60.40053182397085], [5.322368285387749, 60.400519927701545], [5.32237702687744, 60.40050685787147], [5.322388047250689, 60.400494215972884], [5.322401264537438, 60.40048210040675], [5.322400474061138, 60.40048108894883], [5.322212282114778, 60.40022358820066], [5.3215540997064945, 60.39932301255939], [5.321421459032621, 60.39935215194267], [5.319750755336664, 60.39971948138402], [5.319702526354869, 60.39916734875428], [5.3196781182139485, 60.39889792646746], [5.319653871268524, 60.39882795454419], [5.319581209155639, 60.39861903500925], [5.31956314209437, 60.39856676289964], [5.319558391922521, 60.39844322407042], [5.316073398383922, 60.39826171138395], [5.3131194304354485, 60.39993472395113], [5.308902837041716, 60.401005213588874], [5.304835324500647, 60.40134413491083]]]}, "properties": {"OBJECTID": 7, "sone": "1", "sone_navn": "Sentrum", "Status": "Innført", "Sonekort": "Beboere med boligsonekort i sone 1 kan også parkere i sone 2 og 3.", "Elbil": null, "Besøkende": null, "Pris": "Bil 1: Kroner 582 per måned. Bil 2: Kroner 873 per måned. For firmabil koster det kroner 1590 per måned. ", "Shape.STArea()": 1207346.02614904, "Shape.STLength()": 7876.739920531232}}]}